{"type":"FeatureCollection","features":[{"type":"Feature","properties":{"NAME":" ","THEME":"ancient woodland","THEMNAME":"Ancient & Semi-Natural Woodland","THEMID":1411992,"STATUS":"ASNW","PERIMETER":1.1319433793755973,"AREA":4.189381683466113,"X_COORD":347055,"Y_COORD":153608},"geometry":{"type":"Polygon","coordinates":[[[-2.76165,51.27881],[-2.76224,51.279],[-2.76315,51.27944],[-2.76346,51.27953],[-2.76376,51.27967],[-2.76391,51.27982],[-2.76382,51.27984],[-2.76349,51.28006],[-2.76341,51.28007],[-2.76214,51.27985],[-2.76173,51.27983],[-2.76115,51.27975],[-2.75993,51.27944],[-2.75873,51.2792],[-2.75785,51.27906],[-2.75716,51.27889],[-2.75708,51.27881],[-2.76165,51.27881]]]}},{"type":"Feature","properties":{"NAME":" ","THEME":"ancient woodland","THEMNAME":"Ancient & Semi-Natural Woodland","THEMID":1411997,"STATUS":"ASNW","PERIMETER":2.6324483543558017,"AREA":17.275591888383918,"X_COORD":348634,"Y_COORD":155497},"geometry":{"type":"Polygon","coordinates":[[[-2.73718,51.29892],[-2.73716,51.29888],[-2.73722,51.29887],[-2.73752,51.2989],[-2.73785,51.29888],[-2.73791,51.2988],[-2.73842,51.2987],[-2.73834,51.29858],[-2.73838,51.2985],[-2.73845,51.29847],[-2.73844,51.29842],[-2.73816,51.2985],[-2.73792,51.29865],[-2.7376,51.29876],[-2.7372,51.29876],[-2.73713,51.29873],[-2.7371,51.29868],[-2.73711,51.29857],[-2.73742,51.29825],[-2.73753,51.29799],[-2.73774,51.29775],[-2.73782,51.29758],[-2.73812,51.29724],[-2.73813,51.29719],[-2.73804,51.29707],[-2.73745,51.29674],[-2.73665,51.29614],[-2.73622,51.29565],[-2.73585,51.29534],[-2.7355,51.29479],[-2.7352,51.29441],[-2.73511,51.29418],[-2.73501,51.29401],[-2.73494,51.29367],[-2.735,51.2933],[-2.73499,51.29321],[-2.73488,51.29291],[-2.73471,51.29269],[-2.73649,51.29238],[-2.73699,51.29278],[-2.73777,51.29353],[-2.73797,51.29377],[-2.7391,51.29443],[-2.73905,51.29455],[-2.73912,51.29477],[-2.7394,51.29533],[-2.73945,51.29557],[-2.73954,51.29573],[-2.73957,51.2959],[-2.74035,51.29614],[-2.74052,51.29622],[-2.74094,51.29662],[-2.74104,51.29678],[-2.74103,51.29689],[-2.74089,51.297],[-2.74092,51.29717],[-2.74162,51.29742],[-2.74128,51.29782],[-2.73963,51.29893],[-2.73935,51.29935],[-2.73918,51.29938],[-2.73847,51.2993],[-2.73825,51.29936],[-2.73817,51.29959],[-2.73832,51.29961],[-2.73818,51.29984],[-2.73809,51.29984],[-2.73803,51.29991],[-2.73797,51.29989],[-2.73787,51.30004],[-2.73787,51.30011],[-2.73801,51.30012],[-2.738,51.30016],[-2.73792,51.3002],[-2.73798,51.30036],[-2.73796,51.30046],[-2.7378,51.30044],[-2.73773,51.3004],[-2.73768,51.30042],[-2.73764,51.3004],[-2.73768,51.30037],[-2.73765,51.30035],[-2.73756,51.3004],[-2.73748,51.30037],[-2.73734,51.30044],[-2.73735,51.30045],[-2.73733,51.30048],[-2.73701,51.30032],[-2.73711,51.30014],[-2.73701,51.30004],[-2.73702,51.29992],[-2.73735,51.29962],[-2.73744,51.29943],[-2.73738,51.29923],[-2.73718,51.29892]]]}},{"type":"Feature","properties":{"NAME":" ","THEME":"ancient woodland","THEMNAME":"Ancient & Semi-Natural Woodland","THEMID":1418481,"STATUS":"ASNW","PERIMETER":0.5304050275321246,"AREA":1.6467653812639005,"X_COORD":340907,"Y_COORD":157713},"geometry":{"type":"Polygon","coordinates":[[[-2.85052,51.31492],[-2.85055,51.31494],[-2.85031,51.31512],[-2.85023,51.3154],[-2.85014,51.31556],[-2.8487,51.31626],[-2.84802,51.31567],[-2.84821,51.31565],[-2.84849,51.31536],[-2.84877,51.31493],[-2.84903,51.31476],[-2.84923,51.31473],[-2.84935,51.31474],[-2.84948,51.31469],[-2.85023,51.31481],[-2.85052,51.31492]]]}},{"type":"Feature","properties":{"NAME":" ","THEME":"ancient woodland","THEMNAME":"Ancient & Semi-Natural Woodland","THEMID":1418483,"STATUS":"ASNW","PERIMETER":0.436854391465675,"AREA":0.8823920388967037,"X_COORD":340827,"Y_COORD":157796},"geometry":{"type":"Polygon","coordinates":[[[-2.84922,51.31635],[-2.84912,51.31633],[-2.84973,51.31608],[-2.84994,51.31591],[-2.85036,51.3157],[-2.85053,51.31568],[-2.8517,51.31652],[-2.85115,51.31661],[-2.85111,51.31657],[-2.85078,51.31658],[-2.84993,51.31642],[-2.84922,51.31635]]]}},{"type":"Feature","properties":{"NAME":" ","THEME":"ancient woodland","THEMNAME":"Ancient & Semi-Natural Woodland","THEMID":1418498,"STATUS":"ASNW","PERIMETER":0.9963831581676615,"AREA":3.0405489613405234,"X_COORD":349348,"Y_COORD":161291},"geometry":{"type":"Polygon","coordinates":[[[-2.73051,51.34883],[-2.73056,51.34885],[-2.73061,51.34919],[-2.73072,51.34942],[-2.73044,51.34948],[-2.72923,51.34911],[-2.72932,51.34854],[-2.72893,51.34856],[-2.72742,51.34848],[-2.72742,51.34755],[-2.72757,51.34756],[-2.72761,51.34766],[-2.72766,51.34768],[-2.72807,51.34764],[-2.72827,51.34766],[-2.72832,51.34771],[-2.72833,51.34799],[-2.72839,51.34814],[-2.72885,51.34785],[-2.72926,51.34773],[-2.72961,51.34774],[-2.72999,51.34787],[-2.7303,51.34806],[-2.73043,51.34824],[-2.73072,51.34835],[-2.73039,51.34859],[-2.7304,51.34865],[-2.73054,51.3488],[-2.73051,51.34883]]]}},{"type":"Feature","properties":{"NAME":" ","THEME":"ancient woodland","THEMNAME":"Ancient Replanted Woodland","THEMID":1418491,"STATUS":"PAWS","PERIMETER":2.0320399088178287,"AREA":7.8083258231912405,"X_COORD":349065,"Y_COORD":159244},"geometry":{"type":"Polygon","coordinates":[[[-2.73721,51.33106],[-2.73729,51.33139],[-2.73727,51.33154],[-2.73704,51.33164],[-2.73653,51.33116],[-2.7359,51.33085],[-2.7355,51.33072],[-2.73414,51.33044],[-2.73411,51.33032],[-2.73393,51.33022],[-2.73208,51.32956],[-2.73202,51.32958],[-2.73164,51.33025],[-2.7312,51.3307],[-2.73116,51.33073],[-2.73109,51.33072],[-2.73078,51.33094],[-2.7305,51.3311],[-2.73005,51.33126],[-2.72951,51.33137],[-2.72886,51.33144],[-2.72799,51.33142],[-2.72742,51.33124],[-2.72742,51.33079],[-2.72748,51.33078],[-2.72814,51.33099],[-2.72864,51.33105],[-2.72925,51.33097],[-2.72971,51.33083],[-2.73007,51.33062],[-2.73036,51.33035],[-2.73053,51.32996],[-2.73062,51.32968],[-2.73072,51.32905],[-2.73077,51.32905],[-2.73085,51.32893],[-2.73119,51.32867],[-2.73151,51.32858],[-2.73201,51.32848],[-2.73278,51.32843],[-2.73283,51.32835],[-2.73391,51.32891],[-2.734,51.32898],[-2.73421,51.32924],[-2.73584,51.32982],[-2.73634,51.3301],[-2.73655,51.33018],[-2.7367,51.33036],[-2.73665,51.33046],[-2.73667,51.33053],[-2.73693,51.33088],[-2.73706,51.33104],[-2.73721,51.33106]]]}},{"type":"Feature","properties":{"NAME":"BANWELL WOOD","THEME":"ancient woodland","THEMNAME":"Ancient & Semi-Natural Woodland","THEMID":1109402,"STATUS":"ASNW","PERIMETER":0.5431807832176896,"AREA":1.8411901732330724,"X_COORD":340888,"Y_COORD":158797},"geometry":{"type":"Polygon","coordinates":[[[-2.84944,51.32461],[-2.85101,51.3247],[-2.85084,51.32565],[-2.85001,51.32575],[-2.84912,51.3258],[-2.84831,51.32484],[-2.84869,51.3248],[-2.84944,51.32461]]]}},{"type":"Feature","properties":{"NAME":"BANWELL WOOD","THEME":"ancient woodland","THEMNAME":"Ancient & Semi-Natural Woodland","THEMID":1109402,"STATUS":"ASNW","PERIMETER":0.3764126115701894,"AREA":0.4933575738337215,"X_COORD":341018,"Y_COORD":158829},"geometry":{"type":"Polygon","coordinates":[[[-2.84781,51.32488],[-2.84761,51.32492],[-2.84851,51.32586],[-2.84737,51.32598],[-2.8475,51.32541],[-2.84743,51.32491],[-2.84781,51.32488]]]}},{"type":"Feature","properties":{"NAME":"BANWELL WOOD","THEME":"ancient woodland","THEMNAME":"Ancient & Semi-Natural Woodland","THEMID":1109402,"STATUS":"ASNW","PERIMETER":2.8215237697474715,"AREA":17.84737090479812,"X_COORD":340930,"Y_COORD":159073},"geometry":{"type":"Polygon","coordinates":[[[-2.84553,51.32834],[-2.84529,51.32832],[-2.84508,51.32844],[-2.84499,51.32843],[-2.8447,51.3283],[-2.84437,51.32796],[-2.8439,51.32734],[-2.84352,51.32716],[-2.84307,51.32708],[-2.843,51.32703],[-2.84295,51.32696],[-2.84299,51.32675],[-2.84341,51.3263],[-2.84437,51.32574],[-2.84478,51.3256],[-2.84525,51.32537],[-2.84561,51.32527],[-2.8466,51.32506],[-2.84695,51.32502],[-2.84662,51.32618],[-2.84618,51.32642],[-2.84604,51.32662],[-2.84599,51.32678],[-2.84615,51.32704],[-2.84629,51.32718],[-2.84659,51.32737],[-2.8471,51.3276],[-2.84848,51.32801],[-2.84928,51.32809],[-2.85099,51.3281],[-2.85176,51.32807],[-2.852,51.32792],[-2.852,51.32773],[-2.85187,51.32742],[-2.85162,51.32704],[-2.85125,51.32664],[-2.85105,51.32646],[-2.8508,51.3263],[-2.85193,51.32614],[-2.85352,51.3271],[-2.85378,51.32712],[-2.85445,51.32765],[-2.85453,51.32777],[-2.85451,51.32793],[-2.85479,51.32838],[-2.85466,51.32871],[-2.85497,51.329],[-2.85497,51.32926],[-2.85442,51.32956],[-2.85401,51.32969],[-2.85215,51.32999],[-2.85205,51.32993],[-2.8509,51.32985],[-2.85084,51.32948],[-2.85073,51.3294],[-2.84996,51.32912],[-2.84931,51.32897],[-2.84792,51.32887],[-2.84727,51.32873],[-2.8467,51.32864],[-2.84615,51.32847],[-2.84553,51.32834]]]}},{"type":"Feature","properties":{"NAME":"BANWELL WOOD","THEME":"ancient woodland","THEMNAME":"Ancient Replanted Woodland","THEMID":1109402,"STATUS":"PAWS","PERIMETER":0.3412773087369634,"AREA":0.6921272896465848,"X_COORD":340769,"Y_COORD":158796},"geometry":{"type":"Polygon","coordinates":[[[-2.85084,51.32565],[-2.85101,51.3247],[-2.85208,51.32475],[-2.85176,51.32558],[-2.85084,51.32565]]]}},{"type":"Feature","properties":{"NAME":"BANWELL WOOD","THEME":"ancient woodland","THEMNAME":"Ancient Replanted Woodland","THEMID":1109402,"STATUS":"PAWS","PERIMETER":0.3355347993454497,"AREA":0.5329270821642351,"X_COORD":340983,"Y_COORD":158814},"geometry":{"type":"Polygon","coordinates":[[[-2.84802,51.32486],[-2.84831,51.32484],[-2.84912,51.3258],[-2.84851,51.32586],[-2.84761,51.32492],[-2.84802,51.32486]]]}},{"type":"Feature","properties":{"NAME":"BANWELL WOOD","THEME":"ancient woodland","THEMNAME":"Ancient Replanted Woodland","THEMID":1109402,"STATUS":"PAWS","PERIMETER":0.3266396620620463,"AREA":0.5223082570914244,"X_COORD":341072,"Y_COORD":158831},"geometry":{"type":"Polygon","coordinates":[[[-2.84741,51.32491],[-2.84743,51.32491],[-2.8475,51.32541],[-2.84737,51.32598],[-2.84664,51.32608],[-2.84695,51.32502],[-2.84741,51.32491]]]}},{"type":"Feature","properties":{"NAME":"BANWELL WOOD","THEME":"ancient woodland","THEMNAME":"Ancient Replanted Woodland","THEMID":1109402,"STATUS":"PAWS","PERIMETER":0.9220017682484853,"AREA":2.133913831502891,"X_COORD":341002,"Y_COORD":159233},"geometry":{"type":"Polygon","coordinates":[[[-2.84826,51.32941],[-2.84779,51.32942],[-2.84771,51.32945],[-2.84745,51.3293],[-2.84639,51.32895],[-2.84533,51.32849],[-2.84509,51.32843],[-2.84529,51.32832],[-2.84553,51.32834],[-2.84615,51.32847],[-2.8467,51.32864],[-2.84727,51.32873],[-2.84792,51.32887],[-2.84931,51.32897],[-2.84996,51.32912],[-2.85073,51.3294],[-2.85084,51.32948],[-2.8509,51.32985],[-2.85053,51.32983],[-2.84995,51.32976],[-2.84911,51.32954],[-2.84826,51.32941]]]}},{"type":"Feature","properties":{"NAME":"BEARN WOOD","THEME":"ancient woodland","THEMNAME":"Ancient & Semi-Natural Woodland","THEMID":1109410,"STATUS":"ASNW","PERIMETER":1.1943499349562745,"AREA":2.5361082965250596,"X_COORD":344224,"Y_COORD":158007},"geometry":{"type":"Polygon","coordinates":[[[-2.79894,51.3168],[-2.80039,51.31755],[-2.80148,51.31798],[-2.80213,51.31835],[-2.80322,51.3189],[-2.80357,51.31904],[-2.80437,51.31944],[-2.80471,51.31964],[-2.80497,51.31987],[-2.80471,51.31995],[-2.80417,51.31989],[-2.80383,51.31969],[-2.80387,51.31963],[-2.80385,51.31961],[-2.8035,51.3196],[-2.803,51.31929],[-2.80265,51.31918],[-2.80238,51.31903],[-2.80219,51.31898],[-2.80208,51.31889],[-2.80195,51.31888],[-2.80174,51.31893],[-2.80169,51.31891],[-2.80161,51.31887],[-2.80158,51.31875],[-2.80151,51.31863],[-2.80136,51.31849],[-2.80097,51.31841],[-2.80056,51.31812],[-2.80007,51.31783],[-2.79983,51.31774],[-2.7997,51.31763],[-2.79868,51.31721],[-2.79858,51.31707],[-2.79847,51.31702],[-2.79852,51.31697],[-2.79874,51.31687],[-2.79879,51.3169],[-2.79894,51.3168]]]}},{"type":"Feature","properties":{"NAME":"BROAD KNOLL WOOD","THEME":"ancient woodland","THEMNAME":"Ancient & Semi-Natural Woodland","THEMID":1109401,"STATUS":"ASNW","PERIMETER":0.9883119610297756,"AREA":4.926705868530838,"X_COORD":340784,"Y_COORD":156620},"geometry":{"type":"Polygon","coordinates":[[[-2.85182,51.30529],[-2.85231,51.30554],[-2.8529,51.3056],[-2.85328,51.3057],[-2.85344,51.30587],[-2.85339,51.30645],[-2.85276,51.30648],[-2.8528,51.30661],[-2.85213,51.30664],[-2.85141,51.30657],[-2.8506,51.30637],[-2.84999,51.30627],[-2.84998,51.3063],[-2.84991,51.30629],[-2.84913,51.30619],[-2.84857,51.30597],[-2.8484,51.30596],[-2.84839,51.3059],[-2.84848,51.30588],[-2.84859,51.3057],[-2.84899,51.30523],[-2.84917,51.30447],[-2.84927,51.30448],[-2.84948,51.30439],[-2.84961,51.30441],[-2.84972,51.30448],[-2.85,51.3045],[-2.85021,51.30456],[-2.85041,51.30471],[-2.85079,51.30486],[-2.85105,51.30503],[-2.85182,51.30529]]]}},{"type":"Feature","properties":{"NAME":"CHEDDAR WOOD","THEME":"ancient woodland","THEMNAME":"Ancient & Semi-Natural Woodland","THEMID":1109411,"STATUS":"ASNW","PERIMETER":2.013888604899935,"AREA":7.038461857179702,"X_COORD":345171,"Y_COORD":154999},"geometry":{"type":"Polygon","coordinates":[[[-2.78682,51.29329],[-2.78701,51.29226],[-2.78689,51.29199],[-2.78709,51.29165],[-2.78711,51.29094],[-2.78656,51.29005],[-2.78603,51.28889],[-2.78589,51.28846],[-2.78587,51.28818],[-2.78598,51.28805],[-2.78636,51.28788],[-2.78657,51.28788],[-2.78674,51.2881],[-2.78678,51.28838],[-2.78665,51.2886],[-2.78666,51.28872],[-2.78685,51.28905],[-2.78707,51.28955],[-2.78742,51.28954],[-2.78794,51.28966],[-2.78835,51.29003],[-2.78829,51.29017],[-2.7885,51.29083],[-2.78835,51.29236],[-2.78832,51.29307],[-2.78835,51.29318],[-2.78867,51.29321],[-2.78881,51.29302],[-2.78913,51.29274],[-2.78928,51.29254],[-2.78944,51.29244],[-2.78962,51.29226],[-2.7896,51.29223],[-2.78979,51.29212],[-2.78941,51.29259],[-2.78939,51.29266],[-2.78897,51.29324],[-2.78873,51.29373],[-2.78843,51.29417],[-2.78812,51.29472],[-2.7881,51.29467],[-2.78661,51.29402],[-2.78682,51.29329]]]}},{"type":"Feature","properties":{"NAME":"CHEDDAR WOOD","THEME":"ancient woodland","THEMNAME":"Ancient & Semi-Natural Woodland","THEMID":1109411,"STATUS":"ASNW","PERIMETER":5.03414066609789,"AREA":46.53769435908725,"X_COORD":344486,"Y_COORD":155229},"geometry":{"type":"Polygon","coordinates":[[[-2.78969,51.29707],[-2.78955,51.29664],[-2.78912,51.29588],[-2.78908,51.29576],[-2.78902,51.29576],[-2.78888,51.29553],[-2.78837,51.2951],[-2.78828,51.29496],[-2.78824,51.29481],[-2.78839,51.29448],[-2.78887,51.29375],[-2.7891,51.29328],[-2.78962,51.29254],[-2.78976,51.29242],[-2.79015,51.29233],[-2.78949,51.29325],[-2.78966,51.2933],[-2.78971,51.2933],[-2.78994,51.29307],[-2.79009,51.29287],[-2.79031,51.29281],[-2.79046,51.29267],[-2.79054,51.29266],[-2.79063,51.2926],[-2.79142,51.29276],[-2.7911,51.29346],[-2.79067,51.29413],[-2.79122,51.29438],[-2.79117,51.29444],[-2.79083,51.29467],[-2.79077,51.29478],[-2.79062,51.29493],[-2.79084,51.29503],[-2.79158,51.29481],[-2.79146,51.29469],[-2.79139,51.29456],[-2.79168,51.2944],[-2.79195,51.29459],[-2.79213,51.29465],[-2.79266,51.29445],[-2.79269,51.29447],[-2.79315,51.29425],[-2.7931,51.29422],[-2.79343,51.29404],[-2.79352,51.29408],[-2.79361,51.29407],[-2.79395,51.29384],[-2.79462,51.29348],[-2.79466,51.29343],[-2.79432,51.2933],[-2.7946,51.29317],[-2.79487,51.293],[-2.79468,51.29288],[-2.7947,51.29284],[-2.79448,51.29276],[-2.79422,51.29253],[-2.79434,51.29229],[-2.79455,51.29203],[-2.79502,51.29175],[-2.79511,51.29177],[-2.79527,51.29192],[-2.79568,51.29206],[-2.7963,51.29174],[-2.79673,51.29147],[-2.79698,51.29128],[-2.79738,51.29088],[-2.79744,51.29075],[-2.79742,51.29061],[-2.7975,51.29054],[-2.79751,51.29048],[-2.79759,51.2905],[-2.79771,51.29037],[-2.79773,51.29027],[-2.7977,51.29019],[-2.79748,51.29011],[-2.79688,51.28997],[-2.79696,51.28972],[-2.79732,51.2892],[-2.79737,51.28918],[-2.79776,51.28929],[-2.79804,51.28941],[-2.79805,51.28945],[-2.79842,51.2895],[-2.79879,51.28946],[-2.79916,51.28953],[-2.79954,51.28953],[-2.80041,51.28963],[-2.80109,51.2896],[-2.80129,51.2902],[-2.8019,51.29114],[-2.80194,51.29164],[-2.80179,51.29204],[-2.80221,51.29209],[-2.80232,51.29198],[-2.80252,51.29204],[-2.80302,51.29209],[-2.80351,51.29211],[-2.80355,51.29208],[-2.80364,51.29182],[-2.80425,51.29199],[-2.80424,51.29203],[-2.80492,51.29234],[-2.80501,51.29234],[-2.8054,51.29269],[-2.80537,51.29271],[-2.80541,51.29273],[-2.80534,51.29288],[-2.80588,51.29307],[-2.8059,51.29312],[-2.80635,51.29331],[-2.80646,51.29367],[-2.80643,51.29381],[-2.8062,51.29416],[-2.80603,51.29455],[-2.80631,51.29522],[-2.80534,51.29523],[-2.80496,51.29531],[-2.80434,51.29537],[-2.8038,51.29557],[-2.80374,51.29552],[-2.80332,51.29535],[-2.80322,51.29528],[-2.80285,51.29516],[-2.8024,51.29512],[-2.80171,51.29513],[-2.80113,51.29506],[-2.79849,51.29444],[-2.79817,51.29432],[-2.79781,51.29429],[-2.7975,51.29436],[-2.79712,51.29433],[-2.79672,51.29435],[-2.79639,51.29441],[-2.79606,51.29463],[-2.79506,51.29502],[-2.79483,51.29505],[-2.79442,51.29521],[-2.79354,51.29542],[-2.79323,51.2956],[-2.79235,51.29594],[-2.79226,51.296],[-2.79231,51.29604],[-2.79229,51.2961],[-2.79191,51.29629],[-2.7918,51.2964],[-2.79162,51.29676],[-2.79157,51.29704],[-2.79142,51.29703],[-2.7911,51.29763],[-2.79098,51.29773],[-2.79002,51.29792],[-2.78969,51.29707]]]}},{"type":"Feature","properties":{"NAME":"ELLICK WOOD","THEME":"ancient woodland","THEMNAME":"Ancient & Semi-Natural Woodland","THEMID":1109415,"STATUS":"ASNW","PERIMETER":1.0463218591676793,"AREA":2.223581939604625,"X_COORD":348312,"Y_COORD":158106},"geometry":{"type":"Polygon","coordinates":[[[-2.7464,51.3197],[-2.7462,51.3197],[-2.74588,51.31965],[-2.74576,51.31969],[-2.74548,51.31966],[-2.74457,51.31988],[-2.7436,51.32015],[-2.74177,51.31992],[-2.73995,51.31985],[-2.73945,51.3199],[-2.73943,51.3198],[-2.7395,51.31976],[-2.73951,51.31967],[-2.74048,51.3197],[-2.74125,51.31967],[-2.74169,51.31959],[-2.74218,51.31961],[-2.74243,51.31959],[-2.74262,51.31938],[-2.74436,51.31925],[-2.74553,51.3193],[-2.7461,51.31964],[-2.7464,51.3197]]]}},{"type":"Feature","properties":{"NAME":"FULLERS HAY","THEME":"ancient woodland","THEMNAME":"Ancient & Semi-Natural Woodland","THEMID":1109420,"STATUS":"ASNW","PERIMETER":4.24469637076474,"AREA":20.474211308915514,"X_COORD":349300,"Y_COORD":158888},"geometry":{"type":"Polygon","coordinates":[[[-2.72943,51.32384],[-2.72849,51.32408],[-2.72802,51.32609],[-2.72831,51.32616],[-2.72863,51.32619],[-2.72932,51.32609],[-2.73039,51.32603],[-2.73075,51.32592],[-2.73114,51.32569],[-2.73138,51.32559],[-2.73218,51.32536],[-2.73211,51.3257],[-2.73271,51.32613],[-2.73359,51.32617],[-2.73386,51.3264],[-2.73386,51.3268],[-2.73555,51.32769],[-2.73742,51.32858],[-2.73743,51.32874],[-2.73723,51.329],[-2.73702,51.3289],[-2.73599,51.32852],[-2.73576,51.32853],[-2.73549,51.3286],[-2.73528,51.32879],[-2.73499,51.32868],[-2.73442,51.32837],[-2.73446,51.32835],[-2.73414,51.32802],[-2.73412,51.32795],[-2.73406,51.32795],[-2.73344,51.32758],[-2.73319,51.32737],[-2.73213,51.32697],[-2.73197,51.32695],[-2.73088,51.32701],[-2.7301,51.32711],[-2.73009,51.32709],[-2.72999,51.32713],[-2.72979,51.32741],[-2.72964,51.32772],[-2.72934,51.32817],[-2.72918,51.32856],[-2.72893,51.32897],[-2.72877,51.32913],[-2.72862,51.3292],[-2.72809,51.32919],[-2.72823,51.32908],[-2.72794,51.32861],[-2.72742,51.32803],[-2.72742,51.32339],[-2.72872,51.32295],[-2.72885,51.32293],[-2.72913,51.32293],[-2.72952,51.32343],[-2.72937,51.32359],[-2.72943,51.32384]]]}},{"type":"Feature","properties":{"NAME":"FULLERS HAY","THEME":"ancient woodland","THEMNAME":"Ancient Replanted Woodland","THEMID":1109420,"STATUS":"PAWS","PERIMETER":0.9136283044269845,"AREA":5.255279302330895,"X_COORD":349229,"Y_COORD":158692},"geometry":{"type":"Polygon","coordinates":[[[-2.72859,51.32619],[-2.72831,51.32616],[-2.72802,51.32609],[-2.72849,51.32408],[-2.72943,51.32384],[-2.72949,51.32393],[-2.72959,51.32399],[-2.72977,51.32406],[-2.73,51.32411],[-2.73023,51.32421],[-2.73053,51.32426],[-2.73125,51.32428],[-2.73157,51.32441],[-2.73179,51.32454],[-2.73221,51.32467],[-2.73219,51.32484],[-2.73221,51.32509],[-2.73214,51.32536],[-2.73138,51.32559],[-2.73114,51.32569],[-2.73079,51.3259],[-2.73045,51.32602],[-2.72998,51.32607],[-2.72932,51.32609],[-2.72859,51.32619]]]}},{"type":"Feature","properties":{"NAME":"FULLERS HAY","THEME":"ancient woodland","THEMNAME":"Ancient Replanted Woodland","THEMID":1109420,"STATUS":"PAWS","PERIMETER":0.3699043104133143,"AREA":0.7476171075319311,"X_COORD":348797,"Y_COORD":159136},"geometry":{"type":"Polygon","coordinates":[[[-2.73576,51.32853],[-2.73599,51.32852],[-2.73702,51.3289],[-2.73723,51.329],[-2.73681,51.32956],[-2.73654,51.32939],[-2.73528,51.32879],[-2.73549,51.3286],[-2.73576,51.32853]]]}},{"type":"Feature","properties":{"NAME":"HALE COPSE","THEME":"ancient woodland","THEMNAME":"Ancient & Semi-Natural Woodland","THEMID":1109405,"STATUS":"ASNW","PERIMETER":0.7102959431708384,"AREA":2.1674802686452663,"X_COORD":342451,"Y_COORD":156162},"geometry":{"type":"Polygon","coordinates":[[[-2.82774,51.30193],[-2.82762,51.30206],[-2.8271,51.30241],[-2.82705,51.30238],[-2.82705,51.30235],[-2.82716,51.30219],[-2.82711,51.30213],[-2.82694,51.3021],[-2.82688,51.30214],[-2.82678,51.30216],[-2.82606,51.30224],[-2.82547,51.30234],[-2.82508,51.30247],[-2.82527,51.30216],[-2.82592,51.30163],[-2.82618,51.30128],[-2.82631,51.30118],[-2.82661,51.30105],[-2.82717,51.30095],[-2.82767,51.3009],[-2.82805,51.30092],[-2.82826,51.30101],[-2.82861,51.30108],[-2.82851,51.30114],[-2.82838,51.30133],[-2.82809,51.30156],[-2.82774,51.30193]]]}},{"type":"Feature","properties":{"NAME":"KINGS WOOD","THEME":"ancient woodland","THEMNAME":"Ancient & Semi-Natural Woodland","THEMID":1109403,"STATUS":"ASNW","PERIMETER":2.30928648023587,"AREA":10.934260317091583,"X_COORD":341857,"Y_COORD":155683},"geometry":{"type":"Polygon","coordinates":[[[-2.83693,51.29581],[-2.83716,51.29527],[-2.8373,51.29465],[-2.83728,51.29439],[-2.83716,51.29411],[-2.83717,51.29369],[-2.83711,51.29314],[-2.83714,51.29305],[-2.83725,51.29295],[-2.83757,51.29339],[-2.83776,51.29352],[-2.83774,51.29382],[-2.83807,51.29417],[-2.83808,51.29439],[-2.83802,51.29488],[-2.83805,51.29561],[-2.83802,51.29595],[-2.83809,51.29644],[-2.83804,51.2965],[-2.83801,51.29669],[-2.83785,51.29692],[-2.83786,51.29707],[-2.83795,51.29721],[-2.83787,51.2978],[-2.8378,51.29791],[-2.83781,51.29803],[-2.83774,51.29832],[-2.83757,51.2985],[-2.83753,51.29865],[-2.83738,51.29886],[-2.83727,51.29893],[-2.83721,51.29908],[-2.83703,51.29934],[-2.8368,51.29959],[-2.83672,51.29978],[-2.83664,51.29982],[-2.8362,51.2999],[-2.83588,51.29991],[-2.83568,51.3],[-2.83543,51.30004],[-2.83497,51.29997],[-2.83463,51.3002],[-2.83376,51.30015],[-2.83365,51.3001],[-2.83301,51.30008],[-2.83274,51.30011],[-2.83244,51.30008],[-2.83225,51.30013],[-2.83204,51.3001],[-2.8318,51.2999],[-2.83186,51.29988],[-2.83194,51.29958],[-2.83231,51.29911],[-2.83238,51.29832],[-2.83246,51.29833],[-2.83251,51.29821],[-2.83288,51.29821],[-2.8333,51.29827],[-2.8334,51.29838],[-2.8354,51.29873],[-2.83551,51.29864],[-2.83559,51.29852],[-2.83577,51.29844],[-2.83628,51.29742],[-2.8361,51.29737],[-2.8364,51.29661],[-2.83671,51.29665],[-2.83693,51.29581]]]}},{"type":"Feature","properties":{"NAME":"KNOWLE WOOD","THEME":"ancient woodland","THEMNAME":"Ancient & Semi-Natural Woodland","THEMID":1109409,"STATUS":"ASNW","PERIMETER":1.268088743872611,"AREA":5.799760227371829,"X_COORD":343951,"Y_COORD":159237},"geometry":{"type":"Polygon","coordinates":[[[-2.80546,51.32865],[-2.80514,51.32842],[-2.80506,51.32833],[-2.80504,51.32819],[-2.80558,51.32806],[-2.80608,51.32799],[-2.8063,51.328],[-2.80646,51.32839],[-2.8066,51.32852],[-2.80775,51.32908],[-2.80788,51.32911],[-2.80796,51.32924],[-2.80834,51.32955],[-2.80834,51.32965],[-2.80799,51.33013],[-2.80796,51.33033],[-2.80718,51.33053],[-2.80675,51.33072],[-2.80615,51.33049],[-2.80582,51.33055],[-2.80552,51.33053],[-2.80504,51.33045],[-2.80465,51.33033],[-2.80425,51.33017],[-2.80403,51.33005],[-2.80402,51.33001],[-2.80376,51.32997],[-2.80316,51.32973],[-2.80355,51.329],[-2.80516,51.32909],[-2.80535,51.32917],[-2.80535,51.32932],[-2.80532,51.32942],[-2.80543,51.32944],[-2.80621,51.32931],[-2.80614,51.3292],[-2.80609,51.32902],[-2.80557,51.32885],[-2.80551,51.3288],[-2.80546,51.32865]]]}},{"type":"Feature","properties":{"NAME":"LYNCOMBE/SANDFORD WOODS","THEME":"ancient woodland","THEMNAME":"Ancient & Semi-Natural Woodland","THEMID":1109407,"STATUS":"ASNW","PERIMETER":4.511763431080677,"AREA":23.352617623538197,"X_COORD":342942,"Y_COORD":159217},"geometry":{"type":"Polygon","coordinates":[[[-2.82296,51.32901],[-2.82321,51.329],[-2.82372,51.32907],[-2.82493,51.32938],[-2.82517,51.32951],[-2.82529,51.32953],[-2.82528,51.3294],[-2.8255,51.3294],[-2.8258,51.3292],[-2.82655,51.32925],[-2.82652,51.32902],[-2.82715,51.32908],[-2.82739,51.32885],[-2.82754,51.32876],[-2.82785,51.32874],[-2.82867,51.32883],[-2.82913,51.32878],[-2.82929,51.3288],[-2.82923,51.32883],[-2.83083,51.32885],[-2.83199,51.32898],[-2.83248,51.32911],[-2.83273,51.32927],[-2.83285,51.32929],[-2.8333,51.32919],[-2.83348,51.3291],[-2.83346,51.32926],[-2.83357,51.32942],[-2.83308,51.32952],[-2.83275,51.32953],[-2.83241,51.32961],[-2.83089,51.32946],[-2.83082,51.32943],[-2.83092,51.32995],[-2.83018,51.32993],[-2.82964,51.33014],[-2.82916,51.33027],[-2.82805,51.33034],[-2.82757,51.33032],[-2.82742,51.33031],[-2.82719,51.33023],[-2.82686,51.33024],[-2.8268,51.33011],[-2.82633,51.33013],[-2.82615,51.33017],[-2.8261,51.33009],[-2.82577,51.33009],[-2.82574,51.33013],[-2.82566,51.33013],[-2.82529,51.3301],[-2.82486,51.33011],[-2.82487,51.33013],[-2.82438,51.33014],[-2.82432,51.3302],[-2.82404,51.33022],[-2.82348,51.33022],[-2.82292,51.33027],[-2.82268,51.33031],[-2.82275,51.33045],[-2.82185,51.33052],[-2.82071,51.33068],[-2.8207,51.33061],[-2.82012,51.33055],[-2.81992,51.33055],[-2.81952,51.33067],[-2.81937,51.33064],[-2.81925,51.33057],[-2.81837,51.33055],[-2.81826,51.33034],[-2.81804,51.33029],[-2.81572,51.33035],[-2.81576,51.33023],[-2.8159,51.33013],[-2.81566,51.3301],[-2.81571,51.33007],[-2.81569,51.33004],[-2.8148,51.33003],[-2.81489,51.32977],[-2.81466,51.32959],[-2.81478,51.32937],[-2.81473,51.32936],[-2.8147,51.32941],[-2.81441,51.32943],[-2.8139,51.32925],[-2.81337,51.32895],[-2.8133,51.32897],[-2.81327,51.32905],[-2.81324,51.32903],[-2.81318,51.32905],[-2.81324,51.32916],[-2.81317,51.3294],[-2.8131,51.32942],[-2.81315,51.32945],[-2.81313,51.32952],[-2.81287,51.32963],[-2.81241,51.32938],[-2.81185,51.32899],[-2.81157,51.32894],[-2.81134,51.32879],[-2.81136,51.32876],[-2.81107,51.32869],[-2.81069,51.32863],[-2.81013,51.32861],[-2.80848,51.32868],[-2.80802,51.3286],[-2.80753,51.32831],[-2.80736,51.32812],[-2.80726,51.32789],[-2.80767,51.32798],[-2.808,51.32811],[-2.80838,51.32819],[-2.80925,51.32813],[-2.81,51.32802],[-2.81064,51.32807],[-2.8115,51.32804],[-2.81152,51.32802],[-2.81084,51.32756],[-2.81093,51.32744],[-2.81105,51.3274],[-2.81184,51.32749],[-2.81184,51.32754],[-2.81216,51.32749],[-2.81225,51.32762],[-2.81317,51.32775],[-2.81336,51.32786],[-2.8139,51.32796],[-2.81442,51.32826],[-2.8158,51.32868],[-2.81607,51.32866],[-2.81615,51.32875],[-2.8163,51.32879],[-2.81805,51.3288],[-2.81823,51.32883],[-2.81863,51.32881],[-2.81904,51.32886],[-2.81922,51.32897],[-2.81992,51.32911],[-2.82063,51.32903],[-2.82206,51.32906],[-2.82296,51.32901]]]}},{"type":"Feature","properties":{"NAME":"LYNCOMBE/SANDFORD WOODS","THEME":"ancient woodland","THEMNAME":"Ancient Replanted Woodland","THEMID":1109407,"STATUS":"PAWS","PERIMETER":0.8243334321508055,"AREA":1.3461712070326715,"X_COORD":342608,"Y_COORD":159207},"geometry":{"type":"Polygon","coordinates":[[[-2.82296,51.32901],[-2.82273,51.32863],[-2.82429,51.32882],[-2.82646,51.32894],[-2.82651,51.32862],[-2.82691,51.32874],[-2.82728,51.32878],[-2.82754,51.32876],[-2.82739,51.32885],[-2.82715,51.32908],[-2.82652,51.32902],[-2.82655,51.32925],[-2.8258,51.3292],[-2.8255,51.3294],[-2.82528,51.3294],[-2.82529,51.32953],[-2.82517,51.32951],[-2.82493,51.32938],[-2.82372,51.32907],[-2.82321,51.329],[-2.82296,51.32901]]]}},{"type":"Feature","properties":{"NAME":"MENDIP LODGE WOOD","THEME":"ancient woodland","THEMNAME":"Ancient & Semi-Natural Woodland","THEMID":1121222,"STATUS":"ASNW","PERIMETER":3.900826388508703,"AREA":26.68128469521288,"X_COORD":346964,"Y_COORD":158969},"geometry":{"type":"Polygon","coordinates":[[[-2.75718,51.32468],[-2.75763,51.32529],[-2.75837,51.32608],[-2.75862,51.3263],[-2.75916,51.32666],[-2.75941,51.32689],[-2.75955,51.32714],[-2.75955,51.32724],[-2.75946,51.3275],[-2.76259,51.3274],[-2.76418,51.32716],[-2.76531,51.32683],[-2.76641,51.32644],[-2.76712,51.32615],[-2.76729,51.32605],[-2.76658,51.32613],[-2.76513,51.32607],[-2.76435,51.32612],[-2.76438,51.32568],[-2.76436,51.32543],[-2.76668,51.32521],[-2.76878,51.32509],[-2.76883,51.32528],[-2.76878,51.32533],[-2.76886,51.3254],[-2.76906,51.32608],[-2.76904,51.32666],[-2.76906,51.32725],[-2.76903,51.32742],[-2.76881,51.32748],[-2.76866,51.32758],[-2.76865,51.32765],[-2.76831,51.32805],[-2.76834,51.32811],[-2.76846,51.32812],[-2.76817,51.32854],[-2.76788,51.32884],[-2.76779,51.32885],[-2.76762,51.32905],[-2.76745,51.32926],[-2.76745,51.32934],[-2.7672,51.3293],[-2.7666,51.32965],[-2.76647,51.32968],[-2.76567,51.32978],[-2.76437,51.32973],[-2.76434,51.32965],[-2.76372,51.32959],[-2.76331,51.32948],[-2.76273,51.32942],[-2.76238,51.32943],[-2.76162,51.32934],[-2.76166,51.32922],[-2.76102,51.32913],[-2.76063,51.32913],[-2.76002,51.32902],[-2.75999,51.32922],[-2.75956,51.32915],[-2.75926,51.32915],[-2.75891,51.32897],[-2.75881,51.32882],[-2.75871,51.32876],[-2.7585,51.32868],[-2.75826,51.32872],[-2.75801,51.32859],[-2.7579,51.3285],[-2.75772,51.32824],[-2.75738,51.32792],[-2.75651,51.32727],[-2.75607,51.32744],[-2.75604,51.32738],[-2.75575,51.32737],[-2.75565,51.32673],[-2.75565,51.32645],[-2.75567,51.32597],[-2.7558,51.32561],[-2.75614,51.3251],[-2.75634,51.32461],[-2.75695,51.32464],[-2.75718,51.32468]],[[-2.76553,51.32764],[-2.76532,51.32784],[-2.7665,51.32834],[-2.76671,51.32834],[-2.76687,51.32827],[-2.76704,51.32826],[-2.76728,51.32817],[-2.76749,51.32808],[-2.76755,51.32795],[-2.76753,51.32759],[-2.76742,51.32724],[-2.7673,51.32716],[-2.76628,51.32724],[-2.76586,51.32737],[-2.76553,51.32764]]]}},{"type":"Feature","properties":{"NAME":"MENDIP LODGE WOOD","THEME":"ancient woodland","THEMNAME":"Ancient Replanted Woodland","THEMID":1121222,"STATUS":"PAWS","PERIMETER":1.7456045871687875,"AREA":10.05955176632868,"X_COORD":347003,"Y_COORD":158842},"geometry":{"type":"Polygon","coordinates":[[[-2.75854,51.32623],[-2.75763,51.32529],[-2.75721,51.32469],[-2.75959,51.32531],[-2.76089,51.32556],[-2.76322,51.32554],[-2.76436,51.32543],[-2.76438,51.32568],[-2.76435,51.32612],[-2.76513,51.32607],[-2.76658,51.32613],[-2.76729,51.32605],[-2.76712,51.32615],[-2.76605,51.32657],[-2.76531,51.32683],[-2.76394,51.32721],[-2.76259,51.3274],[-2.75955,51.3275],[-2.75946,51.3275],[-2.75955,51.32724],[-2.75955,51.32714],[-2.75941,51.32689],[-2.75916,51.32666],[-2.75854,51.32623]]]}},{"type":"Feature","properties":{"NAME":"MENDIP LODGE WOOD","THEME":"ancient woodland","THEMNAME":"Ancient Replanted Woodland","THEMID":1121222,"STATUS":"PAWS","PERIMETER":0.4535819753568171,"AREA":1.4366613193717053,"X_COORD":346690,"Y_COORD":159018},"geometry":{"type":"Polygon","coordinates":[[[-2.7668,51.32718],[-2.7673,51.32716],[-2.76742,51.32724],[-2.76753,51.32759],[-2.76755,51.32795],[-2.76749,51.32808],[-2.76706,51.32825],[-2.76687,51.32827],[-2.76671,51.32834],[-2.7665,51.32834],[-2.76532,51.32784],[-2.76586,51.32737],[-2.76628,51.32724],[-2.7668,51.32718]]]}},{"type":"Feature","properties":{"NAME":"ROSE WOOD","THEME":"ancient woodland","THEMNAME":"Ancient & Semi-Natural Woodland","THEMID":1109404,"STATUS":"ASNW","PERIMETER":1.4687249196477918,"AREA":9.052201535257284,"X_COORD":342513,"Y_COORD":155603},"geometry":{"type":"Polygon","coordinates":[[[-2.82449,51.29654],[-2.82517,51.29686],[-2.8261,51.29611],[-2.82545,51.29579],[-2.82576,51.2955],[-2.82593,51.29542],[-2.82611,51.29521],[-2.82614,51.29513],[-2.82626,51.29501],[-2.82682,51.29479],[-2.82691,51.29463],[-2.82722,51.29448],[-2.8275,51.29447],[-2.82758,51.2945],[-2.82813,51.29446],[-2.82834,51.2945],[-2.82836,51.29463],[-2.82829,51.29487],[-2.82833,51.29515],[-2.82827,51.29534],[-2.82824,51.2956],[-2.82803,51.29584],[-2.82796,51.29606],[-2.82792,51.29676],[-2.8278,51.29698],[-2.82777,51.29715],[-2.82768,51.29737],[-2.82747,51.29775],[-2.82742,51.29797],[-2.82743,51.29807],[-2.82734,51.29813],[-2.82723,51.2983],[-2.82707,51.29842],[-2.82707,51.29845],[-2.82501,51.29843],[-2.8232,51.2982],[-2.82298,51.29814],[-2.823,51.298],[-2.82315,51.29776],[-2.82318,51.2976],[-2.82328,51.29747],[-2.82329,51.29742],[-2.82394,51.29702],[-2.82422,51.29672],[-2.82449,51.29654]]]}},{"type":"Feature","properties":{"NAME":"ROSE WOOD","THEME":"ancient woodland","THEMNAME":"Ancient Replanted Woodland","THEMID":1109404,"STATUS":"PAWS","PERIMETER":0.32912470563520535,"AREA":0.6162294449330822,"X_COORD":342554,"Y_COORD":155568},"geometry":{"type":"Polygon","coordinates":[[[-2.82449,51.29654],[-2.82479,51.29634],[-2.82495,51.29618],[-2.82545,51.29579],[-2.8261,51.29611],[-2.82517,51.29686],[-2.82449,51.29654]]]}},{"type":"Feature","properties":{"NAME":"SANDFORD HILL WOOD - W","THEME":"ancient woodland","THEMNAME":"Ancient & Semi-Natural Woodland","THEMID":1109406,"STATUS":"ASNW","PERIMETER":0.7443917287124016,"AREA":3.4342772779448567,"X_COORD":342498,"Y_COORD":158757},"geometry":{"type":"Polygon","coordinates":[[[-2.8271,51.32556],[-2.82508,51.3259],[-2.825,51.32471],[-2.82502,51.32429],[-2.82602,51.3242],[-2.82666,51.3242],[-2.82773,51.32433],[-2.82849,51.32451],[-2.8285,51.32453],[-2.82826,51.32485],[-2.82816,51.32507],[-2.82815,51.32517],[-2.82794,51.32542],[-2.8271,51.32556]]]}}]}