{"type":"FeatureCollection","features":[{"type":"Feature","properties":{"UNIQUEID":"26216","MAPPINGARE":3,"MAPSTATUS":"Conc","AUTHORITY":"Somerset","CL_NUMBER":"CL227","NAME":"The area of land to the south-west of Cross Moor Drove","DATESIGNED":1124668800000,"CACHAIR":"Dr. Tayo Adebowale","ISSUEDATE":1125446400000,"Version":"v3"},"geometry":{"type":"Polygon","coordinates":[[[-2.83961,51.28349],[-2.83958,51.28346],[-2.83972,51.28338],[-2.83968,51.28334],[-2.84023,51.28306],[-2.84037,51.28293],[-2.8405,51.28256],[-2.84057,51.28247],[-2.84068,51.2822],[-2.84093,51.28193],[-2.84117,51.28146],[-2.84143,51.28105],[-2.84144,51.28099],[-2.84355,51.27952],[-2.84367,51.27945],[-2.84376,51.27949],[-2.84378,51.27952],[-2.8434,51.27981],[-2.84158,51.28104],[-2.84104,51.28192],[-2.84078,51.28222],[-2.84068,51.28249],[-2.84058,51.28267],[-2.84053,51.2828],[-2.84056,51.28281],[-2.84047,51.283],[-2.84031,51.28312],[-2.83961,51.28349]]]}},{"type":"Feature","properties":{"UNIQUEID":"26218","MAPPINGARE":3,"MAPSTATUS":"Conc","AUTHORITY":"Somerset","CL_NUMBER":"CL106","NAME":"Middle Rhyne","DATESIGNED":1124668800000,"CACHAIR":"Dr. Tayo Adebowale","ISSUEDATE":1125446400000,"Version":"v3"},"geometry":{"type":"Polygon","coordinates":[[[-2.84917,51.28134],[-2.84751,51.28356],[-2.84702,51.28435],[-2.84613,51.28559],[-2.84601,51.28566],[-2.84597,51.28561],[-2.84681,51.28446],[-2.84721,51.28377],[-2.84764,51.28288],[-2.84785,51.28254],[-2.84787,51.28248],[-2.84779,51.2824],[-2.84779,51.2823],[-2.84804,51.28227],[-2.84808,51.28224],[-2.84869,51.28152],[-2.84883,51.28141],[-2.84921,51.28097],[-2.84936,51.28099],[-2.84935,51.28101],[-2.84928,51.28119],[-2.84917,51.28134]]]}},{"type":"Feature","properties":{"UNIQUEID":"26219","MAPPINGARE":3,"MAPSTATUS":"Conc","AUTHORITY":"Somerset","CL_NUMBER":"CL52","NAME":"Cross Moor Drove","DATESIGNED":1124668800000,"CACHAIR":"Dr. Tayo Adebowale","ISSUEDATE":1125446400000,"Version":"v3"},"geometry":{"type":"Polygon","coordinates":[[[-2.83833,51.28258],[-2.83937,51.2833],[-2.84042,51.28408],[-2.84145,51.28476],[-2.84143,51.28478],[-2.84149,51.28479],[-2.84248,51.28538],[-2.84412,51.28628],[-2.8451,51.28679],[-2.84553,51.28696],[-2.84551,51.287],[-2.84543,51.28708],[-2.84523,51.287],[-2.84163,51.28502],[-2.84088,51.28451],[-2.83921,51.28329],[-2.83838,51.28272],[-2.83828,51.28271],[-2.83813,51.2828],[-2.83669,51.28397],[-2.83663,51.28395],[-2.83664,51.2839],[-2.83833,51.28258]]]}},{"type":"Feature","properties":{"UNIQUEID":"26223","MAPPINGARE":3,"MAPSTATUS":"Conc","AUTHORITY":"Somerset","CL_NUMBER":"CL63","NAME":"The pieces of land as follows: east and south-east of Crook Peak ..... and also Shute Shelve Hill","DATESIGNED":1124668800000,"CACHAIR":"Dr. Tayo Adebowale","ISSUEDATE":1125446400000,"Version":"v3"},"geometry":{"type":"Polygon","coordinates":[[[-2.83985,51.29011],[-2.83959,51.29012],[-2.83959,51.28997],[-2.83985,51.29011]]]}},{"type":"Feature","properties":{"UNIQUEID":"26224","MAPPINGARE":3,"MAPSTATUS":"Conc","AUTHORITY":"Somerset","CL_NUMBER":"CL63","NAME":"The pieces of land as follows: east and south-east of Crook Peak ..... and also Shute Shelve Hill","DATESIGNED":1124668800000,"CACHAIR":"Dr. Tayo Adebowale","ISSUEDATE":1125446400000,"Version":"v3"},"geometry":{"type":"Polygon","coordinates":[[[-2.83986,51.29048],[-2.83985,51.29011],[-2.84019,51.29029],[-2.84049,51.29037],[-2.84076,51.2904],[-2.84094,51.29035],[-2.84135,51.29008],[-2.84138,51.29003],[-2.84153,51.29008],[-2.84134,51.29016],[-2.84124,51.29024],[-2.84119,51.29032],[-2.84122,51.29041],[-2.84115,51.29053],[-2.84104,51.29058],[-2.84102,51.29077],[-2.84066,51.29071],[-2.83986,51.29048]]]}},{"type":"Feature","properties":{"UNIQUEID":"26226","MAPPINGARE":3,"MAPSTATUS":"Conc","AUTHORITY":"Somerset","CL_NUMBER":"CL64","NAME":"The pieces of land as follows: north of Crook Peak ..... and north of Shute Shelve Hill","DATESIGNED":1124668800000,"CACHAIR":"Dr. Tayo Adebowale","ISSUEDATE":1125446400000,"Version":"v3"},"geometry":{"type":"Polygon","coordinates":[[[-2.84226,51.29125],[-2.84231,51.29089],[-2.84256,51.29084],[-2.84284,51.29063],[-2.84296,51.29069],[-2.84261,51.29134],[-2.84226,51.29125]]]}},{"type":"Feature","properties":{"UNIQUEID":"26228","MAPPINGARE":3,"MAPSTATUS":"Conc","AUTHORITY":"Somerset","CL_NUMBER":"CL63","NAME":"The pieces of land as follows: east and south-east of Crook Peak ..... and also Shute Shelve Hill","DATESIGNED":1124668800000,"CACHAIR":"Dr. Tayo Adebowale","ISSUEDATE":1125446400000,"Version":"v3"},"geometry":{"type":"Polygon","coordinates":[[[-2.83922,51.2905],[-2.83923,51.29053],[-2.839,51.29055],[-2.83861,51.29054],[-2.83791,51.29047],[-2.83715,51.2906],[-2.837,51.29075],[-2.8369,51.29109],[-2.83666,51.29154],[-2.83667,51.29236],[-2.83602,51.29224],[-2.83586,51.29226],[-2.83612,51.29175],[-2.83625,51.29105],[-2.83628,51.29061],[-2.83652,51.29004],[-2.83786,51.29003],[-2.8381,51.29009],[-2.83835,51.29026],[-2.83858,51.29029],[-2.83933,51.29],[-2.83947,51.28999],[-2.83948,51.29012],[-2.83919,51.29012],[-2.83922,51.2905]]]}},{"type":"Feature","properties":{"UNIQUEID":"26229","MAPPINGARE":3,"MAPSTATUS":"Conc","AUTHORITY":"Somerset","CL_NUMBER":"CL64","NAME":"The pieces of land as follows: north of Crook Peak ..... and north of Shute Shelve Hill","DATESIGNED":1124668800000,"CACHAIR":"Dr. Tayo Adebowale","ISSUEDATE":1125446400000,"Version":"v3"},"geometry":{"type":"Polygon","coordinates":[[[-2.8298,51.29309],[-2.82963,51.2927],[-2.82939,51.29225],[-2.82924,51.29186],[-2.82876,51.29119],[-2.82829,51.29063],[-2.82801,51.29034],[-2.82808,51.29034],[-2.82894,51.29098],[-2.82948,51.29154],[-2.82993,51.29214],[-2.83024,51.29269],[-2.83049,51.29348],[-2.83063,51.294],[-2.83067,51.29435],[-2.83067,51.29481],[-2.83059,51.2948],[-2.8303,51.29437],[-2.83026,51.29404],[-2.83018,51.29381],[-2.83015,51.29361],[-2.83006,51.2934],[-2.8298,51.29309]]]}},{"type":"Feature","properties":{"UNIQUEID":"26248","MAPPINGARE":3,"MAPSTATUS":"Conc","AUTHORITY":"Somerset","CL_NUMBER":"CL63","NAME":"The pieces of land as follows: east and south-east of Crook Peak ..... and also Shute Shelve Hill","DATESIGNED":1124668800000,"CACHAIR":"Dr. Tayo Adebowale","ISSUEDATE":1125446400000,"Version":"v3"},"geometry":{"type":"Polygon","coordinates":[[[-2.83138,51.30059],[-2.83144,51.30074],[-2.83144,51.30074],[-2.83142,51.30068],[-2.83138,51.30059]]]}},{"type":"Feature","properties":{"UNIQUEID":"26249","MAPPINGARE":3,"MAPSTATUS":"Conc","AUTHORITY":"Somerset","CL_NUMBER":"CL23","NAME":"The pieces of land known as Crook's Peak and Compton Bishop Hill","DATESIGNED":1124668800000,"CACHAIR":"Dr. Tayo Adebowale","ISSUEDATE":1125446400000,"Version":"v3"},"geometry":{"type":"Polygon","coordinates":[[[-2.83138,51.30059],[-2.83144,51.30074],[-2.83144,51.30074],[-2.83142,51.30068],[-2.83138,51.30059]]]}},{"type":"Feature","properties":{"UNIQUEID":"26250","MAPPINGARE":3,"MAPSTATUS":"Conc","AUTHORITY":"Somerset","CL_NUMBER":"CL64","NAME":"The pieces of land as follows: north of Crook Peak ..... and north of Shute Shelve Hill","DATESIGNED":1124668800000,"CACHAIR":"Dr. Tayo Adebowale","ISSUEDATE":1125446400000,"Version":"v3"},"geometry":{"type":"Polygon","coordinates":[[[-2.82298,51.29814],[-2.8234,51.29823],[-2.82513,51.29846],[-2.82708,51.29847],[-2.82713,51.29855],[-2.82708,51.29872],[-2.82721,51.29893],[-2.82719,51.29906],[-2.82734,51.29948],[-2.82734,51.29967],[-2.82722,51.29988],[-2.82696,51.30017],[-2.82683,51.30029],[-2.82664,51.30036],[-2.82641,51.30038],[-2.8261,51.30048],[-2.82584,51.30046],[-2.82494,51.30059],[-2.8245,51.30044],[-2.82387,51.30055],[-2.82337,51.30051],[-2.82285,51.3007],[-2.82231,51.30084],[-2.82151,51.30051],[-2.82143,51.3003],[-2.82151,51.2999],[-2.82163,51.29971],[-2.8216,51.2995],[-2.82188,51.29901],[-2.82231,51.29874],[-2.82248,51.29842],[-2.82259,51.2983],[-2.82298,51.29814]]]}},{"type":"Feature","properties":{"UNIQUEID":"26251","MAPPINGARE":3,"MAPSTATUS":"Conc","AUTHORITY":"North Somerset","CL_NUMBER":"CL158","NAME":"The small area of land north-east of Shute Shelve Tunnel","DATESIGNED":1124668800000,"CACHAIR":"Dr. Tayo Adebowale","ISSUEDATE":1125446400000,"Version":"v3"},"geometry":{"type":"Polygon","coordinates":[[[-2.82926,51.30084],[-2.82937,51.30084],[-2.82938,51.30084],[-2.82938,51.30084],[-2.82926,51.30084]]]}},{"type":"Feature","properties":{"UNIQUEID":"26252","MAPPINGARE":3,"MAPSTATUS":"Conc","AUTHORITY":"Somerset","CL_NUMBER":"CL63","NAME":"The pieces of land as follows: east and south-east of Crook Peak ..... and also Shute Shelve Hill","DATESIGNED":1124668800000,"CACHAIR":"Dr. Tayo Adebowale","ISSUEDATE":1125446400000,"Version":"v3"},"geometry":{"type":"Polygon","coordinates":[[[-2.82926,51.30084],[-2.82937,51.30084],[-2.82938,51.30084],[-2.82938,51.30084],[-2.82926,51.30084]]]}},{"type":"Feature","properties":{"UNIQUEID":"26253","MAPPINGARE":3,"MAPSTATUS":"Conc","AUTHORITY":"North Somerset","CL_NUMBER":"CL158","NAME":"The small area of land north-east of Shute Shelve Tunnel","DATESIGNED":1124668800000,"CACHAIR":"Dr. Tayo Adebowale","ISSUEDATE":1125446400000,"Version":"v3"},"geometry":{"type":"Polygon","coordinates":[[[-2.8278,51.30086],[-2.8278,51.30086],[-2.82791,51.30086],[-2.8278,51.30086]]]}},{"type":"Feature","properties":{"UNIQUEID":"26254","MAPPINGARE":3,"MAPSTATUS":"Conc","AUTHORITY":"Somerset","CL_NUMBER":"CL63","NAME":"The pieces of land as follows: east and south-east of Crook Peak ..... and also Shute Shelve Hill","DATESIGNED":1124668800000,"CACHAIR":"Dr. Tayo Adebowale","ISSUEDATE":1125446400000,"Version":"v3"},"geometry":{"type":"Polygon","coordinates":[[[-2.8278,51.30086],[-2.8278,51.30086],[-2.82791,51.30086],[-2.8278,51.30086]]]}},{"type":"Feature","properties":{"UNIQUEID":"26255","MAPPINGARE":3,"MAPSTATUS":"Conc","AUTHORITY":"North Somerset","CL_NUMBER":"CL158","NAME":"The small area of land north-east of Shute Shelve Tunnel","DATESIGNED":1124668800000,"CACHAIR":"Dr. Tayo Adebowale","ISSUEDATE":1125446400000,"Version":"v3"},"geometry":{"type":"Polygon","coordinates":[[[-2.82814,51.30086],[-2.82802,51.30086],[-2.82809,51.30086],[-2.82814,51.30086]]]}},{"type":"Feature","properties":{"UNIQUEID":"26256","MAPPINGARE":3,"MAPSTATUS":"Conc","AUTHORITY":"Somerset","CL_NUMBER":"CL63","NAME":"The pieces of land as follows: east and south-east of Crook Peak ..... and also Shute Shelve Hill","DATESIGNED":1124668800000,"CACHAIR":"Dr. Tayo Adebowale","ISSUEDATE":1125446400000,"Version":"v3"},"geometry":{"type":"Polygon","coordinates":[[[-2.82814,51.30086],[-2.82802,51.30086],[-2.82809,51.30086],[-2.82814,51.30086]]]}},{"type":"Feature","properties":{"UNIQUEID":"26257","MAPPINGARE":3,"MAPSTATUS":"Conc","AUTHORITY":"Somerset","CL_NUMBER":"CL63","NAME":"The pieces of land as follows: east and south-east of Crook Peak ..... and also Shute Shelve Hill","DATESIGNED":1124668800000,"CACHAIR":"Dr. Tayo Adebowale","ISSUEDATE":1125446400000,"Version":"v3"},"geometry":{"type":"Polygon","coordinates":[[[-2.82801,51.29034],[-2.82829,51.29063],[-2.82876,51.29119],[-2.82926,51.2919],[-2.82939,51.29225],[-2.82963,51.2927],[-2.8298,51.29309],[-2.82972,51.29311],[-2.82982,51.29494],[-2.83012,51.29496],[-2.83024,51.2951],[-2.83021,51.2952],[-2.83023,51.29525],[-2.83044,51.29529],[-2.82998,51.29585],[-2.82968,51.29632],[-2.82948,51.29701],[-2.82949,51.29713],[-2.82941,51.2974],[-2.82919,51.29779],[-2.82921,51.29803],[-2.82938,51.29869],[-2.82939,51.29917],[-2.82954,51.29978],[-2.82958,51.29989],[-2.82969,51.30004],[-2.82993,51.30024],[-2.83003,51.30027],[-2.83047,51.3002],[-2.83038,51.30053],[-2.83136,51.30053],[-2.83144,51.30074],[-2.82959,51.30082],[-2.8296,51.30084],[-2.82243,51.30095],[-2.82227,51.30096],[-2.8218,51.3011],[-2.82155,51.30107],[-2.82082,51.30087],[-2.8206,51.30084],[-2.81988,51.301],[-2.81971,51.30101],[-2.81915,51.30092],[-2.81884,51.30094],[-2.81827,51.30103],[-2.81827,51.30094],[-2.81895,51.29934],[-2.81981,51.29704],[-2.82049,51.29561],[-2.82062,51.295],[-2.82083,51.29434],[-2.82087,51.29287],[-2.82156,51.29133],[-2.82169,51.29094],[-2.82225,51.28994],[-2.82243,51.28995],[-2.82262,51.28986],[-2.82321,51.28974],[-2.82344,51.28963],[-2.82345,51.28953],[-2.82413,51.28944],[-2.82504,51.28899],[-2.82527,51.28878],[-2.82569,51.28872],[-2.82574,51.28865],[-2.82583,51.28862],[-2.82602,51.28846],[-2.82644,51.28871],[-2.82653,51.28881],[-2.8268,51.28899],[-2.82723,51.28924],[-2.82777,51.28967],[-2.82792,51.28989],[-2.82801,51.29034]],[[-2.82826,51.30023],[-2.82775,51.30006],[-2.82735,51.30045],[-2.82732,51.30055],[-2.82748,51.30071],[-2.82766,51.3007],[-2.82787,51.3006],[-2.82826,51.30023]],[[-2.82298,51.29814],[-2.82259,51.2983],[-2.82248,51.29842],[-2.82231,51.29874],[-2.82188,51.29901],[-2.82177,51.29916],[-2.82161,51.29945],[-2.82159,51.29955],[-2.82163,51.29971],[-2.82151,51.2999],[-2.82143,51.30027],[-2.82144,51.30035],[-2.82153,51.30052],[-2.82232,51.30085],[-2.82337,51.30051],[-2.82387,51.30055],[-2.8245,51.30044],[-2.8249,51.30058],[-2.82498,51.30058],[-2.82584,51.30046],[-2.8261,51.30048],[-2.82641,51.30038],[-2.82664,51.30036],[-2.82686,51.30027],[-2.82716,51.29996],[-2.82735,51.29964],[-2.82731,51.29939],[-2.82719,51.29906],[-2.82721,51.29893],[-2.82708,51.29872],[-2.82713,51.29855],[-2.82706,51.29843],[-2.82724,51.29829],[-2.82734,51.29813],[-2.82743,51.29807],[-2.82742,51.29797],[-2.82747,51.29775],[-2.82768,51.29737],[-2.82777,51.29715],[-2.8278,51.29698],[-2.82792,51.29676],[-2.82796,51.29606],[-2.82803,51.29584],[-2.82824,51.2956],[-2.82827,51.29534],[-2.82833,51.29515],[-2.82829,51.29487],[-2.82836,51.29463],[-2.82834,51.29449],[-2.82813,51.29446],[-2.82758,51.2945],[-2.8275,51.29447],[-2.82722,51.29448],[-2.82691,51.29463],[-2.82682,51.29479],[-2.82627,51.295],[-2.82614,51.29513],[-2.82611,51.29521],[-2.82593,51.29542],[-2.82578,51.29549],[-2.82563,51.2956],[-2.82546,51.29578],[-2.82495,51.29618],[-2.82476,51.29636],[-2.82422,51.29672],[-2.82394,51.29702],[-2.82332,51.29739],[-2.82318,51.29758],[-2.82315,51.29776],[-2.82299,51.298],[-2.82298,51.29814]]]}},{"type":"Feature","properties":{"UNIQUEID":"26259","MAPPINGARE":3,"MAPSTATUS":"Conc","AUTHORITY":"North Somerset","CL_NUMBER":"CL158","NAME":"The small area of land north-east of Shute Shelve Tunnel","DATESIGNED":1124668800000,"CACHAIR":"Dr. Tayo Adebowale","ISSUEDATE":1125446400000,"Version":"v3"},"geometry":{"type":"Polygon","coordinates":[[[-2.8278,51.30086],[-2.82938,51.30084],[-2.8294,51.3011],[-2.82937,51.30124],[-2.82923,51.30126],[-2.82861,51.30108],[-2.82826,51.30101],[-2.8281,51.30093],[-2.82775,51.3009],[-2.8278,51.30086]]]}},{"type":"Feature","properties":{"UNIQUEID":"26268","MAPPINGARE":3,"MAPSTATUS":"Conc","AUTHORITY":"Somerset","CL_NUMBER":"CL23","NAME":"The pieces of land known as Crook's Peak and Compton Bishop Hill","DATESIGNED":1124668800000,"CACHAIR":"Dr. Tayo Adebowale","ISSUEDATE":1125446400000,"Version":"v3"},"geometry":{"type":"Polygon","coordinates":[[[-2.85497,51.2998],[-2.85317,51.29946],[-2.84766,51.29983],[-2.83144,51.30074],[-2.83114,51.29991],[-2.83175,51.29993],[-2.83205,51.3001],[-2.83226,51.30013],[-2.83244,51.30008],[-2.83274,51.30011],[-2.83301,51.30008],[-2.83365,51.3001],[-2.83376,51.30015],[-2.83463,51.3002],[-2.83497,51.29997],[-2.83543,51.30004],[-2.83568,51.3],[-2.83588,51.29991],[-2.83615,51.29991],[-2.83661,51.29983],[-2.83675,51.29975],[-2.8368,51.29959],[-2.83703,51.29934],[-2.83721,51.29908],[-2.83726,51.29893],[-2.83738,51.29886],[-2.83753,51.29865],[-2.83757,51.2985],[-2.83774,51.29832],[-2.83781,51.29803],[-2.8378,51.29791],[-2.83787,51.2978],[-2.83795,51.29721],[-2.83836,51.29724],[-2.83848,51.29685],[-2.83794,51.29682],[-2.83801,51.29669],[-2.83804,51.2965],[-2.83795,51.29634],[-2.83815,51.29609],[-2.8383,51.29557],[-2.83833,51.2953],[-2.83822,51.29504],[-2.83814,51.29473],[-2.83781,51.29424],[-2.83771,51.29396],[-2.83765,51.29356],[-2.83764,51.29313],[-2.83712,51.29314],[-2.83714,51.29305],[-2.83731,51.29288],[-2.83736,51.29272],[-2.83736,51.29252],[-2.83731,51.29247],[-2.83667,51.29236],[-2.83666,51.29154],[-2.8369,51.29109],[-2.837,51.29075],[-2.83715,51.2906],[-2.83791,51.29047],[-2.83806,51.29046],[-2.83861,51.29054],[-2.83923,51.29053],[-2.83923,51.29063],[-2.83936,51.29063],[-2.83935,51.29076],[-2.83977,51.29078],[-2.83979,51.29066],[-2.83986,51.29066],[-2.83986,51.29048],[-2.84066,51.29071],[-2.84102,51.29077],[-2.84104,51.29091],[-2.84116,51.29098],[-2.84128,51.291],[-2.84157,51.29093],[-2.84188,51.29101],[-2.84231,51.29097],[-2.84227,51.29124],[-2.84221,51.29131],[-2.84215,51.29159],[-2.84193,51.2919],[-2.84186,51.29208],[-2.84186,51.29225],[-2.84191,51.2923],[-2.84193,51.29241],[-2.84189,51.29253],[-2.84193,51.29266],[-2.84193,51.29285],[-2.84186,51.29297],[-2.84192,51.29307],[-2.84195,51.29328],[-2.8422,51.29355],[-2.84235,51.29366],[-2.84257,51.29377],[-2.8426,51.29369],[-2.84265,51.29369],[-2.84287,51.29378],[-2.84396,51.29446],[-2.84407,51.29479],[-2.8441,51.29513],[-2.84403,51.29529],[-2.8441,51.29547],[-2.84445,51.29565],[-2.84471,51.29604],[-2.84494,51.29612],[-2.84483,51.2963],[-2.84535,51.29647],[-2.84563,51.29653],[-2.84568,51.2965],[-2.84596,51.29653],[-2.84594,51.29633],[-2.84643,51.29637],[-2.84648,51.29635],[-2.84667,51.29586],[-2.84663,51.29573],[-2.84673,51.29509],[-2.84681,51.29483],[-2.84689,51.29406],[-2.84713,51.29407],[-2.84798,51.29374],[-2.84828,51.29357],[-2.84842,51.29341],[-2.84851,51.29339],[-2.84848,51.29319],[-2.84855,51.29311],[-2.84877,51.29306],[-2.84921,51.29289],[-2.84983,51.2928],[-2.85019,51.29282],[-2.85047,51.29299],[-2.85107,51.29293],[-2.85205,51.29291],[-2.85216,51.29288],[-2.85208,51.29311],[-2.85238,51.29342],[-2.85242,51.29352],[-2.85312,51.29405],[-2.85344,51.29422],[-2.85366,51.29447],[-2.85377,51.29452],[-2.85405,51.29453],[-2.85426,51.2946],[-2.85445,51.2946],[-2.85456,51.29456],[-2.85492,51.29466],[-2.85482,51.2948],[-2.85476,51.29478],[-2.85472,51.29484],[-2.85476,51.2949],[-2.85497,51.29498],[-2.85497,51.2998]]]}},{"type":"Feature","properties":{"UNIQUEID":"26309","MAPPINGARE":3,"MAPSTATUS":"Conc","AUTHORITY":"Somerset","CL_NUMBER":"CL15","NAME":"Shipham Green and the Sidealong","DATESIGNED":1124668800000,"CACHAIR":"Dr. Tayo Adebowale","ISSUEDATE":1125446400000,"Version":"v3"},"geometry":{"type":"Polygon","coordinates":[[[-2.80088,51.31151],[-2.80083,51.31144],[-2.80062,51.31139],[-2.80065,51.31138],[-2.80042,51.31115],[-2.80037,51.31115],[-2.80077,51.31107],[-2.80084,51.31109],[-2.80091,51.31143],[-2.80091,51.3115],[-2.80088,51.31151]]]}},{"type":"Feature","properties":{"UNIQUEID":"26311","MAPPINGARE":3,"MAPSTATUS":"Conc","AUTHORITY":"Somerset","CL_NUMBER":"CL15","NAME":"Shipham Green and the Sidealong","DATESIGNED":1124668800000,"CACHAIR":"Dr. Tayo Adebowale","ISSUEDATE":1125446400000,"Version":"v3"},"geometry":{"type":"Polygon","coordinates":[[[-2.80051,51.31208],[-2.80047,51.31224],[-2.80039,51.31237],[-2.80041,51.31239],[-2.80023,51.31267],[-2.80006,51.31285],[-2.80005,51.31281],[-2.80009,51.31268],[-2.79995,51.31266],[-2.80009,51.31224],[-2.80027,51.31217],[-2.80036,51.31204],[-2.80051,51.31208]]]}},{"type":"Feature","properties":{"UNIQUEID":"26314","MAPPINGARE":3,"MAPSTATUS":"Conc","AUTHORITY":"Somerset","CL_NUMBER":"CL15","NAME":"Shipham Green and the Sidealong","DATESIGNED":1124668800000,"CACHAIR":"Dr. Tayo Adebowale","ISSUEDATE":1125446400000,"Version":"v3"},"geometry":{"type":"Polygon","coordinates":[[[-2.79961,51.31341],[-2.79902,51.31391],[-2.79875,51.31401],[-2.79862,51.31401],[-2.79863,51.31389],[-2.79899,51.31387],[-2.79929,51.31365],[-2.79936,51.31354],[-2.79952,51.3134],[-2.79961,51.31341]]]}},{"type":"Feature","properties":{"UNIQUEID":"26316","MAPPINGARE":3,"MAPSTATUS":"Conc","AUTHORITY":"Somerset","CL_NUMBER":"CL15","NAME":"Shipham Green and the Sidealong","DATESIGNED":1124668800000,"CACHAIR":"Dr. Tayo Adebowale","ISSUEDATE":1125446400000,"Version":"v3"},"geometry":{"type":"Polygon","coordinates":[[[-2.79988,51.31332],[-2.79993,51.31333],[-2.79978,51.31364],[-2.79982,51.31385],[-2.79946,51.31393],[-2.79949,51.31398],[-2.7993,51.31409],[-2.79909,51.31403],[-2.79893,51.31421],[-2.7989,51.31414],[-2.79893,51.3141],[-2.79988,51.31332]]]}},{"type":"Feature","properties":{"UNIQUEID":"26317","MAPPINGARE":3,"MAPSTATUS":"Conc","AUTHORITY":"Somerset","CL_NUMBER":"CL15","NAME":"Shipham Green and the Sidealong","DATESIGNED":1124668800000,"CACHAIR":"Dr. Tayo Adebowale","ISSUEDATE":1125446400000,"Version":"v3"},"geometry":{"type":"Polygon","coordinates":[[[-2.79865,51.3144],[-2.79852,51.31435],[-2.798,51.31432],[-2.79865,51.31416],[-2.79871,51.3142],[-2.79865,51.3144]]]}},{"type":"Feature","properties":{"UNIQUEID":"26324","MAPPINGARE":3,"MAPSTATUS":"Conc","AUTHORITY":"Somerset","CL_NUMBER":"CL162","NAME":"The area of land to the west of Blackdown","DATESIGNED":1124668800000,"CACHAIR":"Dr. Tayo Adebowale","ISSUEDATE":1125446400000,"Version":"v3"},"geometry":{"type":"Polygon","coordinates":[[[-2.76434,51.31595],[-2.7641,51.31515],[-2.76445,51.3156],[-2.76447,51.31575],[-2.76434,51.31595]]]}},{"type":"Feature","properties":{"UNIQUEID":"26350","MAPPINGARE":3,"MAPSTATUS":"Conc","AUTHORITY":"Somerset","CL_NUMBER":"CL37","NAME":"Burrington Ham, Blackdown and Langford Green","DATESIGNED":1124668800000,"CACHAIR":"Dr. Tayo Adebowale","ISSUEDATE":1125446400000,"Version":"v3"},"geometry":{"type":"Polygon","coordinates":[[[-2.73283,51.30921],[-2.73374,51.30831],[-2.73553,51.30665],[-2.73579,51.30666],[-2.73676,51.30662],[-2.73681,51.30648],[-2.75208,51.30751],[-2.76563,51.30901],[-2.76516,51.31047],[-2.76485,51.31083],[-2.7646,51.31125],[-2.76422,51.31196],[-2.76359,51.31338],[-2.76359,51.31346],[-2.76395,51.31501],[-2.7641,51.31515],[-2.76434,51.31595],[-2.76442,51.31606],[-2.76445,51.31623],[-2.76453,51.31628],[-2.76451,51.31635],[-2.76476,51.31659],[-2.76477,51.31666],[-2.76484,51.31672],[-2.76485,51.31701],[-2.76481,51.31719],[-2.76467,51.31737],[-2.76451,51.31751],[-2.76447,51.31758],[-2.76448,51.31774],[-2.76438,51.31785],[-2.76435,51.31807],[-2.76424,51.31828],[-2.76416,51.31836],[-2.76418,51.31852],[-2.76407,51.31861],[-2.76407,51.3187],[-2.76399,51.3188],[-2.76391,51.31903],[-2.76365,51.31919],[-2.76354,51.31935],[-2.76352,51.31949],[-2.76354,51.31962],[-2.76352,51.31971],[-2.7634,51.31978],[-2.76337,51.31988],[-2.76353,51.32013],[-2.76367,51.32027],[-2.76364,51.32035],[-2.76368,51.32052],[-2.76361,51.32068],[-2.76371,51.32078],[-2.76373,51.32085],[-2.76366,51.32096],[-2.76368,51.32105],[-2.76359,51.3211],[-2.76355,51.32119],[-2.7636,51.32125],[-2.76364,51.32141],[-2.76361,51.32159],[-2.76385,51.32178],[-2.7641,51.32191],[-2.76426,51.32211],[-2.7644,51.32218],[-2.76454,51.32236],[-2.76453,51.32247],[-2.76461,51.32257],[-2.76457,51.32262],[-2.76391,51.32261],[-2.76358,51.32253],[-2.76269,51.32224],[-2.76164,51.32208],[-2.76129,51.32208],[-2.75998,51.32248],[-2.75907,51.32281],[-2.75826,51.32303],[-2.75746,51.32319],[-2.75724,51.32327],[-2.7569,51.32346],[-2.7563,51.32386],[-2.75544,51.3247],[-2.75532,51.32493],[-2.75526,51.32515],[-2.75517,51.32536],[-2.75503,51.32598],[-2.75507,51.32625],[-2.75505,51.3263],[-2.75494,51.32641],[-2.75487,51.3264],[-2.75488,51.32637],[-2.75456,51.32636],[-2.75448,51.32658],[-2.7545,51.32667],[-2.75456,51.32672],[-2.75452,51.32683],[-2.75453,51.32689],[-2.75439,51.32707],[-2.75407,51.32727],[-2.75394,51.32743],[-2.7538,51.32743],[-2.75381,51.32739],[-2.75378,51.32735],[-2.7537,51.32735],[-2.75368,51.32725],[-2.75309,51.32726],[-2.75316,51.32696],[-2.75314,51.32641],[-2.75307,51.32615],[-2.75295,51.32586],[-2.75292,51.32561],[-2.75303,51.32539],[-2.7534,51.32498],[-2.75345,51.32481],[-2.75334,51.32458],[-2.75273,51.32402],[-2.75258,51.3238],[-2.75255,51.32361],[-2.75261,51.32292],[-2.75251,51.32239],[-2.75248,51.32185],[-2.75234,51.3217],[-2.75219,51.32163],[-2.75177,51.32153],[-2.75042,51.32133],[-2.74752,51.32051],[-2.74599,51.32025],[-2.74574,51.32025],[-2.7451,51.32034],[-2.74449,51.32032],[-2.74401,51.32047],[-2.74373,51.3205],[-2.74196,51.32022],[-2.74055,51.3201],[-2.73988,51.32007],[-2.73903,51.3201],[-2.73831,51.32007],[-2.73625,51.31993],[-2.73607,51.3199],[-2.73742,51.31997],[-2.73943,51.3199],[-2.73995,51.31985],[-2.74074,51.31987],[-2.74186,51.31992],[-2.74359,51.32015],[-2.74457,51.31988],[-2.74548,51.31966],[-2.74576,51.31969],[-2.74588,51.31965],[-2.7462,51.3197],[-2.74651,51.31968],[-2.74711,51.31973],[-2.74709,51.31957],[-2.74697,51.31925],[-2.74648,51.31851],[-2.74581,51.31844],[-2.74468,51.31856],[-2.74334,51.31838],[-2.74233,51.3182],[-2.74091,51.31759],[-2.73995,51.31711],[-2.73973,51.31704],[-2.7389,51.31684],[-2.73724,51.31656],[-2.73542,51.31605],[-2.73466,51.31604],[-2.73303,51.3162],[-2.73263,51.3163],[-2.73244,51.3164],[-2.73247,51.31658],[-2.73268,51.31729],[-2.73286,51.31769],[-2.73302,51.31815],[-2.73319,51.31844],[-2.73314,51.31848],[-2.73323,51.31878],[-2.73347,51.31901],[-2.73301,51.3189],[-2.73301,51.31851],[-2.73298,51.3184],[-2.73289,51.31825],[-2.73254,51.31792],[-2.73234,51.31752],[-2.73195,51.3163],[-2.73162,51.31547],[-2.73108,51.31448],[-2.73084,51.31427],[-2.73065,51.31423],[-2.73069,51.31415],[-2.73064,51.31402],[-2.73044,51.31365],[-2.73085,51.31219],[-2.73082,51.31213],[-2.73087,51.31212],[-2.7311,51.3114],[-2.73186,51.31016],[-2.73283,51.30921]],[[-2.75417,51.32693],[-2.75441,51.32654],[-2.75422,51.32652],[-2.75419,51.32642],[-2.75422,51.32637],[-2.75408,51.32637],[-2.75402,51.32659],[-2.754,51.32689],[-2.75417,51.32693]]]}},{"type":"Feature","properties":{"UNIQUEID":"26353","MAPPINGARE":3,"MAPSTATUS":"Conc","AUTHORITY":"Somerset","CL_NUMBER":"CL37","NAME":"Burrington Ham, Blackdown and Langford Green","DATESIGNED":1124668800000,"CACHAIR":"Dr. Tayo Adebowale","ISSUEDATE":1125446400000,"Version":"v3"},"geometry":{"type":"Polygon","coordinates":[[[-2.73617,51.32364],[-2.73384,51.32121],[-2.73361,51.32087],[-2.73375,51.32082],[-2.73369,51.3202],[-2.73372,51.32012],[-2.73382,51.3201],[-2.73391,51.31974],[-2.73405,51.31987],[-2.73413,51.31999],[-2.73424,51.32003],[-2.73486,51.31994],[-2.73522,51.31993],[-2.73843,51.32014],[-2.74041,51.32014],[-2.74192,51.32026],[-2.74376,51.32056],[-2.74402,51.32053],[-2.74449,51.32038],[-2.74506,51.32039],[-2.74571,51.32031],[-2.74594,51.3203],[-2.74759,51.32057],[-2.75013,51.32132],[-2.75197,51.32162],[-2.75226,51.32173],[-2.75239,51.32184],[-2.75243,51.32203],[-2.75244,51.32242],[-2.75253,51.32296],[-2.75246,51.32359],[-2.7525,51.32379],[-2.75256,51.32393],[-2.75266,51.32406],[-2.75326,51.32461],[-2.75335,51.32488],[-2.75332,51.32495],[-2.753,51.3253],[-2.75285,51.32553],[-2.75283,51.32574],[-2.7529,51.32598],[-2.75275,51.32599],[-2.75273,51.32609],[-2.75283,51.32654],[-2.75284,51.32673],[-2.75281,51.32683],[-2.75276,51.32683],[-2.75251,51.32738],[-2.75248,51.32737],[-2.75213,51.32781],[-2.75183,51.32777],[-2.75163,51.32797],[-2.75138,51.32798],[-2.75116,51.32804],[-2.75075,51.32803],[-2.75071,51.32799],[-2.75023,51.3279],[-2.75022,51.32779],[-2.75005,51.32771],[-2.74975,51.32764],[-2.74955,51.32753],[-2.74931,51.32733],[-2.74911,51.32724],[-2.74836,51.32707],[-2.74805,51.32706],[-2.74798,51.32707],[-2.74795,51.32723],[-2.74834,51.32727],[-2.74845,51.32731],[-2.74836,51.32747],[-2.74748,51.32747],[-2.74748,51.32784],[-2.74744,51.32796],[-2.7474,51.32795],[-2.74736,51.32799],[-2.74728,51.32802],[-2.74657,51.32783],[-2.74608,51.32774],[-2.7454,51.32785],[-2.74536,51.32789],[-2.74537,51.32792],[-2.74533,51.32796],[-2.74524,51.32798],[-2.74474,51.32827],[-2.74422,51.32846],[-2.74362,51.32848],[-2.74355,51.32844],[-2.74357,51.32838],[-2.74279,51.32828],[-2.74277,51.32798],[-2.74281,51.32787],[-2.74301,51.32787],[-2.74326,51.3275],[-2.74331,51.3275],[-2.74333,51.32737],[-2.74327,51.32731],[-2.74344,51.32687],[-2.74412,51.32688],[-2.74417,51.32698],[-2.74461,51.32701],[-2.74449,51.32648],[-2.7444,51.32635],[-2.74427,51.32603],[-2.74425,51.32595],[-2.74429,51.32593],[-2.74424,51.32559],[-2.74406,51.32521],[-2.74391,51.32506],[-2.74374,51.32495],[-2.743,51.32467],[-2.74229,51.32503],[-2.74173,51.32526],[-2.74113,51.32544],[-2.74112,51.3255],[-2.74132,51.32551],[-2.74129,51.32563],[-2.74151,51.32572],[-2.74136,51.32587],[-2.74196,51.32625],[-2.74188,51.32652],[-2.7414,51.32731],[-2.74116,51.32767],[-2.74099,51.32814],[-2.74073,51.32859],[-2.73988,51.32926],[-2.73978,51.32949],[-2.73961,51.32953],[-2.7396,51.32964],[-2.73944,51.32967],[-2.73929,51.32978],[-2.73893,51.32991],[-2.73881,51.32976],[-2.73884,51.32971],[-2.73858,51.32956],[-2.73861,51.32951],[-2.73815,51.32931],[-2.73776,51.32901],[-2.73792,51.32882],[-2.73803,51.3284],[-2.73809,51.3284],[-2.73812,51.32823],[-2.73739,51.3282],[-2.73731,51.3273],[-2.73725,51.32703],[-2.73676,51.32541],[-2.73648,51.32477],[-2.73633,51.32428],[-2.73635,51.32382],[-2.73617,51.32364]],[[-2.73734,51.32731],[-2.73736,51.32731],[-2.73742,51.32735],[-2.73734,51.32731]]]}},{"type":"Feature","properties":{"UNIQUEID":"26356","MAPPINGARE":3,"MAPSTATUS":"Conc","AUTHORITY":"North Somerset","CL_NUMBER":"CL3","NAME":"Churchill Batch","DATESIGNED":1124668800000,"CACHAIR":"Dr. Tayo Adebowale","ISSUEDATE":1125446400000,"Version":"v3"},"geometry":{"type":"Polygon","coordinates":[[[-2.79678,51.3296],[-2.79698,51.32953],[-2.79716,51.32942],[-2.7972,51.32936],[-2.79774,51.32935],[-2.79772,51.32922],[-2.79751,51.32914],[-2.79806,51.32865],[-2.79829,51.3283],[-2.79837,51.32803],[-2.79841,51.32782],[-2.7984,51.32712],[-2.79831,51.32697],[-2.79839,51.32692],[-2.79852,51.32694],[-2.79896,51.32688],[-2.79884,51.32711],[-2.79875,51.32737],[-2.79877,51.32767],[-2.79911,51.32846],[-2.7994,51.32888],[-2.79948,51.3291],[-2.79939,51.3293],[-2.79893,51.33004],[-2.79874,51.3302],[-2.79819,51.33039],[-2.79798,51.33052],[-2.79786,51.33068],[-2.79776,51.33096],[-2.79767,51.33108],[-2.79756,51.33134],[-2.79749,51.33135],[-2.79735,51.33072],[-2.79738,51.33022],[-2.79727,51.33009],[-2.79704,51.32991],[-2.79675,51.32962],[-2.79678,51.3296]]]}},{"type":"Feature","properties":{"UNIQUEID":"26357","MAPPINGARE":3,"MAPSTATUS":"Conc","AUTHORITY":"Somerset","CL_NUMBER":"CL37","NAME":"Burrington Ham, Blackdown and Langford Green","DATESIGNED":1124668800000,"CACHAIR":"Dr. Tayo Adebowale","ISSUEDATE":1125446400000,"Version":"v3"},"geometry":{"type":"Polygon","coordinates":[[[-2.75826,51.33224],[-2.75826,51.33246],[-2.75804,51.3325],[-2.75782,51.33246],[-2.75778,51.33244],[-2.75779,51.33238],[-2.75772,51.33213],[-2.75755,51.33206],[-2.75825,51.33193],[-2.7582,51.33197],[-2.75827,51.33218],[-2.75826,51.33224]]]}},{"type":"Feature","properties":{"UNIQUEID":"26414","MAPPINGARE":3,"MAPSTATUS":"Conc","AUTHORITY":"Somerset","CL_NUMBER":"CL37","NAME":"Burrington Ham, Blackdown and Langford Green","DATESIGNED":1124668800000,"CACHAIR":"Dr. Tayo Adebowale","ISSUEDATE":1125446400000,"Version":"v3"},"geometry":{"type":"Polygon","coordinates":[[[-2.75234,51.34289],[-2.75245,51.3427],[-2.75286,51.34245],[-2.75295,51.34217],[-2.75289,51.34187],[-2.75307,51.34176],[-2.75327,51.34169],[-2.75361,51.34169],[-2.75372,51.34165],[-2.75386,51.34175],[-2.75396,51.34196],[-2.75428,51.34202],[-2.75433,51.34206],[-2.75471,51.34217],[-2.75541,51.34242],[-2.75553,51.34242],[-2.7559,51.34224],[-2.75597,51.34225],[-2.7556,51.3426],[-2.75489,51.34339],[-2.754,51.34415],[-2.75396,51.34414],[-2.75396,51.34409],[-2.75363,51.34395],[-2.7531,51.34379],[-2.75303,51.34373],[-2.75277,51.34363],[-2.75229,51.34372],[-2.75216,51.34365],[-2.75183,51.34396],[-2.75163,51.34389],[-2.75155,51.34396],[-2.75142,51.34389],[-2.75133,51.34388],[-2.75154,51.34364],[-2.75168,51.34343],[-2.75191,51.34279],[-2.75234,51.34289]]]}},{"type":"Feature","properties":{"UNIQUEID":"26425","MAPPINGARE":3,"MAPSTATUS":"Conc","AUTHORITY":"Somerset","CL_NUMBER":"CL37","NAME":"Burrington Ham, Blackdown and Langford Green","DATESIGNED":1124668800000,"CACHAIR":"Dr. Tayo Adebowale","ISSUEDATE":1125446400000,"Version":"v3"},"geometry":{"type":"Polygon","coordinates":[[[-2.75741,51.34379],[-2.75778,51.3444],[-2.75768,51.34458],[-2.75737,51.3445],[-2.75717,51.34475],[-2.75683,51.34502],[-2.75661,51.34511],[-2.75595,51.3453],[-2.75565,51.34545],[-2.75504,51.34582],[-2.75479,51.34604],[-2.75467,51.34619],[-2.7545,51.34611],[-2.75432,51.34607],[-2.75429,51.34592],[-2.75393,51.34539],[-2.75385,51.3452],[-2.75343,51.34471],[-2.75456,51.34384],[-2.755,51.34342],[-2.75561,51.34276],[-2.75583,51.34284],[-2.75662,51.34325],[-2.75706,51.34331],[-2.75741,51.34379]]]}}]}