{"type":"FeatureCollection","features":[{"type":"Feature","properties":{"UID":9893,"NAME":"Axbridge","DATE_OF_DE":"17/04/1991","DATE_UPDAT":"none","LPA":"Somerset","CAPTURE_SC":"MasterMap","x":343054,"y":154517},"geometry":{"type":"Polygon","coordinates":[[[-2.81521,51.28819],[-2.81553,51.28818],[-2.8155,51.28768],[-2.81548,51.28761],[-2.81504,51.28759],[-2.81504,51.2874],[-2.81508,51.2874],[-2.81514,51.2871],[-2.81341,51.28687],[-2.81263,51.28689],[-2.81162,51.28705],[-2.81158,51.28699],[-2.81176,51.28693],[-2.81177,51.28689],[-2.81229,51.28674],[-2.81251,51.28671],[-2.81251,51.28665],[-2.81259,51.28649],[-2.8127,51.28639],[-2.81309,51.28632],[-2.81377,51.28628],[-2.81433,51.28618],[-2.81414,51.28577],[-2.81429,51.28569],[-2.81386,51.28472],[-2.81377,51.28431],[-2.81554,51.28463],[-2.81557,51.28476],[-2.81592,51.28481],[-2.81597,51.28439],[-2.81603,51.2844],[-2.81628,51.28451],[-2.81625,51.28453],[-2.81627,51.28456],[-2.81623,51.28457],[-2.81619,51.28499],[-2.81621,51.28499],[-2.81625,51.28525],[-2.8173,51.2852],[-2.81729,51.28532],[-2.81779,51.28529],[-2.81779,51.28553],[-2.81741,51.28558],[-2.81745,51.28582],[-2.81768,51.28612],[-2.81707,51.28629],[-2.81714,51.28638],[-2.81701,51.28641],[-2.81708,51.28654],[-2.81729,51.28649],[-2.81742,51.28661],[-2.81733,51.28665],[-2.81743,51.28676],[-2.81731,51.28681],[-2.8175,51.28699],[-2.81779,51.28683],[-2.81858,51.28655],[-2.81878,51.28649],[-2.81919,51.28646],[-2.81918,51.28641],[-2.81922,51.28641],[-2.81923,51.28646],[-2.81953,51.28644],[-2.81954,51.28639],[-2.82062,51.28639],[-2.82062,51.28648],[-2.82115,51.28648],[-2.82118,51.28709],[-2.82127,51.28708],[-2.8213,51.28729],[-2.82345,51.28732],[-2.82594,51.28751],[-2.82585,51.28767],[-2.82587,51.28796],[-2.82579,51.28804],[-2.82585,51.28809],[-2.82584,51.28813],[-2.82509,51.28804],[-2.82373,51.28803],[-2.8204,51.28825],[-2.81524,51.28851],[-2.81521,51.28819]]]}},{"type":"Feature","properties":{"UID":0,"NAME":"Churchill","DATE_OF_DE":"30/01/2020","DATE_UPDAT":"none","LPA":"North Somerset","CAPTURE_SC":"MasterMap","x":344014,"y":159851},"geometry":{"type":"Polygon","coordinates":[[[-2.80249,51.33585],[-2.80231,51.33584],[-2.80189,51.33575],[-2.80208,51.33531],[-2.80202,51.3353],[-2.80215,51.33513],[-2.80179,51.33502],[-2.80155,51.33499],[-2.80161,51.33485],[-2.80087,51.33471],[-2.80061,51.33542],[-2.79925,51.33515],[-2.79791,51.33418],[-2.7981,51.33403],[-2.79812,51.33397],[-2.79804,51.33377],[-2.79806,51.33358],[-2.79938,51.3333],[-2.79964,51.33373],[-2.7997,51.33388],[-2.80197,51.33346],[-2.8019,51.33324],[-2.80167,51.33286],[-2.80166,51.33275],[-2.8017,51.33274],[-2.8016,51.33257],[-2.8034,51.33246],[-2.80647,51.33233],[-2.80688,51.33317],[-2.80416,51.33332],[-2.80227,51.33349],[-2.80231,51.33381],[-2.8027,51.33376],[-2.80275,51.33413],[-2.80315,51.33416],[-2.80311,51.33473],[-2.80445,51.33488],[-2.80447,51.33439],[-2.80925,51.33487],[-2.81216,51.3353],[-2.812,51.33607],[-2.81192,51.33613],[-2.81068,51.33589],[-2.81027,51.33584],[-2.81011,51.33587],[-2.81008,51.33581],[-2.81,51.33579],[-2.80948,51.33576],[-2.80898,51.3358],[-2.809,51.33584],[-2.80895,51.33623],[-2.80841,51.33758],[-2.80511,51.33688],[-2.80508,51.33653],[-2.8051,51.33646],[-2.80457,51.33634],[-2.80353,51.33619],[-2.80341,51.33605],[-2.80343,51.33598],[-2.80249,51.33585]]]}},{"type":"Feature","properties":{"UID":4302,"NAME":"Lower Langford","DATE_OF_DE":"20/09/1988","DATE_UPDAT":"none","LPA":"North Somerset","CAPTURE_SC":"MasterMap","x":346293,"y":160712},"geometry":{"type":"Polygon","coordinates":[[[-2.77122,51.34697],[-2.77109,51.34696],[-2.771,51.34682],[-2.77083,51.34672],[-2.77096,51.34651],[-2.77094,51.34646],[-2.77081,51.34641],[-2.77077,51.34636],[-2.77082,51.34622],[-2.77091,51.34611],[-2.77112,51.34593],[-2.77115,51.34586],[-2.77098,51.34555],[-2.77112,51.34545],[-2.77102,51.34533],[-2.77106,51.34526],[-2.77105,51.3451],[-2.77111,51.34498],[-2.77098,51.34486],[-2.77098,51.34483],[-2.7711,51.34475],[-2.77104,51.34469],[-2.77107,51.34457],[-2.771,51.34444],[-2.77062,51.34437],[-2.77039,51.34439],[-2.76956,51.34382],[-2.76931,51.3434],[-2.76852,51.34353],[-2.76814,51.34364],[-2.76793,51.3434],[-2.76764,51.34296],[-2.76742,51.34255],[-2.76732,51.34229],[-2.76709,51.34231],[-2.76671,51.34245],[-2.76601,51.34259],[-2.76583,51.34213],[-2.76578,51.34185],[-2.76528,51.34183],[-2.76529,51.34178],[-2.7652,51.34177],[-2.76449,51.34275],[-2.76434,51.3427],[-2.76361,51.34337],[-2.7634,51.34366],[-2.76336,51.34364],[-2.7633,51.34349],[-2.76308,51.3424],[-2.76342,51.34236],[-2.76372,51.34227],[-2.76358,51.34216],[-2.7634,51.34185],[-2.76333,51.34143],[-2.76334,51.34132],[-2.7634,51.34124],[-2.76442,51.34146],[-2.76448,51.34121],[-2.76456,51.34105],[-2.76491,51.34111],[-2.76567,51.34101],[-2.76576,51.34103],[-2.76583,51.34112],[-2.76755,51.34105],[-2.76736,51.34033],[-2.76736,51.34012],[-2.76747,51.33994],[-2.76993,51.34005],[-2.76997,51.34025],[-2.77012,51.34049],[-2.77071,51.3405],[-2.77048,51.34101],[-2.77055,51.34104],[-2.77016,51.34166],[-2.77145,51.34172],[-2.77219,51.34171],[-2.77215,51.34136],[-2.77262,51.34127],[-2.77309,51.34175],[-2.77323,51.34173],[-2.77327,51.34175],[-2.77369,51.34167],[-2.77381,51.34191],[-2.7741,51.34186],[-2.77403,51.34164],[-2.77651,51.34132],[-2.77661,51.34159],[-2.77681,51.34157],[-2.77687,51.34165],[-2.77702,51.34212],[-2.77775,51.34189],[-2.77865,51.3417],[-2.77897,51.3416],[-2.78047,51.34103],[-2.7812,51.34056],[-2.78133,51.34055],[-2.78139,51.3406],[-2.78172,51.34164],[-2.78183,51.34224],[-2.7794,51.3426],[-2.77901,51.34258],[-2.77877,51.34246],[-2.77832,51.34251],[-2.77844,51.34289],[-2.77887,51.34285],[-2.77925,51.34395],[-2.77857,51.34404],[-2.77871,51.34425],[-2.77892,51.34439],[-2.77869,51.3444],[-2.77867,51.34435],[-2.77837,51.34437],[-2.7783,51.34397],[-2.77783,51.34387],[-2.7777,51.34353],[-2.77698,51.34363],[-2.77679,51.34362],[-2.77696,51.34403],[-2.77366,51.34404],[-2.77466,51.34457],[-2.77516,51.34492],[-2.77584,51.34525],[-2.77612,51.34544],[-2.7762,51.34549],[-2.77625,51.3456],[-2.77627,51.34594],[-2.77461,51.34609],[-2.77393,51.34617],[-2.77354,51.34626],[-2.77327,51.34585],[-2.77322,51.34584],[-2.77304,51.34593],[-2.77221,51.34613],[-2.77246,51.34649],[-2.77165,51.34661],[-2.77182,51.34682],[-2.77193,51.34717],[-2.77167,51.34737],[-2.77151,51.34745],[-2.77145,51.34742],[-2.77132,51.34726],[-2.77143,51.34715],[-2.77121,51.34713],[-2.77119,51.34708],[-2.77124,51.34702],[-2.77122,51.34697]]]}}]}