{"type":"FeatureCollection","features":[{"type":"Feature","properties":{"ListEntry":1059077,"Name":"ROSE COTTAGE","Grade":"II","ListDate":475804800000,"CaptureScale":"1:2500","hyperlink":"https://historicengland.org.uk/listing/the-list/list-entry/1059077","NGR":"ST 46607 53941","Easting":346607,"Northing":153941},"geometry":{"type":"MultiPoint","coordinates":[[-2.76694,51.28209]]}},{"type":"Feature","properties":{"ListEntry":1059078,"Name":"MILESTONE AT NGR ST 4141 5435","Grade":"II","ListDate":475804800000,"CaptureScale":"1:2500","hyperlink":"https://historicengland.org.uk/listing/the-list/list-entry/1059078","NGR":"ST 41440 54348","Easting":341440,"Northing":154349},"geometry":{"type":"MultiPoint","coordinates":[[-2.84109,51.28524]]}},{"type":"Feature","properties":{"ListEntry":1059083,"Name":"THE NEW INN","Grade":"II","ListDate":-280627200000,"CaptureScale":"1:2500","hyperlink":"https://historicengland.org.uk/listing/the-list/list-entry/1059083","NGR":"ST 41880 54826","Easting":341880,"Northing":154826},"geometry":{"type":"MultiPoint","coordinates":[[-2.83484,51.28958]]}},{"type":"Feature","properties":{"ListEntry":1059084,"Name":"NEWTON HOUSE","Grade":"II","ListDate":-280627200000,"CaptureScale":"1:2500","hyperlink":"https://historicengland.org.uk/listing/the-list/list-entry/1059084","NGR":"ST 41816 54766","Easting":341816,"Northing":154766},"geometry":{"type":"MultiPoint","coordinates":[[-2.83576,51.28904]]}},{"type":"Feature","properties":{"ListEntry":1059085,"Name":"BRAMBLE COTTAGE","Grade":"II","ListDate":475804800000,"CaptureScale":"1:2500","hyperlink":"https://historicengland.org.uk/listing/the-list/list-entry/1059085","NGR":"ST 40931 54999","Easting":340931,"Northing":154999},"geometry":{"type":"MultiPoint","coordinates":[[-2.84849,51.29104]]}},{"type":"Feature","properties":{"ListEntry":1059086,"Name":"TURNPIKE COTTAGE","Grade":"II","ListDate":-280627200000,"CaptureScale":"1:2500","hyperlink":"https://historicengland.org.uk/listing/the-list/list-entry/1059086","NGR":"ST 44444 57766","Easting":344444,"Northing":157766},"geometry":{"type":"MultiPoint","coordinates":[[-2.79854,51.31627]]}},{"type":"Feature","properties":{"ListEntry":1059087,"Name":"THE OLD RECTORY","Grade":"II","ListDate":475804800000,"CaptureScale":"1:2500","hyperlink":"https://historicengland.org.uk/listing/the-list/list-entry/1059087","NGR":"ST 44944 58466","Easting":344944,"Northing":158466},"geometry":{"type":"MultiPoint","coordinates":[[-2.79148,51.32262]]}},{"type":"Feature","properties":{"ListEntry":1059088,"Name":"BAY TREE HOUSE","Grade":"II","ListDate":475804800000,"CaptureScale":"1:2500","hyperlink":"https://historicengland.org.uk/listing/the-list/list-entry/1059088","NGR":"ST 44415 57593","Easting":344415,"Northing":157593},"geometry":{"type":"MultiPoint","coordinates":[[-2.79893,51.31471]]}},{"type":"Feature","properties":{"ListEntry":1059089,"Name":"PAIR OF GATE PIERS AT NGR ST 4439 5745","Grade":"II","ListDate":-280627200000,"AmendDate":475804800000,"CaptureScale":"1:2500","hyperlink":"https://historicengland.org.uk/listing/the-list/list-entry/1059089","NGR":"ST 44390 57450","Easting":344390,"Northing":157450},"geometry":{"type":"MultiPoint","coordinates":[[-2.79927,51.31343]]}},{"type":"Feature","properties":{"ListEntry":1059107,"Name":"YEOWATER HOUSE","Grade":"II","ListDate":475804800000,"CaptureScale":"1:2500","hyperlink":"https://historicengland.org.uk/listing/the-list/list-entry/1059107","NGR":"ST 46112 53733","Easting":346112,"Northing":153733},"geometry":{"type":"MultiPoint","coordinates":[[-2.774,51.28017]]}},{"type":"Feature","properties":{"ListEntry":1059109,"Name":"HILLVIEW HOUSE","Grade":"II","ListDate":-280627200000,"CaptureScale":"1:2500","hyperlink":"https://historicengland.org.uk/listing/the-list/list-entry/1059109","NGR":"ST 46020 53567","Easting":346020,"Northing":153567},"geometry":{"type":"MultiPoint","coordinates":[[-2.7753,51.27867]]}},{"type":"Feature","properties":{"ListEntry":1059111,"Name":"BROCK FARMHOUSE AND FORECOURT WALL","Grade":"II","ListDate":475804800000,"CaptureScale":"1:2500","hyperlink":"https://historicengland.org.uk/listing/the-list/list-entry/1059111","NGR":"ST 45558 54176","Easting":345558,"Northing":154176},"geometry":{"type":"MultiPoint","coordinates":[[-2.78201,51.2841]]}},{"type":"Feature","properties":{"ListEntry":1059115,"Name":"MAGNOLIA HOUSE, MILLSTREAM HOUSE, THE HALL AND THE SIDEWING","Grade":"II","ListDate":-280627200000,"AmendDate":475804800000,"CaptureScale":"1:2500","hyperlink":"https://historicengland.org.uk/listing/the-list/list-entry/1059115","NGR":"ST 46185 53569","Easting":346185,"Northing":153569},"geometry":{"type":"MultiPoint","coordinates":[[-2.77293,51.27871]]}},{"type":"Feature","properties":{"ListEntry":1059116,"Name":"THE KINGS HEAD","Grade":"II","ListDate":475804800000,"CaptureScale":"1:2500","hyperlink":"https://historicengland.org.uk/listing/the-list/list-entry/1059116","NGR":"ST 45701 53962","Easting":345701,"Northing":153962},"geometry":{"type":"MultiPoint","coordinates":[[-2.77993,51.28219]]}},{"type":"Feature","properties":{"ListEntry":1059119,"Name":"LILY COTTAGE","Grade":"II","ListDate":475804800000,"CaptureScale":"1:2500","hyperlink":"https://historicengland.org.uk/listing/the-list/list-entry/1059119","NGR":"ST 46618 53938","Easting":346618,"Northing":153938},"geometry":{"type":"MultiPoint","coordinates":[[-2.76678,51.28206]]}},{"type":"Feature","properties":{"ListEntry":1059120,"Name":"STEPS AND RAILINGS FORMING AN APPROACH TO SOUTH PORCH, CHURCH OF ST JOHN THE BAPTIST","Grade":"II","ListDate":475804800000,"CaptureScale":"1:2500","hyperlink":"https://historicengland.org.uk/listing/the-list/list-entry/1059120","NGR":"ST 43133 54586","Easting":343133,"Northing":154586},"geometry":{"type":"MultiPoint","coordinates":[[-2.81685,51.28755]]}},{"type":"Feature","properties":{"ListEntry":1059121,"Name":"CHURCH HOUSE","Grade":"II","ListDate":475804800000,"AmendDate":514080000000,"CaptureScale":"1:2500","hyperlink":"https://historicengland.org.uk/listing/the-list/list-entry/1059121","NGR":"ST 43127 54607","Easting":343127,"Northing":154607},"geometry":{"type":"MultiPoint","coordinates":[[-2.81693,51.28774]]}},{"type":"Feature","properties":{"ListEntry":1059122,"Name":"LLOYDS BANK HOUSE","Grade":"II","ListDate":-280627200000,"CaptureScale":"1:2500","hyperlink":"https://historicengland.org.uk/listing/the-list/list-entry/1059122","NGR":"ST 43113 54583","Easting":343113,"Northing":154583},"geometry":{"type":"MultiPoint","coordinates":[[-2.81712,51.28752]]}},{"type":"Feature","properties":{"ListEntry":1059123,"Name":"SHOP AND HOUSE IMMEDIATELY TO WEST OF THE OLD ANGEL","Grade":"II","ListDate":-280627200000,"AmendDate":475804800000,"CaptureScale":"1:2500","hyperlink":"https://historicengland.org.uk/listing/the-list/list-entry/1059123","NGR":"ST 43097 54571","Easting":343097,"Northing":154571},"geometry":{"type":"MultiPoint","coordinates":[[-2.81735,51.28741]]}},{"type":"Feature","properties":{"ListEntry":1059124,"Name":"AXBRIDGE WINE VAULTS","Grade":"II","ListDate":-280627200000,"CaptureScale":"1:2500","hyperlink":"https://historicengland.org.uk/listing/the-list/list-entry/1059124","NGR":"ST 43084 54532","Easting":343084,"Northing":154532},"geometry":{"type":"MultiPoint","coordinates":[[-2.81754,51.28706]]}},{"type":"Feature","properties":{"ListEntry":1059125,"Name":"MENDIP HOUSE","Grade":"II","ListDate":475804800000,"CaptureScale":"1:2500","hyperlink":"https://historicengland.org.uk/listing/the-list/list-entry/1059125","NGR":"ST 42988 54768","Easting":342988,"Northing":154768},"geometry":{"type":"MultiPoint","coordinates":[[-2.81895,51.28917]]}},{"type":"Feature","properties":{"ListEntry":1059126,"Name":"THE SPINNING WHEEL","Grade":"II","ListDate":475804800000,"CaptureScale":"1:2500","hyperlink":"https://historicengland.org.uk/listing/the-list/list-entry/1059126","NGR":"ST 43102 54518","Easting":343102,"Northing":154518},"geometry":{"type":"MultiPoint","coordinates":[[-2.81728,51.28694]]}},{"type":"Feature","properties":{"ListEntry":1059127,"Name":"2, WEST STREET","Grade":"II","ListDate":475804800000,"CaptureScale":"1:2500","hyperlink":"https://historicengland.org.uk/listing/the-list/list-entry/1059127","NGR":"ST 42937 54618","Easting":342937,"Northing":154619},"geometry":{"type":"MultiPoint","coordinates":[[-2.81966,51.28782]]}},{"type":"Feature","properties":{"ListEntry":1059128,"Name":"MYRTLE HOUSE","Grade":"II","ListDate":475804800000,"CaptureScale":"1:2500","hyperlink":"https://historicengland.org.uk/listing/the-list/list-entry/1059128","NGR":"ST 42835 54612","Easting":342835,"Northing":154612},"geometry":{"type":"MultiPoint","coordinates":[[-2.82112,51.28775]]}},{"type":"Feature","properties":{"ListEntry":1059129,"Name":"24, WEST STREET","Grade":"II","ListDate":475804800000,"CaptureScale":"1:2500","hyperlink":"https://historicengland.org.uk/listing/the-list/list-entry/1059129","NGR":"ST 42813 54615","Easting":342813,"Northing":154615},"geometry":{"type":"MultiPoint","coordinates":[[-2.82144,51.28778]]}},{"type":"Feature","properties":{"ListEntry":1059130,"Name":"30, WEST STREET","Grade":"II","ListDate":-280627200000,"AmendDate":475804800000,"CaptureScale":"1:2500","hyperlink":"https://historicengland.org.uk/listing/the-list/list-entry/1059130","NGR":"ST 42787 54618","Easting":342787,"Northing":154618},"geometry":{"type":"MultiPoint","coordinates":[[-2.82182,51.2878]]}},{"type":"Feature","properties":{"ListEntry":1059131,"Name":"CATHLAR HOUSE","Grade":"II","ListDate":475804800000,"CaptureScale":"1:2500","hyperlink":"https://historicengland.org.uk/listing/the-list/list-entry/1059131","NGR":"ST 42724 54618","Easting":342724,"Northing":154618},"geometry":{"type":"MultiPoint","coordinates":[[-2.82272,51.2878]]}},{"type":"Feature","properties":{"ListEntry":1059132,"Name":"3, WEST STREET","Grade":"II","ListDate":475804800000,"CaptureScale":"1:2500","hyperlink":"https://historicengland.org.uk/listing/the-list/list-entry/1059132","NGR":"ST 42918 54601","Easting":342918,"Northing":154601},"geometry":{"type":"MultiPoint","coordinates":[[-2.81993,51.28766]]}},{"type":"Feature","properties":{"ListEntry":1059133,"Name":"ST JOHN'S COURT","Grade":"II","ListDate":475804800000,"CaptureScale":"1:2500","hyperlink":"https://historicengland.org.uk/listing/the-list/list-entry/1059133","NGR":"ST 42871 54502","Easting":342871,"Northing":154502},"geometry":{"type":"MultiPoint","coordinates":[[-2.82059,51.28677]]}},{"type":"Feature","properties":{"ListEntry":1059134,"Name":"ROSYDEN HOUSE","Grade":"II","ListDate":475804800000,"CaptureScale":"1:2500","hyperlink":"https://historicengland.org.uk/listing/the-list/list-entry/1059134","NGR":"ST 42802 54603","Easting":342802,"Northing":154604},"geometry":{"type":"MultiPoint","coordinates":[[-2.82159,51.28767]]}},{"type":"Feature","properties":{"ListEntry":1059135,"Name":"TRELAWNEY","Grade":"II","ListDate":475804800000,"CaptureScale":"1:2500","hyperlink":"https://historicengland.org.uk/listing/the-list/list-entry/1059135","NGR":"ST 42729 54603","Easting":342729,"Northing":154603},"geometry":{"type":"MultiPoint","coordinates":[[-2.82264,51.28766]]}},{"type":"Feature","properties":{"ListEntry":1059136,"Name":"LATRINE AND GARDEN WALL ADJACENT TO SOUTH EAST CORNER OF COMPTON HOUSE","Grade":"II","ListDate":475804800000,"CaptureScale":"1:2500","hyperlink":"https://historicengland.org.uk/listing/the-list/list-entry/1059136","NGR":"ST 42652 54597","Easting":342652,"Northing":154597},"geometry":{"type":"MultiPoint","coordinates":[[-2.82375,51.2876]]}},{"type":"Feature","properties":{"ListEntry":1059141,"Name":"1, CHURCH LANE","Grade":"II","ListDate":475804800000,"CaptureScale":"1:2500","hyperlink":"https://historicengland.org.uk/listing/the-list/list-entry/1059141","NGR":"ST 43180 54557","Easting":343180,"Northing":154557},"geometry":{"type":"MultiPoint","coordinates":[[-2.81617,51.2873]]}},{"type":"Feature","properties":{"ListEntry":1059142,"Name":"KING JOHN'S HUNTING LODGE (AXBRIDGE MUSEUM)","Grade":"II*","ListDate":-280627200000,"AmendDate":475804800000,"CaptureScale":"1:2500","hyperlink":"https://historicengland.org.uk/listing/the-list/list-entry/1059142","NGR":"ST 43078 54540","Easting":343078,"Northing":154540},"geometry":{"type":"MultiPoint","coordinates":[[-2.81763,51.28713]]}},{"type":"Feature","properties":{"ListEntry":1059143,"Name":"3, HIGH STREET","Grade":"II","ListDate":475804800000,"CaptureScale":"1:2500","hyperlink":"https://historicengland.org.uk/listing/the-list/list-entry/1059143","NGR":"ST 43072 54538","Easting":343072,"Northing":154539},"geometry":{"type":"MultiPoint","coordinates":[[-2.81772,51.28712]]}},{"type":"Feature","properties":{"ListEntry":1059144,"Name":"5 AND 7, HIGH STREET","Grade":"II","ListDate":-280627200000,"AmendDate":475804800000,"CaptureScale":"1:2500","hyperlink":"https://historicengland.org.uk/listing/the-list/list-entry/1059144","NGR":"ST 43064 54535","Easting":343064,"Northing":154535},"geometry":{"type":"MultiPoint","coordinates":[[-2.81783,51.28709]]}},{"type":"Feature","properties":{"ListEntry":1059145,"Name":"RAYMOND COURT","Grade":"II","ListDate":475804800000,"CaptureScale":"1:2500","hyperlink":"https://historicengland.org.uk/listing/the-list/list-entry/1059145","NGR":"ST 43032 54537","Easting":343032,"Northing":154538},"geometry":{"type":"MultiPoint","coordinates":[[-2.81828,51.28711]]}},{"type":"Feature","properties":{"ListEntry":1059146,"Name":"17, HIGH STREET","Grade":"II","ListDate":475804800000,"CaptureScale":"1:2500","hyperlink":"https://historicengland.org.uk/listing/the-list/list-entry/1059146","NGR":"ST 43016 54547","Easting":343016,"Northing":154548},"geometry":{"type":"MultiPoint","coordinates":[[-2.81852,51.28719]]}},{"type":"Feature","properties":{"ListEntry":1059147,"Name":"OLD MANOR HOUSE","Grade":"II*","ListDate":-280627200000,"CaptureScale":"1:2500","hyperlink":"https://historicengland.org.uk/listing/the-list/list-entry/1059147","NGR":"ST 43008 54553","Easting":343008,"Northing":154554},"geometry":{"type":"MultiPoint","coordinates":[[-2.81863,51.28724]]}},{"type":"Feature","properties":{"ListEntry":1059148,"Name":"25, HIGH STREET","Grade":"II","ListDate":475804800000,"CaptureScale":"1:2500","hyperlink":"https://historicengland.org.uk/listing/the-list/list-entry/1059148","NGR":"ST 42990 54575","Easting":342990,"Northing":154575},"geometry":{"type":"MultiPoint","coordinates":[[-2.81889,51.28744]]}},{"type":"Feature","properties":{"ListEntry":1059149,"Name":"2 AND 4, HIGH STREET","Grade":"II","ListDate":-280627200000,"AmendDate":475804800000,"CaptureScale":"1:2500","hyperlink":"https://historicengland.org.uk/listing/the-list/list-entry/1059149","NGR":"ST 43064 54551","Easting":343064,"Northing":154551},"geometry":{"type":"MultiPoint","coordinates":[[-2.81784,51.28723]]}},{"type":"Feature","properties":{"ListEntry":1059150,"Name":"10 AND 12, HIGH STREET","Grade":"II","ListDate":-280627200000,"AmendDate":475804800000,"CaptureScale":"1:2500","hyperlink":"https://historicengland.org.uk/listing/the-list/list-entry/1059150","NGR":"ST 43030 54557","Easting":343030,"Northing":154558},"geometry":{"type":"MultiPoint","coordinates":[[-2.81832,51.28729]]}},{"type":"Feature","properties":{"ListEntry":1059151,"Name":"28, HIGH STREET","Grade":"II","ListDate":475804800000,"CaptureScale":"1:2500","hyperlink":"https://historicengland.org.uk/listing/the-list/list-entry/1059151","NGR":"ST 42989 54594","Easting":342989,"Northing":154594},"geometry":{"type":"MultiPoint","coordinates":[[-2.81891,51.28761]]}},{"type":"Feature","properties":{"ListEntry":1059152,"Name":"7, MOORLAND STREET","Grade":"II","ListDate":475804800000,"CaptureScale":"1:2500","hyperlink":"https://historicengland.org.uk/listing/the-list/list-entry/1059152","NGR":"ST 43134 54438","Easting":343134,"Northing":154438},"geometry":{"type":"MultiPoint","coordinates":[[-2.8168,51.28622]]}},{"type":"Feature","properties":{"ListEntry":1059153,"Name":"THE OLD ALMSHOUSE","Grade":"II","ListDate":214704000000,"CaptureScale":"1:2500","hyperlink":"https://historicengland.org.uk/listing/the-list/list-entry/1059153","NGR":"ST 43113 54521","Easting":343113,"Northing":154521},"geometry":{"type":"MultiPoint","coordinates":[[-2.81712,51.28697]]}},{"type":"Feature","properties":{"ListEntry":1059154,"Name":"SECTION OF WALL IN THE GROUNDS OF ST MARYS COTTAGE","Grade":"II","ListDate":-280627200000,"AmendDate":475804800000,"CaptureScale":"1:2500","hyperlink":"https://historicengland.org.uk/listing/the-list/list-entry/1059154","NGR":"ST 43178 54546","Easting":343178,"Northing":154546},"geometry":{"type":"MultiPoint","coordinates":[[-2.81619,51.2872]]}},{"type":"Feature","properties":{"ListEntry":1059155,"Name":"STATION ROAD FARMHOUSE AND ATTACHED BARN TO LEFT","Grade":"II","ListDate":475804800000,"CaptureScale":"1:2500","hyperlink":"https://historicengland.org.uk/listing/the-list/list-entry/1059155","NGR":"ST 43332 54513","Easting":343332,"Northing":154513},"geometry":{"type":"MultiPoint","coordinates":[[-2.81398,51.28691]]}},{"type":"Feature","properties":{"ListEntry":1059156,"Name":"THE GEORGIAN HOUSE","Grade":"II","ListDate":475804800000,"CaptureScale":"1:2500","hyperlink":"https://historicengland.org.uk/listing/the-list/list-entry/1059156","NGR":"ST 43240 54551","Easting":343240,"Northing":154552},"geometry":{"type":"MultiPoint","coordinates":[[-2.81531,51.28725]]}},{"type":"Feature","properties":{"ListEntry":1059157,"Name":"THE OLD COURT HOUSE","Grade":"II","ListDate":-280627200000,"CaptureScale":"1:2500","hyperlink":"https://historicengland.org.uk/listing/the-list/list-entry/1059157","NGR":"ST 43201 54553","Easting":343201,"Northing":154554},"geometry":{"type":"MultiPoint","coordinates":[[-2.81587,51.28726]]}},{"type":"Feature","properties":{"ListEntry":1129176,"Name":"ALDWICK COURT","Grade":"II","ListDate":-280627200000,"CaptureScale":"1:2500","hyperlink":"https://historicengland.org.uk/listing/the-list/list-entry/1129176","NGR":"ST 49201 61326","Easting":349201,"Northing":161326},"geometry":{"type":"MultiPoint","coordinates":[[-2.7308,51.34873]]}},{"type":"Feature","properties":{"ListEntry":1129181,"Name":"GAUGE HOUSE","Grade":"II","ListDate":538012800000,"CaptureScale":"1:2500","hyperlink":"https://historicengland.org.uk/listing/the-list/list-entry/1129181","NGR":"ST4866359313","Easting":348663,"Northing":159313},"geometry":{"type":"MultiPoint","coordinates":[[-2.73823,51.33058]]}},{"type":"Feature","properties":{"ListEntry":1129182,"Name":"NUMBERS 1 AND 2 BROOK HOUSE","Grade":"II","ListDate":538012800000,"CaptureScale":"1:2500","hyperlink":"https://historicengland.org.uk/listing/the-list/list-entry/1129182","NGR":"ST4857759518","Easting":348577,"Northing":159518},"geometry":{"type":"MultiPoint","coordinates":[[-2.7395,51.33241]]}},{"type":"Feature","properties":{"ListEntry":1129183,"Name":"CHURCH OF HOLY TRINITY","Grade":"I","ListDate":-280627200000,"CaptureScale":"1:2500","hyperlink":"https://historicengland.org.uk/listing/the-list/list-entry/1129183","NGR":"ST 47864 59332","Easting":347864,"Northing":159333},"geometry":{"type":"MultiPoint","coordinates":[[-2.7497,51.33068]]}},{"type":"Feature","properties":{"ListEntry":1129184,"Name":"ORANGERY TO THE NORTH EAST OF LANGFORD COURT","Grade":"II","ListDate":-280627200000,"CaptureScale":"1:2500","hyperlink":"https://historicengland.org.uk/listing/the-list/list-entry/1129184","NGR":"ST 47074 60234","Easting":347074,"Northing":160234},"geometry":{"type":"MultiPoint","coordinates":[[-2.76118,51.33871]]}},{"type":"Feature","properties":{"ListEntry":1129185,"Name":"LANGFORD PLACE","Grade":"II","ListDate":538012800000,"CaptureScale":"1:2500","hyperlink":"https://historicengland.org.uk/listing/the-list/list-entry/1129185","NGR":"ST 46896 60575","Easting":346896,"Northing":160575},"geometry":{"type":"MultiPoint","coordinates":[[-2.76378,51.34176]]}},{"type":"Feature","properties":{"ListEntry":1129186,"Name":"NASH HOUSE","Grade":"II","ListDate":-280627200000,"CaptureScale":"1:2500","hyperlink":"https://historicengland.org.uk/listing/the-list/list-entry/1129186","NGR":"ST 46618 60552","Easting":346618,"Northing":160552},"geometry":{"type":"MultiPoint","coordinates":[[-2.76777,51.34153]]}},{"type":"Feature","properties":{"ListEntry":1129195,"Name":"GRANGE FARMHOUSE","Grade":"II","ListDate":538012800000,"CaptureScale":"1:2500","hyperlink":"https://historicengland.org.uk/listing/the-list/list-entry/1129195","NGR":"ST 45980 59619","Easting":345980,"Northing":159619},"geometry":{"type":"MultiPoint","coordinates":[[-2.77679,51.33308]]}},{"type":"Feature","properties":{"ListEntry":1129196,"Name":"TWO MONUMENTS TO BROOKMAN AND WATTS FAMILIES IN CHURCHYARD, 2 AND 5 METRES SOUTH OF CHURCH OF ST JOHN","Grade":"II","ListDate":538012800000,"CaptureScale":"1:2500","hyperlink":"https://historicengland.org.uk/listing/the-list/list-entry/1129196","NGR":"ST 43734 60226","Easting":343734,"Northing":160226},"geometry":{"type":"MultiPoint","coordinates":[[-2.80912,51.33832]]}},{"type":"Feature","properties":{"ListEntry":1129197,"Name":"DINGHURST FARMHOUSE","Grade":"II","ListDate":538012800000,"CaptureScale":"1:2500","hyperlink":"https://historicengland.org.uk/listing/the-list/list-entry/1129197","NGR":"ST 44222 59664","Easting":344222,"Northing":159664},"geometry":{"type":"MultiPoint","coordinates":[[-2.80203,51.33332]]}},{"type":"Feature","properties":{"ListEntry":1129198,"Name":"JUBILEE CLOCK TOWER AND ATTACHED WALLS AND RAILINGS","Grade":"II","ListDate":538012800000,"CaptureScale":"1:2500","hyperlink":"https://historicengland.org.uk/listing/the-list/list-entry/1129198","NGR":"ST4439059738","Easting":344390,"Northing":159738},"geometry":{"type":"MultiPoint","coordinates":[[-2.79963,51.33399]]}},{"type":"Feature","properties":{"ListEntry":1129199,"Name":"SIDNEY HILL COTTAGE HOMES AND ATTACHED GATEPIERS, WALLS AND GATES","Grade":"II","ListDate":538012800000,"CaptureScale":"1:2500","hyperlink":"https://historicengland.org.uk/listing/the-list/list-entry/1129199","NGR":"ST 44041 59880","Easting":344041,"Northing":159880},"geometry":{"type":"MultiPoint","coordinates":[[-2.80466,51.33524]]}},{"type":"Feature","properties":{"ListEntry":1129200,"Name":"LODGE, GATEPIERS AND WALLS TO SOUTH EAST OF LANGFORD HOUSE","Grade":"II","ListDate":538012800000,"CaptureScale":"1:2500","hyperlink":"https://historicengland.org.uk/listing/the-list/list-entry/1129200","NGR":"ST 46047 60652","Easting":346047,"Northing":160652},"geometry":{"type":"MultiPoint","coordinates":[[-2.77598,51.34238]]}},{"type":"Feature","properties":{"ListEntry":1129201,"Name":"RICHMOND HOUSE","Grade":"II","ListDate":538012800000,"CaptureScale":"1:2500","hyperlink":"https://historicengland.org.uk/listing/the-list/list-entry/1129201","NGR":"ST 46237 60675","Easting":346237,"Northing":160675},"geometry":{"type":"MultiPoint","coordinates":[[-2.77326,51.3426]]}},{"type":"Feature","properties":{"ListEntry":1129202,"Name":"TURNPIKE TRUST PARISH BOUNDARY MARKER","Grade":"II","ListDate":538012800000,"CaptureScale":"1:2500","hyperlink":"https://historicengland.org.uk/listing/the-list/list-entry/1129202","NGR":"ST 46378 60682","Easting":346378,"Northing":160682},"geometry":{"type":"MultiPoint","coordinates":[[-2.77124,51.34267]]}},{"type":"Feature","properties":{"ListEntry":1129206,"Name":"HONEY HALL","Grade":"II","ListDate":-280627200000,"AmendDate":538012800000,"CaptureScale":"1:2500","hyperlink":"https://historicengland.org.uk/listing/the-list/list-entry/1129206","NGR":"ST 43215 61328","Easting":343215,"Northing":161328},"geometry":{"type":"MultiPoint","coordinates":[[-2.81675,51.34818]]}},{"type":"Feature","properties":{"ListEntry":1129220,"Name":"LODGE TO NORTH WEST OF ALWICK COURT","Grade":"II","ListDate":538012800000,"CaptureScale":"1:2500","hyperlink":"https://historicengland.org.uk/listing/the-list/list-entry/1129220","NGR":"ST 49023 61514","Easting":349023,"Northing":161514},"geometry":{"type":"MultiPoint","coordinates":[[-2.73338,51.3504]]}},{"type":"Feature","properties":{"ListEntry":1129230,"Name":"K6 TELEPHONE KIOSK","Grade":"II","ListDate":602208000000,"CaptureScale":"1:2500","hyperlink":"https://historicengland.org.uk/listing/the-list/list-entry/1129230","NGR":"ST 44008 59927","Easting":344008,"Northing":159927},"geometry":{"type":"MultiPoint","coordinates":[[-2.80514,51.33566]]}},{"type":"Feature","properties":{"ListEntry":1129234,"Name":"APRIL COTTAGE","Grade":"II","ListDate":656208000000,"CaptureScale":"1:2500","hyperlink":"https://historicengland.org.uk/listing/the-list/list-entry/1129234","NGR":"ST 44034 59932","Easting":344034,"Northing":159932},"geometry":{"type":"MultiPoint","coordinates":[[-2.80477,51.33571]]}},{"type":"Feature","properties":{"ListEntry":1129756,"Name":"PAIR OF CHEST TOMBS, ONE TO MATTHEW WALLER (1516), 5 YARDS TO NORTH EAST OF CHANCEL OF CHURCH OF ST JAMES","Grade":"II","ListDate":419731200000,"CaptureScale":"1:1250","hyperlink":"https://historicengland.org.uk/listing/the-list/list-entry/1129756","NGR":"ST4117356651","Easting":341173,"Northing":156651},"geometry":{"type":"MultiPoint","coordinates":[[-2.84529,51.30591]]}},{"type":"Feature","properties":{"ListEntry":1129757,"Name":"NUT TREE FARMHOUSE","Grade":"II","ListDate":419731200000,"CaptureScale":"1:2500","hyperlink":"https://historicengland.org.uk/listing/the-list/list-entry/1129757","NGR":"ST 41541 57525","Easting":341541,"Northing":157525},"geometry":{"type":"MultiPoint","coordinates":[[-2.84015,51.31382]]}},{"type":"Feature","properties":{"ListEntry":1129758,"Name":"20, GREENHILL ROAD","Grade":"II","ListDate":419731200000,"CaptureScale":"1:2500","hyperlink":"https://historicengland.org.uk/listing/the-list/list-entry/1129758","NGR":"ST 42405 59602","Easting":342405,"Northing":159602},"geometry":{"type":"MultiPoint","coordinates":[[-2.8281,51.33258]]}},{"type":"Feature","properties":{"ListEntry":1129759,"Name":"HILLSIDE COTTAGE","Grade":"II","ListDate":419731200000,"CaptureScale":"1:2500","hyperlink":"https://historicengland.org.uk/listing/the-list/list-entry/1129759","NGR":"ST 42088 59444","Easting":342088,"Northing":159444},"geometry":{"type":"MultiPoint","coordinates":[[-2.83262,51.33112]]}},{"type":"Feature","properties":{"ListEntry":1129760,"Name":"SIDCOT FARMHOUSE","Grade":"II","ListDate":419731200000,"CaptureScale":"1:2500","hyperlink":"https://historicengland.org.uk/listing/the-list/list-entry/1129760","NGR":"ST 42885 57247","Easting":342885,"Northing":157247},"geometry":{"type":"MultiPoint","coordinates":[[-2.82083,51.31145]]}},{"type":"Feature","properties":{"ListEntry":1129761,"Name":"FORMER SANDFORD STATION","Grade":"II","ListDate":419731200000,"CaptureScale":"1:2500","hyperlink":"https://historicengland.org.uk/listing/the-list/list-entry/1129761","NGR":"ST 41622 59552","Easting":341622,"Northing":159552},"geometry":{"type":"MultiPoint","coordinates":[[-2.83932,51.33205]]}},{"type":"Feature","properties":{"ListEntry":1129762,"Name":"GOODS SHED TO FORMER SANDFORD STATION","Grade":"II","ListDate":419731200000,"CaptureScale":"1:2500","hyperlink":"https://historicengland.org.uk/listing/the-list/list-entry/1129762","NGR":"ST 41624 59506","Easting":341624,"Northing":159506},"geometry":{"type":"MultiPoint","coordinates":[[-2.83929,51.33163]]}},{"type":"Feature","properties":{"ListEntry":1129793,"Name":"TOWERHEAD HOUSE","Grade":"II","ListDate":443145600000,"CaptureScale":"1:2500","hyperlink":"https://historicengland.org.uk/listing/the-list/list-entry/1129793","NGR":"ST4121559415","Easting":341215,"Northing":159415},"geometry":{"type":"MultiPoint","coordinates":[[-2.84514,51.33077]]}},{"type":"Feature","properties":{"ListEntry":1135758,"Name":"GATEPIERS AT TOWERHEAD HOUSE","Grade":"II","ListDate":443145600000,"CaptureScale":"1:1250","hyperlink":"https://historicengland.org.uk/listing/the-list/list-entry/1135758","NGR":"ST4117459460","Easting":341174,"Northing":159460},"geometry":{"type":"MultiPoint","coordinates":[[-2.84575,51.33117]]}},{"type":"Feature","properties":{"ListEntry":1136815,"Name":"SUNDAY SCHOOL NORTH OF WESLEYAN CHAPEL","Grade":"II","ListDate":419731200000,"CaptureScale":"1:2500","hyperlink":"https://historicengland.org.uk/listing/the-list/list-entry/1136815","NGR":"ST 42016 59305","Easting":342016,"Northing":159305},"geometry":{"type":"MultiPoint","coordinates":[[-2.83363,51.32987]]}},{"type":"Feature","properties":{"ListEntry":1136826,"Name":"WALNUT TREE COTTAGE","Grade":"II","ListDate":419731200000,"CaptureScale":"1:2500","hyperlink":"https://historicengland.org.uk/listing/the-list/list-entry/1136826","NGR":"ST 42115 59508","Easting":342115,"Northing":159508},"geometry":{"type":"MultiPoint","coordinates":[[-2.83224,51.3317]]}},{"type":"Feature","properties":{"ListEntry":1136835,"Name":"Main block with entrance elevation to Sidcot School","Grade":"II","ListDate":-280627200000,"CaptureScale":"1:2500","hyperlink":"https://historicengland.org.uk/listing/the-list/list-entry/1136835","NGR":"ST 42863 57460","Easting":342863,"Northing":157460},"geometry":{"type":"MultiPoint","coordinates":[[-2.82118,51.31337]]}},{"type":"Feature","properties":{"ListEntry":1146346,"Name":"STABLES AND ARCHWAY AT ALDWICK COURT","Grade":"II","ListDate":538012800000,"CaptureScale":"1:2500","hyperlink":"https://historicengland.org.uk/listing/the-list/list-entry/1146346","NGR":"ST 49198 61373","Easting":349198,"Northing":161373},"geometry":{"type":"MultiPoint","coordinates":[[-2.73085,51.34915]]}},{"type":"Feature","properties":{"ListEntry":1146370,"Name":"LODGE TO SOUTH WEST OF WOODLANDS","Grade":"II","ListDate":538012800000,"CaptureScale":"1:2500","hyperlink":"https://historicengland.org.uk/listing/the-list/list-entry/1146370","NGR":"ST 49374 61111","Easting":349374,"Northing":161111},"geometry":{"type":"MultiPoint","coordinates":[[-2.72829,51.34681]]}},{"type":"Feature","properties":{"ListEntry":1146444,"Name":"BOURNE FARMHOUSE","Grade":"II","ListDate":538012800000,"CaptureScale":"1:2500","hyperlink":"https://historicengland.org.uk/listing/the-list/list-entry/1146444","NGR":"ST 48447 59820","Easting":348447,"Northing":159820},"geometry":{"type":"MultiPoint","coordinates":[[-2.74141,51.33512]]}},{"type":"Feature","properties":{"ListEntry":1146451,"Name":"ENTRANCE GATEPIERS, GATES AND WALLS TO EAST OF LANGFORD COURT","Grade":"II","ListDate":-280627200000,"CaptureScale":"1:2500","hyperlink":"https://historicengland.org.uk/listing/the-list/list-entry/1146451","NGR":"ST 47108 60168","Easting":347108,"Northing":160168},"geometry":{"type":"MultiPoint","coordinates":[[-2.76068,51.33812]]}},{"type":"Feature","properties":{"ListEntry":1146506,"Name":"ALDEN HOUSE","Grade":"II","ListDate":538012800000,"CaptureScale":"1:2500","hyperlink":"https://historicengland.org.uk/listing/the-list/list-entry/1146506","NGR":"ST 46674 60603","Easting":346674,"Northing":160603},"geometry":{"type":"MultiPoint","coordinates":[[-2.76697,51.34199]]}},{"type":"Feature","properties":{"ListEntry":1146509,"Name":"DRING COTTAGE","Grade":"II","ListDate":538012800000,"CaptureScale":"1:2500","hyperlink":"https://historicengland.org.uk/listing/the-list/list-entry/1146509","NGR":"ST 46580 60565","Easting":346580,"Northing":160565},"geometry":{"type":"MultiPoint","coordinates":[[-2.76832,51.34164]]}},{"type":"Feature","properties":{"ListEntry":1146517,"Name":"LODGE FARMHOUSE","Grade":"II","ListDate":538012800000,"CaptureScale":"1:2500","hyperlink":"https://historicengland.org.uk/listing/the-list/list-entry/1146517","NGR":"ST 46752 60523","Easting":346752,"Northing":160523},"geometry":{"type":"MultiPoint","coordinates":[[-2.76584,51.34128]]}},{"type":"Feature","properties":{"ListEntry":1157891,"Name":"CHURCH OF ST JOHN THE BAPTIST","Grade":"I","ListDate":-280627200000,"CaptureScale":"1:2500","hyperlink":"https://historicengland.org.uk/listing/the-list/list-entry/1157891","NGR":"ST 43729 60239","Easting":343729,"Northing":160239},"geometry":{"type":"MultiPoint","coordinates":[[-2.8092,51.33843]]}},{"type":"Feature","properties":{"ListEntry":1157915,"Name":"GATEPIERS AND GATES SOUTH EAST OF CHURCHILL COURT","Grade":"II","ListDate":-280627200000,"CaptureScale":"1:2500","hyperlink":"https://historicengland.org.uk/listing/the-list/list-entry/1157915","NGR":"ST 43778 60180","Easting":343778,"Northing":160181},"geometry":{"type":"MultiPoint","coordinates":[[-2.80848,51.33792]]}},{"type":"Feature","properties":{"ListEntry":1157918,"Name":"CLOCK HOUSE","Grade":"II","ListDate":538012800000,"CaptureScale":"1:2500","hyperlink":"https://historicengland.org.uk/listing/the-list/list-entry/1157918","NGR":"ST4441559719","Easting":344415,"Northing":159719},"geometry":{"type":"MultiPoint","coordinates":[[-2.79927,51.33382]]}},{"type":"Feature","properties":{"ListEntry":1157925,"Name":"METHODIST CHURCH, SCHOOL ROOM, COACH HOUSE AND ATTACHED WALLS","Grade":"II","ListDate":538012800000,"CaptureScale":"1:2500","hyperlink":"https://historicengland.org.uk/listing/the-list/list-entry/1157925","NGR":"ST 44352 59773","Easting":344352,"Northing":159773},"geometry":{"type":"MultiPoint","coordinates":[[-2.80018,51.33431]]}},{"type":"Feature","properties":{"ListEntry":1157936,"Name":"MOUNTAIN ASH COTTAGE","Grade":"II","ListDate":538012800000,"CaptureScale":"1:2500","hyperlink":"https://historicengland.org.uk/listing/the-list/list-entry/1157936","NGR":"ST 44241 59777","Easting":344241,"Northing":159777},"geometry":{"type":"MultiPoint","coordinates":[[-2.80177,51.33433]]}},{"type":"Feature","properties":{"ListEntry":1157960,"Name":"SUNDIAL IN INNER COURTYARD AT SIDNEY HILL COTTAGE HOMES","Grade":"II","ListDate":538012800000,"CaptureScale":"1:2500","hyperlink":"https://historicengland.org.uk/listing/the-list/list-entry/1157960","NGR":"ST 44026 59865","Easting":344026,"Northing":159865},"geometry":{"type":"MultiPoint","coordinates":[[-2.80487,51.3351]]}},{"type":"Feature","properties":{"ListEntry":1157974,"Name":"LANGFORD HOUSE","Grade":"II","ListDate":538012800000,"CaptureScale":"1:2500","hyperlink":"https://historicengland.org.uk/listing/the-list/list-entry/1157974","NGR":"ST 45904 60743","Easting":345904,"Northing":160743},"geometry":{"type":"MultiPoint","coordinates":[[-2.77805,51.34318]]}},{"type":"Feature","properties":{"ListEntry":1157996,"Name":"BOUNDARY WALLS, RAILINGS AND GATES AT VICTORIA JUBILEE LANGFORD HOMES","Grade":"II","ListDate":538012800000,"CaptureScale":"1:2500","hyperlink":"https://historicengland.org.uk/listing/the-list/list-entry/1157996","NGR":"ST 46315 60690","Easting":346315,"Northing":160690},"geometry":{"type":"MultiPoint","coordinates":[[-2.77214,51.34274]]}},{"type":"Feature","properties":{"ListEntry":1172942,"Name":"23, HIGH STREET","Grade":"II","ListDate":475804800000,"CaptureScale":"1:2500","hyperlink":"https://historicengland.org.uk/listing/the-list/list-entry/1172942","NGR":"ST 42995 54569","Easting":342995,"Northing":154569},"geometry":{"type":"MultiPoint","coordinates":[[-2.81882,51.28738]]}},{"type":"Feature","properties":{"ListEntry":1172972,"Name":"FORD HOUSE","Grade":"II","ListDate":475804800000,"CaptureScale":"1:2500","hyperlink":"https://historicengland.org.uk/listing/the-list/list-entry/1172972","NGR":"ST 42960 54592","Easting":342960,"Northing":154592},"geometry":{"type":"MultiPoint","coordinates":[[-2.81933,51.28758]]}},{"type":"Feature","properties":{"ListEntry":1172994,"Name":"6 AND 8, HIGH STREET","Grade":"II","ListDate":475804800000,"CaptureScale":"1:2500","hyperlink":"https://historicengland.org.uk/listing/the-list/list-entry/1172994","NGR":"ST 43045 54549","Easting":343045,"Northing":154549},"geometry":{"type":"MultiPoint","coordinates":[[-2.8181,51.28721]]}},{"type":"Feature","properties":{"ListEntry":1172999,"Name":"14 AND 16, HIGH STREET","Grade":"II","ListDate":-280627200000,"AmendDate":475804800000,"CaptureScale":"1:2500","hyperlink":"https://historicengland.org.uk/listing/the-list/list-entry/1172999","NGR":"ST 43020 54564","Easting":343020,"Northing":154565},"geometry":{"type":"MultiPoint","coordinates":[[-2.81847,51.28735]]}},{"type":"Feature","properties":{"ListEntry":1173012,"Name":"24, HIGH STREET","Grade":"II","ListDate":475804800000,"CaptureScale":"1:2500","hyperlink":"https://historicengland.org.uk/listing/the-list/list-entry/1173012","NGR":"ST 43001 54581","Easting":343001,"Northing":154582},"geometry":{"type":"MultiPoint","coordinates":[[-2.81874,51.2875]]}},{"type":"Feature","properties":{"ListEntry":1173016,"Name":"3, MOORLAND STREET","Grade":"II","ListDate":475804800000,"CaptureScale":"1:2500","hyperlink":"https://historicengland.org.uk/listing/the-list/list-entry/1173016","NGR":"ST 43130 54464","Easting":343130,"Northing":154464},"geometry":{"type":"MultiPoint","coordinates":[[-2.81687,51.28645]]}},{"type":"Feature","properties":{"ListEntry":1173035,"Name":"BARN ADJOINING ENTRANCE TO CAR PARK","Grade":"II","ListDate":83980800000,"AmendDate":475804800000,"CaptureScale":"1:2500","hyperlink":"https://historicengland.org.uk/listing/the-list/list-entry/1173035","NGR":"ST 43005 54480","Easting":343005,"Northing":154480},"geometry":{"type":"MultiPoint","coordinates":[[-2.81866,51.28659]]}},{"type":"Feature","properties":{"ListEntry":1173055,"Name":"FORECOURT WALL, PIERS AND GATES TO THE COURT HOUSE","Grade":"II","ListDate":-280627200000,"AmendDate":475804800000,"CaptureScale":"1:2500","hyperlink":"https://historicengland.org.uk/listing/the-list/list-entry/1173055","NGR":"ST 43164 54547","Easting":343164,"Northing":154547},"geometry":{"type":"MultiPoint","coordinates":[[-2.8164,51.2872]]}},{"type":"Feature","properties":{"ListEntry":1173097,"Name":"THE COTTAGE","Grade":"II","ListDate":475804800000,"CaptureScale":"1:2500","hyperlink":"https://historicengland.org.uk/listing/the-list/list-entry/1173097","NGR":"ST 43196 54554","Easting":343196,"Northing":154555},"geometry":{"type":"MultiPoint","coordinates":[[-2.81594,51.28727]]}},{"type":"Feature","properties":{"ListEntry":1173098,"Name":"MORECAMBE HOUSE","Grade":"II","ListDate":475804800000,"CaptureScale":"1:2500","hyperlink":"https://historicengland.org.uk/listing/the-list/list-entry/1173098","NGR":"ST 43168 54558","Easting":343168,"Northing":154558},"geometry":{"type":"MultiPoint","coordinates":[[-2.81633,51.2873]]}},{"type":"Feature","properties":{"ListEntry":1173099,"Name":"PETHERS COTTAGE THE GREY HOUSE","Grade":"II","ListDate":-280627200000,"AmendDate":475804800000,"CaptureScale":"1:2500","hyperlink":"https://historicengland.org.uk/listing/the-list/list-entry/1173099","NGR":"ST 43136 54577","Easting":343136,"Northing":154577},"geometry":{"type":"MultiPoint","coordinates":[[-2.81679,51.28747]]}},{"type":"Feature","properties":{"ListEntry":1173117,"Name":"CHURCH OF ST JOHN THE BAPTIST","Grade":"I","ListDate":-280627200000,"CaptureScale":"1:1250","hyperlink":"https://historicengland.org.uk/listing/the-list/list-entry/1173117","NGR":"ST 43151 54608","Easting":343151,"Northing":154608},"geometry":{"type":"MultiPoint","coordinates":[[-2.81659,51.28775]]}},{"type":"Feature","properties":{"ListEntry":1173293,"Name":"6, WEST STREET","Grade":"II","ListDate":-280627200000,"AmendDate":475804800000,"CaptureScale":"1:2500","hyperlink":"https://historicengland.org.uk/listing/the-list/list-entry/1173293","NGR":"ST 42915 54616","Easting":342915,"Northing":154616},"geometry":{"type":"MultiPoint","coordinates":[[-2.81997,51.2878]]}},{"type":"Feature","properties":{"ListEntry":1173298,"Name":"BREAN HOUSE","Grade":"II","ListDate":-280627200000,"AmendDate":475804800000,"CaptureScale":"1:2500","hyperlink":"https://historicengland.org.uk/listing/the-list/list-entry/1173298","NGR":"ST 42859 54612","Easting":342859,"Northing":154612},"geometry":{"type":"MultiPoint","coordinates":[[-2.82078,51.28776]]}},{"type":"Feature","properties":{"ListEntry":1173317,"Name":"32, WEST STREET","Grade":"II","ListDate":-280627200000,"AmendDate":475804800000,"CaptureScale":"1:2500","hyperlink":"https://historicengland.org.uk/listing/the-list/list-entry/1173317","NGR":"ST 42778 54619","Easting":342778,"Northing":154619},"geometry":{"type":"MultiPoint","coordinates":[[-2.82194,51.28781]]}},{"type":"Feature","properties":{"ListEntry":1173344,"Name":"50, WEST STREET","Grade":"II","ListDate":475804800000,"CaptureScale":"1:2500","hyperlink":"https://historicengland.org.uk/listing/the-list/list-entry/1173344","NGR":"ST 42698 54623","Easting":342698,"Northing":154623},"geometry":{"type":"MultiPoint","coordinates":[[-2.82309,51.28784]]}},{"type":"Feature","properties":{"ListEntry":1173369,"Name":"SHERIDON HOUSE","Grade":"II","ListDate":475804800000,"CaptureScale":"1:2500","hyperlink":"https://historicengland.org.uk/listing/the-list/list-entry/1173369","NGR":"ST 42867 54595","Easting":342867,"Northing":154596},"geometry":{"type":"MultiPoint","coordinates":[[-2.82066,51.28761]]}},{"type":"Feature","properties":{"ListEntry":1173377,"Name":"15, WEST STREET","Grade":"II","ListDate":475804800000,"CaptureScale":"1:2500","hyperlink":"https://historicengland.org.uk/listing/the-list/list-entry/1173377","NGR":"ST 42846 54596","Easting":342846,"Northing":154597},"geometry":{"type":"MultiPoint","coordinates":[[-2.82096,51.28761]]}},{"type":"Feature","properties":{"ListEntry":1173392,"Name":"45, WEST STREET","Grade":"II","ListDate":475804800000,"CaptureScale":"1:2500","hyperlink":"https://historicengland.org.uk/listing/the-list/list-entry/1173392","NGR":"ST 42740 54602","Easting":342740,"Northing":154602},"geometry":{"type":"MultiPoint","coordinates":[[-2.82249,51.28765]]}},{"type":"Feature","properties":{"ListEntry":1173405,"Name":"COMPTON HOUSE AND FORECOURT RAILINGS","Grade":"II*","ListDate":-280627200000,"CaptureScale":"1:2500","hyperlink":"https://historicengland.org.uk/listing/the-list/list-entry/1173405","NGR":"ST 42639 54619","Easting":342639,"Northing":154619},"geometry":{"type":"MultiPoint","coordinates":[[-2.82393,51.2878]]}},{"type":"Feature","properties":{"ListEntry":1173678,"Name":"HOBBSWELL, FORECOURT WALL, GATE PIERS AND GARDEN ROOM","Grade":"II","ListDate":475804800000,"CaptureScale":"1:2500","hyperlink":"https://historicengland.org.uk/listing/the-list/list-entry/1173678","NGR":"ST 45641 54058","Easting":345641,"Northing":154058},"geometry":{"type":"MultiPoint","coordinates":[[-2.7808,51.28305]]}},{"type":"Feature","properties":{"ListEntry":1173724,"Name":"MILLCOURT","Grade":"II","ListDate":475804800000,"CaptureScale":"1:2500","hyperlink":"https://historicengland.org.uk/listing/the-list/list-entry/1173724","NGR":"ST 46193 53601","Easting":346193,"Northing":153601},"geometry":{"type":"MultiPoint","coordinates":[[-2.77282,51.27899]]}},{"type":"Feature","properties":{"ListEntry":1173818,"Name":"TRAP LAMP COTTAGE","Grade":"II","ListDate":475804800000,"CaptureScale":"1:2500","hyperlink":"https://historicengland.org.uk/listing/the-list/list-entry/1173818","NGR":"ST 41710 54762","Easting":341710,"Northing":154762},"geometry":{"type":"MultiPoint","coordinates":[[-2.83728,51.28899]]}},{"type":"Feature","properties":{"ListEntry":1173867,"Name":"THE MANOR","Grade":"II","ListDate":475804800000,"CaptureScale":"1:2500","hyperlink":"https://historicengland.org.uk/listing/the-list/list-entry/1173867","NGR":"ST 44285 57401","Easting":344285,"Northing":157401},"geometry":{"type":"MultiPoint","coordinates":[[-2.80077,51.31298]]}},{"type":"Feature","properties":{"ListEntry":1173932,"Name":"CHURCH OF ST LEONARD","Grade":"II","ListDate":-280627200000,"CaptureScale":"1:2500","hyperlink":"https://historicengland.org.uk/listing/the-list/list-entry/1173932","NGR":"ST 44312 57425","Easting":344312,"Northing":157425},"geometry":{"type":"MultiPoint","coordinates":[[-2.80038,51.31319]]}},{"type":"Feature","properties":{"ListEntry":1229669,"Name":"HALE FARMHOUSE","Grade":"II","ListDate":612748800000,"CaptureScale":"1:2500","hyperlink":"https://historicengland.org.uk/listing/the-list/list-entry/1229669","NGR":"ST 42497 56398","Easting":342497,"Northing":156398},"geometry":{"type":"MultiPoint","coordinates":[[-2.82626,51.30378]]}},{"type":"Feature","properties":{"ListEntry":1229670,"Name":"THE HALL","Grade":"II","ListDate":741398400000,"CaptureScale":"1:2500","hyperlink":"https://historicengland.org.uk/listing/the-list/list-entry/1229670","NGR":"ST 41818 56075","Easting":341818,"Northing":156075},"geometry":{"type":"MultiPoint","coordinates":[[-2.83594,51.30081]]}},{"type":"Feature","properties":{"ListEntry":1236110,"Name":"BURRINGTON HOUSE","Grade":"II","ListDate":698889600000,"CaptureScale":"1:2500","hyperlink":"https://historicengland.org.uk/listing/the-list/list-entry/1236110","NGR":"ST 47891 59296","Easting":347891,"Northing":159296},"geometry":{"type":"MultiPoint","coordinates":[[-2.74931,51.33035]]}},{"type":"Feature","properties":{"ListEntry":1264763,"Name":"SPRINGHEAD FARMHOUSE","Grade":"II","ListDate":755395200000,"CaptureScale":"1:2500","hyperlink":"https://historicengland.org.uk/listing/the-list/list-entry/1264763","NGR":"ST 46582 59329","Easting":346582,"Northing":159329},"geometry":{"type":"MultiPoint","coordinates":[[-2.7681,51.33053]]}},{"type":"Feature","properties":{"ListEntry":1268309,"Name":"KITCHEN GARDEN ENCLOSURE WALLS AND HEATED WALL, BLAGDON WATER GARDEN CENTRE","Grade":"II","ListDate":841708800000,"AmendDate":1263254400000,"CaptureScale":"1:2500","hyperlink":"https://historicengland.org.uk/listing/the-list/list-entry/1268309","NGR":"ST 46572 59605","Easting":346572,"Northing":159605},"geometry":{"type":"MultiPoint","coordinates":[[-2.76829,51.33301]]}},{"type":"Feature","properties":{"ListEntry":1296019,"Name":"CHURCH OF ST MICHAEL AND ALL ANGELS","Grade":"II*","ListDate":-280627200000,"CaptureScale":"1:2500","hyperlink":"https://historicengland.org.uk/listing/the-list/list-entry/1296019","NGR":"ST 44941 58624","Easting":344941,"Northing":158624},"geometry":{"type":"MultiPoint","coordinates":[[-2.79155,51.32404]]}},{"type":"Feature","properties":{"ListEntry":1296025,"Name":"CALAMINE PROCESSOR AT NGR ST 4439 5739","Grade":"II","ListDate":475804800000,"CaptureScale":"1:2500","hyperlink":"https://historicengland.org.uk/listing/the-list/list-entry/1296025","NGR":"ST 44390 57390","Easting":344390,"Northing":157390},"geometry":{"type":"MultiPoint","coordinates":[[-2.79926,51.31289]]}},{"type":"Feature","properties":{"ListEntry":1296031,"Name":"BOWYER HOUSE","Grade":"II","ListDate":-280627200000,"CaptureScale":"1:2500","hyperlink":"https://historicengland.org.uk/listing/the-list/list-entry/1296031","NGR":"ST 41870 54820","Easting":341870,"Northing":154820},"geometry":{"type":"MultiPoint","coordinates":[[-2.835,51.28952]]}},{"type":"Feature","properties":{"ListEntry":1296032,"Name":"BREWERY FARMHOUSE","Grade":"II","ListDate":475804800000,"CaptureScale":"1:2500","hyperlink":"https://historicengland.org.uk/listing/the-list/list-entry/1296032","NGR":"ST 41198 54691","Easting":341198,"Northing":154691},"geometry":{"type":"MultiPoint","coordinates":[[-2.84461,51.2883]]}},{"type":"Feature","properties":{"ListEntry":1296048,"Name":"MILESTONE AT NGR ST 4356 5814","Grade":"II","ListDate":475804800000,"CaptureScale":"1:2500","hyperlink":"https://historicengland.org.uk/listing/the-list/list-entry/1296048","NGR":"ST 43560 58126","Easting":343560,"Northing":158127},"geometry":{"type":"MultiPoint","coordinates":[[-2.81128,51.31942]]}},{"type":"Feature","properties":{"ListEntry":1296074,"Name":"CHEDDAR POTTERY","Grade":"II","ListDate":475804800000,"CaptureScale":"1:2500","hyperlink":"https://historicengland.org.uk/listing/the-list/list-entry/1296074","NGR":"ST 46588 53938","Easting":346588,"Northing":153938},"geometry":{"type":"MultiPoint","coordinates":[[-2.76721,51.28206]]}},{"type":"Feature","properties":{"ListEntry":1296254,"Name":"WESTEND","Grade":"II","ListDate":475804800000,"CaptureScale":"1:2500","hyperlink":"https://historicengland.org.uk/listing/the-list/list-entry/1296254","NGR":"ST 42779 54601","Easting":342779,"Northing":154602},"geometry":{"type":"MultiPoint","coordinates":[[-2.82192,51.28765]]}},{"type":"Feature","properties":{"ListEntry":1296271,"Name":"42, WEST STREET","Grade":"II","ListDate":475804800000,"CaptureScale":"1:2500","hyperlink":"https://historicengland.org.uk/listing/the-list/list-entry/1296271","NGR":"ST 42732 54617","Easting":342732,"Northing":154617},"geometry":{"type":"MultiPoint","coordinates":[[-2.8226,51.28779]]}},{"type":"Feature","properties":{"ListEntry":1296277,"Name":"5, WEST STREET","Grade":"II","ListDate":475804800000,"CaptureScale":"1:2500","hyperlink":"https://historicengland.org.uk/listing/the-list/list-entry/1296277","NGR":"ST 42908 54591","Easting":342908,"Northing":154592},"geometry":{"type":"MultiPoint","coordinates":[[-2.82007,51.28758]]}},{"type":"Feature","properties":{"ListEntry":1296297,"Name":"22, WEST STREET","Grade":"II","ListDate":475804800000,"CaptureScale":"1:2500","hyperlink":"https://historicengland.org.uk/listing/the-list/list-entry/1296297","NGR":"ST 42823 54613","Easting":342823,"Northing":154613},"geometry":{"type":"MultiPoint","coordinates":[[-2.82129,51.28776]]}},{"type":"Feature","properties":{"ListEntry":1296300,"Name":"CLARCOMBE","Grade":"II","ListDate":-280886400000,"AmendDate":475804800000,"CaptureScale":"1:2500","hyperlink":"https://historicengland.org.uk/listing/the-list/list-entry/1296300","NGR":"ST 42794 54619","Easting":342794,"Northing":154619},"geometry":{"type":"MultiPoint","coordinates":[[-2.82171,51.28781]]}},{"type":"Feature","properties":{"ListEntry":1296312,"Name":"THE STUDIO","Grade":"II","ListDate":475804800000,"CaptureScale":"1:2500","hyperlink":"https://historicengland.org.uk/listing/the-list/list-entry/1296312","NGR":"ST 43119 54532","Easting":343119,"Northing":154532},"geometry":{"type":"MultiPoint","coordinates":[[-2.81704,51.28707]]}},{"type":"Feature","properties":{"ListEntry":1296320,"Name":"YE OLD MARKET SHOPPE","Grade":"II","ListDate":-280627200000,"CaptureScale":"1:2500","hyperlink":"https://historicengland.org.uk/listing/the-list/list-entry/1296320","NGR":"ST 43125 54535","Easting":343125,"Northing":154535},"geometry":{"type":"MultiPoint","coordinates":[[-2.81696,51.28709]]}},{"type":"Feature","properties":{"ListEntry":1296386,"Name":"MENDIP VIEW","Grade":"II","ListDate":475804800000,"CaptureScale":"1:2500","hyperlink":"https://historicengland.org.uk/listing/the-list/list-entry/1296386","NGR":"ST 43155 54543","Easting":343155,"Northing":154543},"geometry":{"type":"MultiPoint","coordinates":[[-2.81653,51.28716]]}},{"type":"Feature","properties":{"ListEntry":1296388,"Name":"STANLEY HOUSE","Grade":"II","ListDate":475804800000,"CaptureScale":"1:2500","hyperlink":"https://historicengland.org.uk/listing/the-list/list-entry/1296388","NGR":"ST 43208 54532","Easting":343208,"Northing":154532},"geometry":{"type":"MultiPoint","coordinates":[[-2.81577,51.28707]]}},{"type":"Feature","properties":{"ListEntry":1296471,"Name":"Myrtle House","Grade":"II","ListDate":-280627200000,"AmendDate":475804800000,"CaptureScale":"1:2500","hyperlink":"https://historicengland.org.uk/listing/the-list/list-entry/1296471","NGR":"ST 42983 54577","Easting":342983,"Northing":154578},"geometry":{"type":"MultiPoint","coordinates":[[-2.819,51.28746]]}},{"type":"Feature","properties":{"ListEntry":1311687,"Name":"MAYSMEAD PLACE","Grade":"II","ListDate":538012800000,"CaptureScale":"1:2500","hyperlink":"https://historicengland.org.uk/listing/the-list/list-entry/1311687","NGR":"ST 46133 60973","Easting":346133,"Northing":160973},"geometry":{"type":"MultiPoint","coordinates":[[-2.7748,51.34527]]}},{"type":"Feature","properties":{"ListEntry":1311718,"Name":"ST MARY'S AND BOUNDARY RAILINGS AND GATES","Grade":"II","ListDate":538012800000,"CaptureScale":"1:2500","hyperlink":"https://historicengland.org.uk/listing/the-list/list-entry/1311718","NGR":"ST 46221 60674","Easting":346221,"Northing":160675},"geometry":{"type":"MultiPoint","coordinates":[[-2.77349,51.34259]]}},{"type":"Feature","properties":{"ListEntry":1311746,"Name":"THE OLD COURTHOUSE","Grade":"II","ListDate":-280627200000,"CaptureScale":"1:2500","hyperlink":"https://historicengland.org.uk/listing/the-list/list-entry/1311746","NGR":"ST 45840 59522","Easting":345840,"Northing":159522},"geometry":{"type":"MultiPoint","coordinates":[[-2.77878,51.3322]]}},{"type":"Feature","properties":{"ListEntry":1311756,"Name":"THE COTTAGE","Grade":"II","ListDate":522720000000,"CaptureScale":"1:2500","hyperlink":"https://historicengland.org.uk/listing/the-list/list-entry/1311756","NGR":"ST 43774 60224","Easting":343774,"Northing":160224},"geometry":{"type":"MultiPoint","coordinates":[[-2.80854,51.33831]]}},{"type":"Feature","properties":{"ListEntry":1311800,"Name":"MILL HOUSE","Grade":"II","ListDate":538012800000,"CaptureScale":"1:2500","hyperlink":"https://historicengland.org.uk/listing/the-list/list-entry/1311800","NGR":"ST4870059302","Easting":348700,"Northing":159302},"geometry":{"type":"MultiPoint","coordinates":[[-2.7377,51.33048]]}},{"type":"Feature","properties":{"ListEntry":1311809,"Name":"CHURCHYARD CROSS IN CHURCHYARD EAST OF CHURCH OF HOLY TRINITY","Grade":"II","ListDate":538012800000,"CaptureScale":"1:2500","hyperlink":"https://historicengland.org.uk/listing/the-list/list-entry/1311809","NGR":"ST 47894 59336","Easting":347894,"Northing":159336},"geometry":{"type":"MultiPoint","coordinates":[[-2.74927,51.33072]]}},{"type":"Feature","properties":{"ListEntry":1311812,"Name":"LANGFORD COURT","Grade":"II","ListDate":538012800000,"CaptureScale":"1:2500","hyperlink":"https://historicengland.org.uk/listing/the-list/list-entry/1311812","NGR":"ST 46984 60124","Easting":346984,"Northing":160124},"geometry":{"type":"MultiPoint","coordinates":[[-2.76245,51.33772]]}},{"type":"Feature","properties":{"ListEntry":1312580,"Name":"THE STATION HOUSE AT FORMER SANDFORD STATION","Grade":"II","ListDate":419731200000,"CaptureScale":"1:2500","hyperlink":"https://historicengland.org.uk/listing/the-list/list-entry/1312580","NGR":"ST 41676 59450","Easting":341676,"Northing":159450},"geometry":{"type":"MultiPoint","coordinates":[[-2.83853,51.33114]]}},{"type":"Feature","properties":{"ListEntry":1312610,"Name":"MYRTLE FARMHOUSE","Grade":"II","ListDate":419731200000,"CaptureScale":"1:2500","hyperlink":"https://historicengland.org.uk/listing/the-list/list-entry/1312610","NGR":"ST 42140 59619","Easting":342140,"Northing":159619},"geometry":{"type":"MultiPoint","coordinates":[[-2.8319,51.3327]]}},{"type":"Feature","properties":{"ListEntry":1312615,"Name":"BLOCK HOUSE TO FORMER SANDFORD STATION","Grade":"II","ListDate":419731200000,"CaptureScale":"1:2500","hyperlink":"https://historicengland.org.uk/listing/the-list/list-entry/1312615","NGR":"ST 41622 59541","Easting":341622,"Northing":159541},"geometry":{"type":"MultiPoint","coordinates":[[-2.83932,51.33195]]}},{"type":"Feature","properties":{"ListEntry":1312631,"Name":"POOL FARMHOUSE","Grade":"II","ListDate":-280627200000,"CaptureScale":"1:2500","hyperlink":"https://historicengland.org.uk/listing/the-list/list-entry/1312631","NGR":"ST 42900 59677","Easting":342900,"Northing":159677},"geometry":{"type":"MultiPoint","coordinates":[[-2.821,51.3333]]}},{"type":"Feature","properties":{"ListEntry":1320684,"Name":"CHURCH OF ST JAMES","Grade":"I","ListDate":-280627200000,"CaptureScale":"Unknown","hyperlink":"https://historicengland.org.uk/listing/the-list/list-entry/1320684","NGR":"ST 41152 56653","Easting":341152,"Northing":156653},"geometry":{"type":"MultiPoint","coordinates":[[-2.84559,51.30593]]}},{"type":"Feature","properties":{"ListEntry":1320685,"Name":"OLD VICARAGE","Grade":"II","ListDate":419731200000,"CaptureScale":"1:2500","hyperlink":"https://historicengland.org.uk/listing/the-list/list-entry/1320685","NGR":"ST 41203 56620","Easting":341203,"Northing":156620},"geometry":{"type":"MultiPoint","coordinates":[[-2.84485,51.30564]]}},{"type":"Feature","properties":{"ListEntry":1320686,"Name":"WESLEYAN CHAPEL, RETAINING WALL, RAILINGS AND GATE","Grade":"II","ListDate":419731200000,"CaptureScale":"1:2500","hyperlink":"https://historicengland.org.uk/listing/the-list/list-entry/1320686","NGR":"ST 42004 59284","Easting":342004,"Northing":159284},"geometry":{"type":"MultiPoint","coordinates":[[-2.8338,51.32968]]}},{"type":"Feature","properties":{"ListEntry":1320687,"Name":"CHURCH OF ALL SAINTS","Grade":"II","ListDate":419731200000,"CaptureScale":"1:2500","hyperlink":"https://historicengland.org.uk/listing/the-list/list-entry/1320687","NGR":"ST 42180 59574","Easting":342180,"Northing":159574},"geometry":{"type":"MultiPoint","coordinates":[[-2.83132,51.3323]]}},{"type":"Feature","properties":{"ListEntry":1320688,"Name":"Rose Cottage","Grade":"II","ListDate":419731200000,"CaptureScale":"1:2500","hyperlink":"https://historicengland.org.uk/listing/the-list/list-entry/1320688","NGR":"ST 42887 57403","Easting":342887,"Northing":157403},"geometry":{"type":"MultiPoint","coordinates":[[-2.82082,51.31286]]}},{"type":"Feature","properties":{"ListEntry":1320689,"Name":"WEST LODGE","Grade":"II","ListDate":419731200000,"CaptureScale":"1:2500","hyperlink":"https://historicengland.org.uk/listing/the-list/list-entry/1320689","NGR":"ST 41565 56315","Easting":341565,"Northing":156315},"geometry":{"type":"MultiPoint","coordinates":[[-2.83961,51.30294]]}},{"type":"Feature","properties":{"ListEntry":1320910,"Name":"Victoria Jubilee Langford Homes","Grade":"II","ListDate":538012800000,"CaptureScale":"1:2500","hyperlink":"https://historicengland.org.uk/listing/the-list/list-entry/1320910","NGR":"ST 46312 60705","Easting":346312,"Northing":160705},"geometry":{"type":"MultiPoint","coordinates":[[-2.77219,51.34287]]}},{"type":"Feature","properties":{"ListEntry":1320938,"Name":"MASONIC LODGE","Grade":"II","ListDate":538012800000,"CaptureScale":"1:2500","hyperlink":"https://historicengland.org.uk/listing/the-list/list-entry/1320938","NGR":"ST4872859269","Easting":348728,"Northing":159269},"geometry":{"type":"MultiPoint","coordinates":[[-2.73729,51.33019]]}},{"type":"Feature","properties":{"ListEntry":1320940,"Name":"TWO MONUMENTS TO INMAN AND DYER FAMILIES IN CHURCHYARD, 2 METRES EAST OF CHANCEL, CHURCH OF HOLY TRINITY","Grade":"II","ListDate":538012800000,"CaptureScale":"1:2500","hyperlink":"https://historicengland.org.uk/listing/the-list/list-entry/1320940","NGR":"ST 47884 59338","Easting":347884,"Northing":159338},"geometry":{"type":"MultiPoint","coordinates":[[-2.74942,51.33073]]}},{"type":"Feature","properties":{"ListEntry":1320941,"Name":"HYLSBROKE","Grade":"II","ListDate":538012800000,"CaptureScale":"1:2500","hyperlink":"https://historicengland.org.uk/listing/the-list/list-entry/1320941","NGR":"ST 46499 60435","Easting":346499,"Northing":160435},"geometry":{"type":"MultiPoint","coordinates":[[-2.76946,51.34047]]}},{"type":"Feature","properties":{"ListEntry":1320944,"Name":"TURNPIKE TRUST MILE MARKER","Grade":"II","ListDate":538012800000,"CaptureScale":"1:2500","hyperlink":"https://historicengland.org.uk/listing/the-list/list-entry/1320944","NGR":"ST 45440 60290","Easting":345440,"Northing":160290},"geometry":{"type":"MultiPoint","coordinates":[[-2.78464,51.33906]]}},{"type":"Feature","properties":{"ListEntry":1320945,"Name":"CHURCHILL COURT","Grade":"II","ListDate":-280627200000,"CaptureScale":"1:2500","hyperlink":"https://historicengland.org.uk/listing/the-list/list-entry/1320945","NGR":"ST 43685 60191","Easting":343685,"Northing":160192},"geometry":{"type":"MultiPoint","coordinates":[[-2.80982,51.338]]}},{"type":"Feature","properties":{"ListEntry":1320946,"Name":"ASH GREEN","Grade":"II","ListDate":538012800000,"CaptureScale":"1:2500","hyperlink":"https://historicengland.org.uk/listing/the-list/list-entry/1320946","NGR":"ST 44180 59877","Easting":344180,"Northing":159877},"geometry":{"type":"MultiPoint","coordinates":[[-2.80266,51.33523]]}},{"type":"Feature","properties":{"ListEntry":1320947,"Name":"MATRON'S HOUSE AT SIDNEY HILL COTTAGE HOMES","Grade":"II","ListDate":538012800000,"CaptureScale":"1:2500","hyperlink":"https://historicengland.org.uk/listing/the-list/list-entry/1320947","NGR":"ST 44000 59917","Easting":344000,"Northing":159917},"geometry":{"type":"MultiPoint","coordinates":[[-2.80525,51.33557]]}},{"type":"Feature","properties":{"ListEntry":1344857,"Name":"22, HIGH STREET","Grade":"II","ListDate":475804800000,"CaptureScale":"1:2500","hyperlink":"https://historicengland.org.uk/listing/the-list/list-entry/1344857","NGR":"ST 43007 54577","Easting":343007,"Northing":154578},"geometry":{"type":"MultiPoint","coordinates":[[-2.81865,51.28746]]}},{"type":"Feature","properties":{"ListEntry":1344858,"Name":"THE AXBRIDGE LION","Grade":"II","ListDate":475804800000,"CaptureScale":"1:2500","hyperlink":"https://historicengland.org.uk/listing/the-list/list-entry/1344858","NGR":"ST 42955 54613","Easting":342955,"Northing":154613},"geometry":{"type":"MultiPoint","coordinates":[[-2.81941,51.28778]]}},{"type":"Feature","properties":{"ListEntry":1344859,"Name":"THE COURT HOUSE","Grade":"II","ListDate":-280627200000,"AmendDate":475804800000,"CaptureScale":"1:2500","hyperlink":"https://historicengland.org.uk/listing/the-list/list-entry/1344859","NGR":"ST 43171 54514","Easting":343171,"Northing":154514},"geometry":{"type":"MultiPoint","coordinates":[[-2.81629,51.28691]]}},{"type":"Feature","properties":{"ListEntry":1344860,"Name":"PARK HOUSE AND FORECOURT RAILINGS","Grade":"II","ListDate":475804800000,"CaptureScale":"1:2500","hyperlink":"https://historicengland.org.uk/listing/the-list/list-entry/1344860","NGR":"ST 43260 54526","Easting":343260,"Northing":154526},"geometry":{"type":"MultiPoint","coordinates":[[-2.81502,51.28703]]}},{"type":"Feature","properties":{"ListEntry":1344861,"Name":"BROOKS HOUSE MARICOURT","Grade":"II","ListDate":475804800000,"CaptureScale":"1:2500","hyperlink":"https://historicengland.org.uk/listing/the-list/list-entry/1344861","NGR":"ST 43189 54555","Easting":343189,"Northing":154555},"geometry":{"type":"MultiPoint","coordinates":[[-2.81604,51.28728]]}},{"type":"Feature","properties":{"ListEntry":1344862,"Name":"THE OAK HOTEL AND RESTAURANT","Grade":"II","ListDate":475804800000,"CaptureScale":"1:2500","hyperlink":"https://historicengland.org.uk/listing/the-list/list-entry/1344862","NGR":"ST 43139 54563","Easting":343139,"Northing":154563},"geometry":{"type":"MultiPoint","coordinates":[[-2.81675,51.28734]]}},{"type":"Feature","properties":{"ListEntry":1344880,"Name":"CHESTNUT FARMHOUSE","Grade":"II","ListDate":475804800000,"CaptureScale":"1:2500","hyperlink":"https://historicengland.org.uk/listing/the-list/list-entry/1344880","NGR":"ST 45653 53972","Easting":345653,"Northing":153972},"geometry":{"type":"MultiPoint","coordinates":[[-2.78062,51.28228]]}},{"type":"Feature","properties":{"ListEntry":1344882,"Name":"CHURCH ROOMS TO SOUTH, CHURCH OF ST JOHN THE BAPTIST","Grade":"II","ListDate":475804800000,"CaptureScale":"1:2500","hyperlink":"https://historicengland.org.uk/listing/the-list/list-entry/1344882","NGR":"ST 43148 54586","Easting":343148,"Northing":154586},"geometry":{"type":"MultiPoint","coordinates":[[-2.81663,51.28755]]}},{"type":"Feature","properties":{"ListEntry":1344883,"Name":"THE OLD ANGEL","Grade":"II*","ListDate":-280627200000,"AmendDate":475804800000,"CaptureScale":"1:2500","hyperlink":"https://historicengland.org.uk/listing/the-list/list-entry/1344883","NGR":"ST 43104 54577","Easting":343104,"Northing":154577},"geometry":{"type":"MultiPoint","coordinates":[[-2.81726,51.28747]]}},{"type":"Feature","properties":{"ListEntry":1344884,"Name":"The Stores and The Lamb Inn, incorporating an entrance to the Corner House","Grade":"II","ListDate":-280627200000,"CaptureScale":"1:2500","hyperlink":"https://historicengland.org.uk/listing/the-list/list-entry/1344884","NGR":"ST 43078 54561","Easting":343078,"Northing":154562},"geometry":{"type":"MultiPoint","coordinates":[[-2.81762,51.28732]]}},{"type":"Feature","properties":{"ListEntry":1344885,"Name":"THE CORNER HOUSE","Grade":"II","ListDate":-280627200000,"AmendDate":475804800000,"CaptureScale":"1:2500","hyperlink":"https://historicengland.org.uk/listing/the-list/list-entry/1344885","NGR":"ST 43068 54553","Easting":343068,"Northing":154553},"geometry":{"type":"MultiPoint","coordinates":[[-2.81777,51.28725]]}},{"type":"Feature","properties":{"ListEntry":1344886,"Name":"TOWN HALL","Grade":"II","ListDate":-280627200000,"CaptureScale":"1:2500","hyperlink":"https://historicengland.org.uk/listing/the-list/list-entry/1344886","NGR":"ST 43132 54536","Easting":343132,"Northing":154537},"geometry":{"type":"MultiPoint","coordinates":[[-2.81686,51.2871]]}},{"type":"Feature","properties":{"ListEntry":1344887,"Name":"ARUNDEL HOUSE","Grade":"II","ListDate":475804800000,"CaptureScale":"1:2500","hyperlink":"https://historicengland.org.uk/listing/the-list/list-entry/1344887","NGR":"ST 42896 54610","Easting":342896,"Northing":154610},"geometry":{"type":"MultiPoint","coordinates":[[-2.82024,51.28774]]}},{"type":"Feature","properties":{"ListEntry":1344888,"Name":"LEYLAND HOUSE","Grade":"II","ListDate":475804800000,"CaptureScale":"1:2500","hyperlink":"https://historicengland.org.uk/listing/the-list/list-entry/1344888","NGR":"ST 42806 54616","Easting":342806,"Northing":154617},"geometry":{"type":"MultiPoint","coordinates":[[-2.82155,51.28779]]}},{"type":"Feature","properties":{"ListEntry":1344889,"Name":"40, WEST STREET","Grade":"II","ListDate":475804800000,"CaptureScale":"1:2500","hyperlink":"https://historicengland.org.uk/listing/the-list/list-entry/1344889","NGR":"ST 42745 54614","Easting":342745,"Northing":154615},"geometry":{"type":"MultiPoint","coordinates":[[-2.82242,51.28777]]}},{"type":"Feature","properties":{"ListEntry":1344890,"Name":"METHODIST CHURCH","Grade":"II","ListDate":475804800000,"CaptureScale":"1:2500","hyperlink":"https://historicengland.org.uk/listing/the-list/list-entry/1344890","NGR":"ST 42894 54578","Easting":342894,"Northing":154578},"geometry":{"type":"MultiPoint","coordinates":[[-2.82027,51.28746]]}},{"type":"Feature","properties":{"ListEntry":1344891,"Name":"THE OLD SHERIFFS OFFICE","Grade":"II","ListDate":475804800000,"CaptureScale":"1:2500","hyperlink":"https://historicengland.org.uk/listing/the-list/list-entry/1344891","NGR":"ST 42855 54595","Easting":342855,"Northing":154595},"geometry":{"type":"MultiPoint","coordinates":[[-2.82083,51.2876]]}},{"type":"Feature","properties":{"ListEntry":1344892,"Name":"43, WEST STREET","Grade":"II","ListDate":475804800000,"CaptureScale":"1:2500","hyperlink":"https://historicengland.org.uk/listing/the-list/list-entry/1344892","NGR":"ST 42748 54600","Easting":342748,"Northing":154600},"geometry":{"type":"MultiPoint","coordinates":[[-2.82237,51.28764]]}},{"type":"Feature","properties":{"ListEntry":1344893,"Name":"9, HIGH STREET","Grade":"II*","ListDate":-280627200000,"AmendDate":475804800000,"CaptureScale":"1:2500","hyperlink":"https://historicengland.org.uk/listing/the-list/list-entry/1344893","NGR":"ST 43051 54532","Easting":343051,"Northing":154532},"geometry":{"type":"MultiPoint","coordinates":[[-2.81801,51.28706]]}},{"type":"Feature","properties":{"ListEntry":1344894,"Name":"ST JUDES","Grade":"II*","ListDate":-280627200000,"CaptureScale":"1:2500","hyperlink":"https://historicengland.org.uk/listing/the-list/list-entry/1344894","NGR":"ST 43022 54544","Easting":343022,"Northing":154544},"geometry":{"type":"MultiPoint","coordinates":[[-2.81843,51.28716]]}},{"type":"Feature","properties":{"ListEntry":1344895,"Name":"21, HIGH STREET","Grade":"II","ListDate":475804800000,"CaptureScale":"1:2500","hyperlink":"https://historicengland.org.uk/listing/the-list/list-entry/1344895","NGR":"ST 43000 54558","Easting":343000,"Northing":154559},"geometry":{"type":"MultiPoint","coordinates":[[-2.81875,51.28729]]}},{"type":"Feature","properties":{"ListEntry":1344896,"Name":"29, HIGH STREET","Grade":"II","ListDate":475804800000,"CaptureScale":"1:2500","hyperlink":"https://historicengland.org.uk/listing/the-list/list-entry/1344896","NGR":"ST 42974 54582","Easting":342974,"Northing":154582},"geometry":{"type":"MultiPoint","coordinates":[[-2.81913,51.2875]]}},{"type":"Feature","properties":{"ListEntry":1344904,"Name":"MANOR FARMHOUSE","Grade":"II","ListDate":-280627200000,"CaptureScale":"1:2500","hyperlink":"https://historicengland.org.uk/listing/the-list/list-entry/1344904","NGR":"ST 41960 54850","Easting":341960,"Northing":154850},"geometry":{"type":"MultiPoint","coordinates":[[-2.83371,51.2898]]}},{"type":"Feature","properties":{"ListEntry":1344905,"Name":"BLAISDON HOUSE","Grade":"II","ListDate":475804800000,"AmendDate":936057600000,"CaptureScale":"1:2500","hyperlink":"https://historicengland.org.uk/listing/the-list/list-entry/1344905","NGR":"ST 41695 54757","Easting":341695,"Northing":154757},"geometry":{"type":"MultiPoint","coordinates":[[-2.83749,51.28894]]}},{"type":"Feature","properties":{"ListEntry":1344906,"Name":"THE WHITE HART INN","Grade":"II","ListDate":-280627200000,"CaptureScale":"1:2500","hyperlink":"https://historicengland.org.uk/listing/the-list/list-entry/1344906","NGR":"ST 41682 54759","Easting":341682,"Northing":154759},"geometry":{"type":"MultiPoint","coordinates":[[-2.83768,51.28896]]}},{"type":"Feature","properties":{"ListEntry":1344907,"Name":"THE LAWN","Grade":"II","ListDate":475804800000,"CaptureScale":"1:2500","hyperlink":"https://historicengland.org.uk/listing/the-list/list-entry/1344907","NGR":"ST 40588 55073","Easting":340588,"Northing":155073},"geometry":{"type":"MultiPoint","coordinates":[[-2.85342,51.29167]]}},{"type":"Feature","properties":{"ListEntry":1344908,"Name":"LITTLE MANOR AND FORECOURT RAILINGS","Grade":"II","ListDate":475804800000,"CaptureScale":"1:2500","hyperlink":"https://historicengland.org.uk/listing/the-list/list-entry/1344908","NGR":"ST 44457 57574","Easting":344457,"Northing":157574},"geometry":{"type":"MultiPoint","coordinates":[[-2.79833,51.31455]]}},{"type":"Feature","properties":{"ListEntry":1344909,"Name":"CHEST TOMB TO AMELIA DAY IN CHURCHYARD, 5 METRES SOUTH OF NAVE, CHURCH OF ST LEONARD","Grade":"II","ListDate":475804800000,"CaptureScale":"1:2500","hyperlink":"https://historicengland.org.uk/listing/the-list/list-entry/1344909","NGR":"ST 44315 57415","Easting":344315,"Northing":157415},"geometry":{"type":"MultiPoint","coordinates":[[-2.80034,51.3131]]}},{"type":"Feature","properties":{"ListEntry":1345129,"Name":"MIDDLE ELLICK FARMHOUSE","Grade":"II","ListDate":-280627200000,"AmendDate":538876800000,"CaptureScale":"1:2500","hyperlink":"https://historicengland.org.uk/listing/the-list/list-entry/1345129","NGR":"ST 49437 57475","Easting":349437,"Northing":157475},"geometry":{"type":"MultiPoint","coordinates":[[-2.72686,51.31412]]}},{"type":"Feature","properties":{"ListEntry":1391032,"Name":"CHURCHILL GREEN FARM","Grade":"II","ListDate":1090195200000,"CaptureScale":"1:2500","hyperlink":"https://historicengland.org.uk/listing/the-list/list-entry/1391032","NGR":"ST4294160191","Easting":342941,"Northing":160191},"geometry":{"type":"MultiPoint","coordinates":[[-2.82049,51.33793]]}},{"type":"Feature","properties":{"ListEntry":1425501,"Name":"St Michael's Cheshire Home (formerly St Michael's Free Home for Consumptives)","Grade":"II*","ListDate":1441369256000,"CaptureScale":"1:2500","hyperlink":"https://historicengland.org.uk/listing/the-list/list-entry/1425501","NGR":"ST4408754808","Easting":344087,"Northing":154800},"geometry":{"type":"MultiPoint","coordinates":[[-2.80319,51.28962]]}},{"type":"Feature","properties":{"ListEntry":1426801,"Name":"Axbridge War Memorial","Grade":"II","ListDate":1433345437000,"CaptureScale":"1:1250","hyperlink":"https://historicengland.org.uk/listing/the-list/list-entry/1426801","NGR":"ST4313154591","Easting":343131,"Northing":154591},"geometry":{"type":"MultiPoint","coordinates":[[-2.81688,51.2876]]}},{"type":"Feature","properties":{"ListEntry":1427858,"Name":"St Michael's Lodge","Grade":"II","ListDate":1441369257000,"CaptureScale":"1:1250","hyperlink":"https://historicengland.org.uk/listing/the-list/list-entry/1427858","NGR":"ST4409754638","Easting":344097,"Northing":154638},"geometry":{"type":"MultiPoint","coordinates":[[-2.80304,51.28812]]}},{"type":"Feature","properties":{"ListEntry":1427859,"Name":"The Parsonage (formerly St Michael's Parsonage)","Grade":"II","ListDate":1441369257000,"CaptureScale":"1:1250","hyperlink":"https://historicengland.org.uk/listing/the-list/list-entry/1427859","NGR":"ST4416754773","Easting":344164,"Northing":154773},"geometry":{"type":"MultiPoint","coordinates":[[-2.8021,51.28932]]}},{"type":"Feature","properties":{"ListEntry":1427863,"Name":"Two late-C19 mortuary chapels, late-C19 cemetery entrance gates and central cross, and an early-C20 laundry building, within the grounds of the former St. Michael’s Cheshire Home","Grade":"II","ListDate":1441369257000,"CaptureScale":"1:1250","hyperlink":"https://historicengland.org.uk/listing/the-list/list-entry/1427863","NGR":"ST4386554899, ST4391554894, ST4405354857, ST4410254829, ST4407254880","Easting":344072,"Northing":154880},"geometry":{"type":"MultiPoint","coordinates":[[-2.80299,51.28983],[-2.80343,51.29029],[-2.80568,51.2904],[-2.80641,51.29044],[-2.8037,51.29008]]}},{"type":"Feature","properties":{"ListEntry":1441614,"Name":"Shipham War Memorial","Grade":"II","ListDate":1486029722000,"CaptureScale":"1:1250","hyperlink":"https://historicengland.org.uk/listing/the-list/list-entry/1441614","NGR":"ST4443557534","Easting":344435,"Northing":157534},"geometry":{"type":"MultiPoint","coordinates":[[-2.79863,51.31419]]}},{"type":"Feature","properties":{"ListEntry":1443671,"Name":"Rowberrow War Memorial","Grade":"II","ListDate":1488196473000,"CaptureScale":"1:1250","hyperlink":"https://historicengland.org.uk/listing/the-list/list-entry/1443671","NGR":"ST4494458612","Easting":344944,"Northing":158612},"geometry":{"type":"MultiPoint","coordinates":[[-2.7915,51.32393]]}}]}