{"type":"FeatureCollection","features":[{"type":"Feature","properties":{"REF_CODE":"1009639","NAME":"CHEDDAR VALLEY RAILWAY WALK","MEASURE":28.599531778568227,"LABEL":"Cheddar Valley Railway Walk (LNR)"},"geometry":{"type":"MultiPolygon","coordinates":[[[[-2.82873,51.34975],[-2.8296,51.34873],[-2.83163,51.3465],[-2.83152,51.34633],[-2.83137,51.34594],[-2.8322,51.34585],[-2.83256,51.34543],[-2.83213,51.34454],[-2.83216,51.34453],[-2.83216,51.34447],[-2.8334,51.34447],[-2.83432,51.34346],[-2.83447,51.34378],[-2.83371,51.34463],[-2.83414,51.34518],[-2.83443,51.34564],[-2.83513,51.3465],[-2.83456,51.34664],[-2.83331,51.34678],[-2.8323,51.34676],[-2.83183,51.34679],[-2.83057,51.34812],[-2.83054,51.34816],[-2.83068,51.34823],[-2.82984,51.34914],[-2.82982,51.34971],[-2.82934,51.34954],[-2.82916,51.34975],[-2.82873,51.34975]]],[[[-2.83277,51.31159],[-2.83206,51.3115],[-2.83231,51.3115],[-2.83291,51.31159],[-2.83174,51.30958],[-2.83133,51.30868],[-2.83098,51.30764],[-2.83072,51.3062],[-2.83067,51.30619],[-2.83059,51.30607],[-2.8306,51.30591],[-2.83069,51.3059],[-2.83068,51.30392],[-2.83062,51.30311],[-2.83038,51.30145],[-2.83067,51.30145],[-2.83069,51.30073],[-2.831,51.30074],[-2.83099,51.30145],[-2.83129,51.30145],[-2.83115,51.30207],[-2.83097,51.30337],[-2.83098,51.30511],[-2.83101,51.30575],[-2.83138,51.30555],[-2.83124,51.30573],[-2.83099,51.30587],[-2.83102,51.30591],[-2.83123,51.3058],[-2.83147,51.30558],[-2.83126,51.30587],[-2.83104,51.30602],[-2.83112,51.30686],[-2.83139,51.30795],[-2.83196,51.30939],[-2.83232,51.31008],[-2.83295,51.31117],[-2.83317,51.31143],[-2.83344,51.31163],[-2.83277,51.31159]]],[[[-2.837,51.32278],[-2.83656,51.32259],[-2.83696,51.32261],[-2.83695,51.32256],[-2.83662,51.32254],[-2.8366,51.32251],[-2.83664,51.32248],[-2.83695,51.32254],[-2.83676,51.32173],[-2.83702,51.32171],[-2.83702,51.32165],[-2.83661,51.32011],[-2.83633,51.32014],[-2.83627,51.31999],[-2.83607,51.31933],[-2.83574,51.31798],[-2.8362,51.31794],[-2.83624,51.31812],[-2.83619,51.31813],[-2.83627,51.31847],[-2.83632,51.31847],[-2.83659,51.31948],[-2.83675,51.32052],[-2.83728,51.32246],[-2.83774,51.32262],[-2.83732,51.32255],[-2.83733,51.32259],[-2.83778,51.32268],[-2.8374,51.32288],[-2.83792,51.32519],[-2.83813,51.32593],[-2.83913,51.33],[-2.8389,51.33009],[-2.83887,51.33009],[-2.83845,51.32854],[-2.83796,51.3266],[-2.83783,51.32629],[-2.83775,51.32576],[-2.83737,51.32426],[-2.83723,51.32355],[-2.83704,51.32279],[-2.837,51.32278]]],[[[-2.83486,51.3144],[-2.83458,51.31376],[-2.83447,51.31378],[-2.83426,51.31341],[-2.83421,51.31337],[-2.83385,51.3128],[-2.83302,51.31173],[-2.83233,51.31166],[-2.83214,51.3117],[-2.83217,51.31161],[-2.8323,51.31158],[-2.83393,51.31174],[-2.83341,51.31177],[-2.83362,51.31214],[-2.83376,51.31232],[-2.83406,51.31265],[-2.83446,51.31318],[-2.83508,51.31322],[-2.83514,51.31325],[-2.83499,51.31356],[-2.83497,51.31368],[-2.83488,51.31379],[-2.83487,51.31389],[-2.83491,51.3139],[-2.83502,51.31416],[-2.83497,51.31417],[-2.83499,51.31422],[-2.83495,51.31422],[-2.83491,51.3143],[-2.83493,51.31435],[-2.83508,51.31433],[-2.83517,51.31437],[-2.8347,51.3145],[-2.83486,51.3144]]],[[[-2.83976,51.33307],[-2.83978,51.33307],[-2.83982,51.33351],[-2.83982,51.3343],[-2.8398,51.3347],[-2.83977,51.33472],[-2.83974,51.33511],[-2.83963,51.33568],[-2.83939,51.33566],[-2.83954,51.33401],[-2.8395,51.33322],[-2.83938,51.33311],[-2.83976,51.33307]]],[[[-2.83663,51.33972],[-2.83656,51.33962],[-2.83661,51.33965],[-2.83716,51.34029],[-2.83738,51.34045],[-2.83813,51.34141],[-2.83815,51.34151],[-2.83736,51.34062],[-2.83708,51.34036],[-2.83663,51.33972]]],[[[-2.83664,51.34006],[-2.83639,51.33958],[-2.83693,51.34034],[-2.83722,51.34063],[-2.83846,51.34202],[-2.83695,51.34051],[-2.83669,51.34022],[-2.83664,51.34006]]]]}},{"type":"Feature","properties":{"REF_CODE":"1134177","NAME":"SLADERS LEIGH","MEASURE":0.6630139595844584,"LABEL":"Sladers Leigh (LNR)"},"geometry":{"type":"Polygon","coordinates":[[[-2.83123,51.30172],[-2.8315,51.30177],[-2.83148,51.30179],[-2.83151,51.30187],[-2.83145,51.30229],[-2.83146,51.30263],[-2.83164,51.30337],[-2.83156,51.30367],[-2.83096,51.30357],[-2.83104,51.30281],[-2.83123,51.30172]]]}}]}