{"type":"FeatureCollection","features":[{"type":"Feature","properties":{"name":"Rowberrow Swallet","type":"Swallet / sink","id":"842","url":"https://www.mcra.org.uk/registry/sitedetails.php?id=842","source":"Mendip Cave Registry"},"geometry":{"type":"Point","coordinates":[-2.783007,51.319295]}},{"type":"Feature","properties":{"name":"Winterhead Hill Swallet","type":"Swallet / sink","id":"896","url":"https://www.mcra.org.uk/registry/sitedetails.php?id=896","source":"Mendip Cave Registry"},"geometry":{"type":"Point","coordinates":[-2.812276,51.310913]}},{"type":"Feature","properties":{"name":"Pyle Well","type":"Rising","id":"883","url":"https://www.mcra.org.uk/registry/sitedetails.php?id=883","source":"Mendip Cave Registry"},"geometry":{"type":"Point","coordinates":[-2.8125,51.32359]}},{"type":"Feature","properties":{"name":"Callow Slit","type":"Karst feature","id":"1004","url":"https://www.mcra.org.uk/registry/sitedetails.php?id=1004","source":"Mendip Cave Registry"},"geometry":{"type":"Point","coordinates":[-2.812005,51.303667]}}]}