{"type":"FeatureCollection","features":[{"type":"Feature","properties":{"name":"Drunkard's Hole","type":"Cave (over 100 m)","id":"10","url":"https://www.mcra.org.uk/registry/sitedetails.php?id=10","source":"Mendip Cave Registry"},"geometry":{"type":"Point","coordinates":[-2.759951,51.322145]}},{"type":"Feature","properties":{"name":"King Mine","type":"Cave (over 100 m)","id":"1091","url":"https://www.mcra.org.uk/registry/sitedetails.php?id=1091","source":"Mendip Cave Registry","img":"https://www.mcra.org.uk/photoarchive/thumbs/1000/1261%20KingMine.jpg","imgBy":"Mendip Cave Registry & Archive","imgLic":"used with credit"},"geometry":{"type":"Point","coordinates":[-2.819369,51.330556]}},{"type":"Feature","properties":{"name":"Read's Cavern","type":"Cave (over 100 m)","id":"40","url":"https://www.mcra.org.uk/registry/sitedetails.php?id=40","source":"Mendip Cave Registry","img":"https://www.mcra.org.uk/photoarchive/thumbs/0000/0086%20Read%27s%20Cavern.jpg","imgBy":"Mendip Cave Registry & Archive","imgLic":"used with credit"},"geometry":{"type":"Point","coordinates":[-2.76455,51.322564]}},{"type":"Feature","properties":{"name":"Rod's Pot","type":"Cave (over 100 m)","id":"45","url":"https://www.mcra.org.uk/registry/sitedetails.php?id=45","source":"Mendip Cave Registry","img":"https://www.mcra.org.uk/photoarchive/thumbs/0000/0042%20Rod%27s%20Pot.jpg","imgBy":"Mendip Cave Registry & Archive","imgLic":"used with credit"},"geometry":{"type":"Point","coordinates":[-2.758996,51.32252]}},{"type":"Feature","properties":{"name":"Sandford Levvy","type":"Cave (over 100 m)","id":"857","url":"https://www.mcra.org.uk/registry/sitedetails.php?id=857","source":"Mendip Cave Registry","img":"https://www.mcra.org.uk/photoarchive/thumbs/1500/1755.jpg","imgBy":"Mendip Cave Registry & Archive","imgLic":"used with credit"},"geometry":{"type":"Point","coordinates":[-2.820803,51.330456]}},{"type":"Feature","properties":{"name":"Triple Hole","type":"Cave (over 100 m)","id":"867","url":"https://www.mcra.org.uk/registry/sitedetails.php?id=867","source":"Mendip Cave Registry","img":"https://www.mcra.org.uk/photoarchive/thumbs/1000/1256%20Triple%20North-East%20Entrance%20Tav%20%281%29.jpg","imgBy":"Mendip Cave Registry & Archive","imgLic":"used with credit"},"geometry":{"type":"Point","coordinates":[-2.824055,51.327736]}},{"type":"Feature","properties":{"name":"Bath Swallet","type":"Cave","id":"5","url":"https://www.mcra.org.uk/registry/sitedetails.php?id=5","source":"Mendip Cave Registry","img":"https://www.mcra.org.uk/photoarchive/thumbs/1000/1252%20BathSwallet.jpg","imgBy":"Mendip Cave Registry & Archive","imgLic":"used with credit"},"geometry":{"type":"Point","coordinates":[-2.758381,51.322694]}},{"type":"Feature","properties":{"name":"Bertie's Crack","type":"Cave","id":"2310","url":"https://www.mcra.org.uk/registry/sitedetails.php?id=2310","source":"Mendip Cave Registry"},"geometry":{"type":"Point","coordinates":[-2.76454,51.30467]}},{"type":"Feature","properties":{"name":"Bos Swallet","type":"Cave","id":"6","url":"https://www.mcra.org.uk/registry/sitedetails.php?id=6","source":"Mendip Cave Registry","img":"https://www.mcra.org.uk/photoarchive/thumbs/1000/1034%20Bos%20Swallet.jpg","imgBy":"Mendip Cave Registry & Archive","imgLic":"used with credit"},"geometry":{"type":"Point","coordinates":[-2.760722,51.321897]}},{"type":"Feature","properties":{"name":"Calcite Shaft","type":"Cave","id":"1123","url":"https://www.mcra.org.uk/registry/sitedetails.php?id=1123","source":"Mendip Cave Registry"},"geometry":{"type":"Point","coordinates":[-2.806587,51.329323]}},{"type":"Feature","properties":{"name":"Callow Cave","type":"Cave","id":"653","url":"https://www.mcra.org.uk/registry/sitedetails.php?id=653","source":"Mendip Cave Registry"},"geometry":{"type":"Point","coordinates":[-2.811833,51.303714]}},{"type":"Feature","properties":{"name":"Callow Drove Cave","type":"Cave","id":"3804","url":"https://www.mcra.org.uk/registry/sitedetails.php?id=3804","source":"Mendip Cave Registry"},"geometry":{"type":"Point","coordinates":[-2.804285,51.301922]}},{"type":"Feature","properties":{"name":"Car Park Cave","type":"Cave","id":"3215","url":"https://www.mcra.org.uk/registry/sitedetails.php?id=3215","source":"Mendip Cave Registry"},"geometry":{"type":"Point","coordinates":[-2.795707,51.298618]}},{"type":"Feature","properties":{"name":"Churchill Cave","type":"Cave","id":"771","url":"https://www.mcra.org.uk/registry/sitedetails.php?id=771","source":"Mendip Cave Registry"},"geometry":{"type":"Point","coordinates":[-2.796134,51.328217]}},{"type":"Feature","properties":{"name":"Cutting Caves","type":"Cave","id":"3213","url":"https://www.mcra.org.uk/registry/sitedetails.php?id=3213","source":"Mendip Cave Registry"},"geometry":{"type":"Point","coordinates":[-2.796621,51.29836]}},{"type":"Feature","properties":{"name":"Cutting Rift","type":"Cave","id":"3518","url":"https://www.mcra.org.uk/registry/sitedetails.php?id=3518","source":"Mendip Cave Registry"},"geometry":{"type":"Point","coordinates":[-2.796344,51.29811]}},{"type":"Feature","properties":{"name":"Dolebury Hill Cave","type":"Cave","id":"836","url":"https://www.mcra.org.uk/registry/sitedetails.php?id=836","source":"Mendip Cave Registry"},"geometry":{"type":"Point","coordinates":[-2.787942,51.325089]}},{"type":"Feature","properties":{"name":"Elephant Cave","type":"Cave","id":"2185","url":"https://www.mcra.org.uk/registry/sitedetails.php?id=2185","source":"Mendip Cave Registry"},"geometry":{"type":"Point","coordinates":[-2.824128,51.327771]}},{"type":"Feature","properties":{"name":"Fox Holes","type":"Cave","id":"18","url":"https://www.mcra.org.uk/registry/sitedetails.php?id=18","source":"Mendip Cave Registry"},"geometry":{"type":"Point","coordinates":[-2.764694,51.322563]}},{"type":"Feature","properties":{"name":"Haul Road Shaft","type":"Cave","id":"3214","url":"https://www.mcra.org.uk/registry/sitedetails.php?id=3214","source":"Mendip Cave Registry"},"geometry":{"type":"Point","coordinates":[-2.800221,51.300026]}},{"type":"Feature","properties":{"name":"Honorary Holes","type":"Cave","id":"3508","url":"https://www.mcra.org.uk/registry/sitedetails.php?id=3508","source":"Mendip Cave Registry"},"geometry":{"type":"Point","coordinates":[-2.796842,51.298673]}},{"type":"Feature","properties":{"name":"Knowle Cave","type":"Cave","id":"1122","url":"https://www.mcra.org.uk/registry/sitedetails.php?id=1122","source":"Mendip Cave Registry"},"geometry":{"type":"Point","coordinates":[-2.80627,51.329199]}},{"type":"Feature","properties":{"name":"North Field Cave","type":"Cave","id":"3607","url":"https://www.mcra.org.uk/registry/sitedetails.php?id=3607","source":"Mendip Cave Registry"},"geometry":{"type":"Point","coordinates":[-2.802642,51.303094]}},{"type":"Feature","properties":{"name":"Palmer's Cave","type":"Cave","id":"255","url":"https://www.mcra.org.uk/registry/sitedetails.php?id=255","source":"Mendip Cave Registry"},"geometry":{"type":"Point","coordinates":[-2.764482,51.304644]}},{"type":"Feature","properties":{"name":"Rowberrow Bottom Shelter","type":"Cave","id":"840","url":"https://www.mcra.org.uk/registry/sitedetails.php?id=840","source":"Mendip Cave Registry"},"geometry":{"type":"Point","coordinates":[-2.785405,51.322732]}},{"type":"Feature","properties":{"name":"Rowberrow Cavern","type":"Cave","id":"841","url":"https://www.mcra.org.uk/registry/sitedetails.php?id=841","source":"Mendip Cave Registry","img":"https://www.mcra.org.uk/photoarchive/thumbs/1500/1823.jpg","imgBy":"Mendip Cave Registry & Archive","imgLic":"used with credit"},"geometry":{"type":"Point","coordinates":[-2.776584,51.31878]}},{"type":"Feature","properties":{"name":"Sandford Gulf","type":"Cave","id":"1000","url":"https://www.mcra.org.uk/registry/sitedetails.php?id=1000","source":"Mendip Cave Registry"},"geometry":{"type":"Point","coordinates":[-2.820641,51.328614]}},{"type":"Feature","properties":{"name":"Sandford Rifts East","type":"Cave","id":"860","url":"https://www.mcra.org.uk/registry/sitedetails.php?id=860","source":"Mendip Cave Registry"},"geometry":{"type":"Point","coordinates":[-2.816987,51.328172]}},{"type":"Feature","properties":{"name":"Shipham Hill Quarry Alcove","type":"Cave","id":"3510","url":"https://www.mcra.org.uk/registry/sitedetails.php?id=3510","source":"Mendip Cave Registry"},"geometry":{"type":"Point","coordinates":[-2.789005,51.301739]}},{"type":"Feature","properties":{"name":"Whispering Gallery","type":"Cave","id":"870","url":"https://www.mcra.org.uk/registry/sitedetails.php?id=870","source":"Mendip Cave Registry"},"geometry":{"type":"Point","coordinates":[-2.81898,51.32885]}}]}