{"type":"FeatureCollection","features":[{"type":"Feature","properties":{"name":"Drunkard's Hole","type":"Cave (over 100 m)","id":"10","url":"https://www.mcra.org.uk/registry/sitedetails.php?id=10"},"geometry":{"type":"Point","coordinates":[-2.759951,51.322145]}},{"type":"Feature","properties":{"name":"King Mine","type":"Cave (over 100 m)","id":"1091","url":"https://www.mcra.org.uk/registry/sitedetails.php?id=1091"},"geometry":{"type":"Point","coordinates":[-2.819369,51.330556]}},{"type":"Feature","properties":{"name":"Read's Cavern","type":"Cave (over 100 m)","id":"40","url":"https://www.mcra.org.uk/registry/sitedetails.php?id=40"},"geometry":{"type":"Point","coordinates":[-2.76455,51.322564]}},{"type":"Feature","properties":{"name":"Rod's Pot","type":"Cave (over 100 m)","id":"45","url":"https://www.mcra.org.uk/registry/sitedetails.php?id=45"},"geometry":{"type":"Point","coordinates":[-2.758996,51.32252]}},{"type":"Feature","properties":{"name":"Sandford Levvy","type":"Cave (over 100 m)","id":"857","url":"https://www.mcra.org.uk/registry/sitedetails.php?id=857"},"geometry":{"type":"Point","coordinates":[-2.820803,51.330456]}},{"type":"Feature","properties":{"name":"Triple Hole","type":"Cave (over 100 m)","id":"867","url":"https://www.mcra.org.uk/registry/sitedetails.php?id=867"},"geometry":{"type":"Point","coordinates":[-2.824055,51.327736]}},{"type":"Feature","properties":{"name":"Bath Swallet","type":"Cave","id":"5","url":"https://www.mcra.org.uk/registry/sitedetails.php?id=5"},"geometry":{"type":"Point","coordinates":[-2.758381,51.322694]}},{"type":"Feature","properties":{"name":"Bertie's Crack","type":"Cave","id":"2310","url":"https://www.mcra.org.uk/registry/sitedetails.php?id=2310"},"geometry":{"type":"Point","coordinates":[-2.76454,51.30467]}},{"type":"Feature","properties":{"name":"Bos Swallet","type":"Cave","id":"6","url":"https://www.mcra.org.uk/registry/sitedetails.php?id=6"},"geometry":{"type":"Point","coordinates":[-2.760722,51.321897]}},{"type":"Feature","properties":{"name":"Calcite Shaft","type":"Cave","id":"1123","url":"https://www.mcra.org.uk/registry/sitedetails.php?id=1123"},"geometry":{"type":"Point","coordinates":[-2.806587,51.329323]}},{"type":"Feature","properties":{"name":"Callow Cave","type":"Cave","id":"653","url":"https://www.mcra.org.uk/registry/sitedetails.php?id=653"},"geometry":{"type":"Point","coordinates":[-2.811833,51.303714]}},{"type":"Feature","properties":{"name":"Callow Drove Cave","type":"Cave","id":"3804","url":"https://www.mcra.org.uk/registry/sitedetails.php?id=3804"},"geometry":{"type":"Point","coordinates":[-2.804285,51.301922]}},{"type":"Feature","properties":{"name":"Car Park Cave","type":"Cave","id":"3215","url":"https://www.mcra.org.uk/registry/sitedetails.php?id=3215"},"geometry":{"type":"Point","coordinates":[-2.795707,51.298618]}},{"type":"Feature","properties":{"name":"Churchill Cave","type":"Cave","id":"771","url":"https://www.mcra.org.uk/registry/sitedetails.php?id=771"},"geometry":{"type":"Point","coordinates":[-2.796134,51.328217]}},{"type":"Feature","properties":{"name":"Cutting Caves","type":"Cave","id":"3213","url":"https://www.mcra.org.uk/registry/sitedetails.php?id=3213"},"geometry":{"type":"Point","coordinates":[-2.796621,51.29836]}},{"type":"Feature","properties":{"name":"Cutting Rift","type":"Cave","id":"3518","url":"https://www.mcra.org.uk/registry/sitedetails.php?id=3518"},"geometry":{"type":"Point","coordinates":[-2.796344,51.29811]}},{"type":"Feature","properties":{"name":"Dolebury Hill Cave","type":"Cave","id":"836","url":"https://www.mcra.org.uk/registry/sitedetails.php?id=836"},"geometry":{"type":"Point","coordinates":[-2.787942,51.325089]}},{"type":"Feature","properties":{"name":"Elephant Cave","type":"Cave","id":"2185","url":"https://www.mcra.org.uk/registry/sitedetails.php?id=2185"},"geometry":{"type":"Point","coordinates":[-2.824128,51.327771]}},{"type":"Feature","properties":{"name":"Fox Holes","type":"Cave","id":"18","url":"https://www.mcra.org.uk/registry/sitedetails.php?id=18"},"geometry":{"type":"Point","coordinates":[-2.764694,51.322563]}},{"type":"Feature","properties":{"name":"Haul Road Shaft","type":"Cave","id":"3214","url":"https://www.mcra.org.uk/registry/sitedetails.php?id=3214"},"geometry":{"type":"Point","coordinates":[-2.800221,51.300026]}},{"type":"Feature","properties":{"name":"Honorary Holes","type":"Cave","id":"3508","url":"https://www.mcra.org.uk/registry/sitedetails.php?id=3508"},"geometry":{"type":"Point","coordinates":[-2.796842,51.298673]}},{"type":"Feature","properties":{"name":"Knowle Cave","type":"Cave","id":"1122","url":"https://www.mcra.org.uk/registry/sitedetails.php?id=1122"},"geometry":{"type":"Point","coordinates":[-2.80627,51.329199]}},{"type":"Feature","properties":{"name":"North Field Cave","type":"Cave","id":"3607","url":"https://www.mcra.org.uk/registry/sitedetails.php?id=3607"},"geometry":{"type":"Point","coordinates":[-2.802642,51.303094]}},{"type":"Feature","properties":{"name":"Palmer's Cave","type":"Cave","id":"255","url":"https://www.mcra.org.uk/registry/sitedetails.php?id=255"},"geometry":{"type":"Point","coordinates":[-2.764482,51.304644]}},{"type":"Feature","properties":{"name":"Rowberrow Bottom Shelter","type":"Cave","id":"840","url":"https://www.mcra.org.uk/registry/sitedetails.php?id=840"},"geometry":{"type":"Point","coordinates":[-2.785405,51.322732]}},{"type":"Feature","properties":{"name":"Rowberrow Cavern","type":"Cave","id":"841","url":"https://www.mcra.org.uk/registry/sitedetails.php?id=841"},"geometry":{"type":"Point","coordinates":[-2.776584,51.31878]}},{"type":"Feature","properties":{"name":"Sandford Gulf","type":"Cave","id":"1000","url":"https://www.mcra.org.uk/registry/sitedetails.php?id=1000"},"geometry":{"type":"Point","coordinates":[-2.820641,51.328614]}},{"type":"Feature","properties":{"name":"Sandford Rifts East","type":"Cave","id":"860","url":"https://www.mcra.org.uk/registry/sitedetails.php?id=860"},"geometry":{"type":"Point","coordinates":[-2.816987,51.328172]}},{"type":"Feature","properties":{"name":"Shipham Hill Quarry Alcove","type":"Cave","id":"3510","url":"https://www.mcra.org.uk/registry/sitedetails.php?id=3510"},"geometry":{"type":"Point","coordinates":[-2.789005,51.301739]}},{"type":"Feature","properties":{"name":"Whispering Gallery","type":"Cave","id":"870","url":"https://www.mcra.org.uk/registry/sitedetails.php?id=870"},"geometry":{"type":"Point","coordinates":[-2.81898,51.32885]}},{"type":"Feature","properties":{"name":"Dolebury Warren Swallet","type":"Dig","id":"839","url":"https://www.mcra.org.uk/registry/sitedetails.php?id=839"},"geometry":{"type":"Point","coordinates":[-2.783116,51.324006]}},{"type":"Feature","properties":{"name":"P Hole","type":"Dig","id":"32","url":"https://www.mcra.org.uk/registry/sitedetails.php?id=32"},"geometry":{"type":"Point","coordinates":[-2.758282,51.322767]}},{"type":"Feature","properties":{"name":"Swan Inn Swallet","type":"Dig","id":"843","url":"https://www.mcra.org.uk/registry/sitedetails.php?id=843"},"geometry":{"type":"Point","coordinates":[-2.782541,51.31723]}},{"type":"Feature","properties":{"name":"Water Valley Swallet","type":"Dig","id":"52","url":"https://www.mcra.org.uk/registry/sitedetails.php?id=52"},"geometry":{"type":"Point","coordinates":[-2.766022,51.307538]}},{"type":"Feature","properties":{"name":"ACG-05","type":"Mine","id":"2191","url":"https://www.mcra.org.uk/registry/sitedetails.php?id=2191"},"geometry":{"type":"Point","coordinates":[-2.82152,51.330451]}},{"type":"Feature","properties":{"name":"ACG-07","type":"Mine","id":"2192","url":"https://www.mcra.org.uk/registry/sitedetails.php?id=2192"},"geometry":{"type":"Point","coordinates":[-2.82209,51.330177]}},{"type":"Feature","properties":{"name":"Ash Tree Pit","type":"Mine","id":"3481","url":"https://www.mcra.org.uk/registry/sitedetails.php?id=3481"},"geometry":{"type":"Point","coordinates":[-2.790926,51.301672]}},{"type":"Feature","properties":{"name":"August Pit","type":"Mine","id":"873","url":"https://www.mcra.org.uk/registry/sitedetails.php?id=873"},"geometry":{"type":"Point","coordinates":[-2.793931,51.312028]}},{"type":"Feature","properties":{"name":"Batch Gruff","type":"Mine","id":"1161","url":"https://www.mcra.org.uk/registry/sitedetails.php?id=1161"},"geometry":{"type":"Point","coordinates":[-2.798462,51.316853]}},{"type":"Feature","properties":{"name":"Blind Pit","type":"Mine","id":"1088","url":"https://www.mcra.org.uk/registry/sitedetails.php?id=1088"},"geometry":{"type":"Point","coordinates":[-2.804564,51.320327]}},{"type":"Feature","properties":{"name":"Boot Mine","type":"Mine","id":"1094","url":"https://www.mcra.org.uk/registry/sitedetails.php?id=1094"},"geometry":{"type":"Point","coordinates":[-2.8046,51.31994]}},{"type":"Feature","properties":{"name":"Boulder Shaft","type":"Mine","id":"3203","url":"https://www.mcra.org.uk/registry/sitedetails.php?id=3203"},"geometry":{"type":"Point","coordinates":[-2.803911,51.320709]}},{"type":"Feature","properties":{"name":"Boulders Gruff","type":"Mine","id":"1163","url":"https://www.mcra.org.uk/registry/sitedetails.php?id=1163"},"geometry":{"type":"Point","coordinates":[-2.794877,51.316967]}},{"type":"Feature","properties":{"name":"Bramble Shaft","type":"Mine","id":"3072","url":"https://www.mcra.org.uk/registry/sitedetails.php?id=3072"},"geometry":{"type":"Point","coordinates":[-2.803604,51.319587]}},{"type":"Feature","properties":{"name":"Brooks' Shaft","type":"Mine","id":"1160","url":"https://www.mcra.org.uk/registry/sitedetails.php?id=1160"},"geometry":{"type":"Point","coordinates":[-2.793352,51.311762]}},{"type":"Feature","properties":{"name":"Bush Gruff","type":"Mine","id":"1158","url":"https://www.mcra.org.uk/registry/sitedetails.php?id=1158"},"geometry":{"type":"Point","coordinates":[-2.794877,51.316967]}},{"type":"Feature","properties":{"name":"Cemetery Shaft","type":"Mine","id":"1095","url":"https://www.mcra.org.uk/registry/sitedetails.php?id=1095"},"geometry":{"type":"Point","coordinates":[-2.799794,51.319182]}},{"type":"Feature","properties":{"name":"Classic Shaft","type":"Mine","id":"845","url":"https://www.mcra.org.uk/registry/sitedetails.php?id=845"},"geometry":{"type":"Point","coordinates":[-2.822185,51.327479]}},{"type":"Feature","properties":{"name":"Coffee Pot","type":"Mine","id":"2184","url":"https://www.mcra.org.uk/registry/sitedetails.php?id=2184"},"geometry":{"type":"Point","coordinates":[-2.822964,51.328535]}},{"type":"Feature","properties":{"name":"Collared Pit","type":"Mine","id":"3071","url":"https://www.mcra.org.uk/registry/sitedetails.php?id=3071"},"geometry":{"type":"Point","coordinates":[-2.803962,51.320385]}},{"type":"Feature","properties":{"name":"Cook's Gruff","type":"Mine","id":"1137","url":"https://www.mcra.org.uk/registry/sitedetails.php?id=1137"},"geometry":{"type":"Point","coordinates":[-2.795093,51.312829]}},{"type":"Feature","properties":{"name":"Cornish Shaft","type":"Mine","id":"1164","url":"https://www.mcra.org.uk/registry/sitedetails.php?id=1164"},"geometry":{"type":"Point","coordinates":[-2.806322,51.315001]}},{"type":"Feature","properties":{"name":"Court House Orchard Shaft","type":"Mine","id":"3037","url":"https://www.mcra.org.uk/registry/sitedetails.php?id=3037"},"geometry":{"type":"Point","coordinates":[-2.798966,51.312803]}},{"type":"Feature","properties":{"name":"Crocus Hole","type":"Mine","id":"876","url":"https://www.mcra.org.uk/registry/sitedetails.php?id=876"},"geometry":{"type":"Point","coordinates":[-2.805765,51.320049]}},{"type":"Feature","properties":{"name":"Crow Catch","type":"Mine","id":"1085","url":"https://www.mcra.org.uk/registry/sitedetails.php?id=1085"},"geometry":{"type":"Point","coordinates":[-2.791406,51.299555]}},{"type":"Feature","properties":{"name":"Daffers' Hole","type":"Mine","id":"1162","url":"https://www.mcra.org.uk/registry/sitedetails.php?id=1162"},"geometry":{"type":"Point","coordinates":[-2.798536,51.312806]}},{"type":"Feature","properties":{"name":"Daffodil Mine","type":"Mine","id":"877","url":"https://www.mcra.org.uk/registry/sitedetails.php?id=877"},"geometry":{"type":"Point","coordinates":[-2.801078,51.317914]}},{"type":"Feature","properties":{"name":"Deep Groove Mine","type":"Mine","id":"2186","url":"https://www.mcra.org.uk/registry/sitedetails.php?id=2186"},"geometry":{"type":"Point","coordinates":[-2.817731,51.32724]}},{"type":"Feature","properties":{"name":"DGW Mine","type":"Mine","id":"1134","url":"https://www.mcra.org.uk/registry/sitedetails.php?id=1134"},"geometry":{"type":"Point","coordinates":[-2.799477,51.31743]}},{"type":"Feature","properties":{"name":"Dolebury Levvy","type":"Mine","id":"837","url":"https://www.mcra.org.uk/registry/sitedetails.php?id=837"},"geometry":{"type":"Point","coordinates":[-2.788385,51.324969]}},{"type":"Feature","properties":{"name":"Dolebury Warren Mineshaft","type":"Mine","id":"838","url":"https://www.mcra.org.uk/registry/sitedetails.php?id=838"},"geometry":{"type":"Point","coordinates":[-2.779099,51.325786]}},{"type":"Feature","properties":{"name":"Drake's Collapse","type":"Mine","id":"1884","url":"https://www.mcra.org.uk/registry/sitedetails.php?id=1884"},"geometry":{"type":"Point","coordinates":[-2.793816,51.31452]}},{"type":"Feature","properties":{"name":"Ellis' Wonder","type":"Mine","id":"846","url":"https://www.mcra.org.uk/registry/sitedetails.php?id=846"},"geometry":{"type":"Point","coordinates":[-2.817264,51.329222]}},{"type":"Feature","properties":{"name":"Fern Mine","type":"Mine","id":"847","url":"https://www.mcra.org.uk/registry/sitedetails.php?id=847"},"geometry":{"type":"Point","coordinates":[-2.820632,51.328929]}},{"type":"Feature","properties":{"name":"Field Mouse Hole","type":"Mine","id":"1152","url":"https://www.mcra.org.uk/registry/sitedetails.php?id=1152"},"geometry":{"type":"Point","coordinates":[-2.795966,51.313543]}},{"type":"Feature","properties":{"name":"Forty Acres Mine","type":"Mine","id":"3144","url":"https://www.mcra.org.uk/registry/sitedetails.php?id=3144"},"geometry":{"type":"Point","coordinates":[-2.81131,51.298439]}},{"type":"Feature","properties":{"name":"Fountain Gruff","type":"Mine","id":"1151","url":"https://www.mcra.org.uk/registry/sitedetails.php?id=1151"},"geometry":{"type":"Point","coordinates":[-2.799861,51.314775]}},{"type":"Feature","properties":{"name":"Fountain Mine","type":"Mine","id":"878","url":"https://www.mcra.org.uk/registry/sitedetails.php?id=878"},"geometry":{"type":"Point","coordinates":[-2.80375,51.315648]}},{"type":"Feature","properties":{"name":"Girl's Hole","type":"Mine","id":"2770","url":"https://www.mcra.org.uk/registry/sitedetails.php?id=2770"},"geometry":{"type":"Point","coordinates":[-2.815105,51.32725]}},{"type":"Feature","properties":{"name":"Glover's Gruff","type":"Mine","id":"1155","url":"https://www.mcra.org.uk/registry/sitedetails.php?id=1155"},"geometry":{"type":"Point","coordinates":[-2.796307,51.316688]}},{"type":"Feature","properties":{"name":"Glover's Shaft","type":"Mine","id":"1154","url":"https://www.mcra.org.uk/registry/sitedetails.php?id=1154"},"geometry":{"type":"Point","coordinates":[-2.795668,51.312915]}},{"type":"Feature","properties":{"name":"Gobber Hole","type":"Mine","id":"1150","url":"https://www.mcra.org.uk/registry/sitedetails.php?id=1150"},"geometry":{"type":"Point","coordinates":[-2.798551,51.313705]}},{"type":"Feature","properties":{"name":"Gran's Discovery","type":"Mine","id":"848","url":"https://www.mcra.org.uk/registry/sitedetails.php?id=848"},"geometry":{"type":"Point","coordinates":[-2.817336,51.329221]}},{"type":"Feature","properties":{"name":"Groof House Shafts","type":"Mine","id":"3107","url":"https://www.mcra.org.uk/registry/sitedetails.php?id=3107"},"geometry":{"type":"Point","coordinates":[-2.819772,51.329025]}},{"type":"Feature","properties":{"name":"Ham Mine - 1","type":"Mine","id":"1065","url":"https://www.mcra.org.uk/registry/sitedetails.php?id=1065"},"geometry":{"type":"Point","coordinates":[-2.80517,51.322984]}},{"type":"Feature","properties":{"name":"Ham Mine - 2","type":"Mine","id":"1066","url":"https://www.mcra.org.uk/registry/sitedetails.php?id=1066"},"geometry":{"type":"Point","coordinates":[-2.805325,51.322804]}},{"type":"Feature","properties":{"name":"Ham Mine - 3","type":"Mine","id":"1067","url":"https://www.mcra.org.uk/registry/sitedetails.php?id=1067"},"geometry":{"type":"Point","coordinates":[-2.805212,51.322921]}},{"type":"Feature","properties":{"name":"Hayes Rift Mine","type":"Mine","id":"1955","url":"https://www.mcra.org.uk/registry/sitedetails.php?id=1955"},"geometry":{"type":"Point","coordinates":[-2.802732,51.313173]}},{"type":"Feature","properties":{"name":"Hazel Mine","type":"Mine","id":"1093","url":"https://www.mcra.org.uk/registry/sitedetails.php?id=1093"},"geometry":{"type":"Point","coordinates":[-2.804702,51.320002]}},{"type":"Feature","properties":{"name":"Holly Bush Shaft","type":"Mine","id":"881","url":"https://www.mcra.org.uk/registry/sitedetails.php?id=881"},"geometry":{"type":"Point","coordinates":[-2.794914,51.312462]}},{"type":"Feature","properties":{"name":"Holly Fissure","type":"Mine","id":"880","url":"https://www.mcra.org.uk/registry/sitedetails.php?id=880"},"geometry":{"type":"Point","coordinates":[-2.804803,51.320047]}},{"type":"Feature","properties":{"name":"Holly Tree Gruff","type":"Mine","id":"1159","url":"https://www.mcra.org.uk/registry/sitedetails.php?id=1159"},"geometry":{"type":"Point","coordinates":[-2.794026,51.317513]}},{"type":"Feature","properties":{"name":"Ivy Fissure","type":"Mine","id":"882","url":"https://www.mcra.org.uk/registry/sitedetails.php?id=882"},"geometry":{"type":"Point","coordinates":[-2.804833,51.320136]}},{"type":"Feature","properties":{"name":"Knowle Wood Mine","type":"Mine","id":"772","url":"https://www.mcra.org.uk/registry/sitedetails.php?id=772"},"geometry":{"type":"Point","coordinates":[-2.807052,51.329608]}},{"type":"Feature","properties":{"name":"Lambs Gruff","type":"Mine","id":"1882","url":"https://www.mcra.org.uk/registry/sitedetails.php?id=1882"},"geometry":{"type":"Point","coordinates":[-2.799274,51.31317]}},{"type":"Feature","properties":{"name":"Lyncombe Mine","type":"Mine","id":"1092","url":"https://www.mcra.org.uk/registry/sitedetails.php?id=1092"},"geometry":{"type":"Point","coordinates":[-2.811584,51.328632]}},{"type":"Feature","properties":{"name":"Lyncombe Shaft","type":"Mine","id":"2173","url":"https://www.mcra.org.uk/registry/sitedetails.php?id=2173"},"geometry":{"type":"Point","coordinates":[-2.81203,51.328656]}},{"type":"Feature","properties":{"name":"Mark's Gruff","type":"Mine","id":"1156","url":"https://www.mcra.org.uk/registry/sitedetails.php?id=1156"},"geometry":{"type":"Point","coordinates":[-2.795172,51.317415]}},{"type":"Feature","properties":{"name":"MCRA-SH-1","type":"Mine","id":"2160","url":"https://www.mcra.org.uk/registry/sitedetails.php?id=2160"},"geometry":{"type":"Point","coordinates":[-2.820082,51.330281]}},{"type":"Feature","properties":{"name":"MCRA-SH-10","type":"Mine","id":"2195","url":"https://www.mcra.org.uk/registry/sitedetails.php?id=2195"},"geometry":{"type":"Point","coordinates":[-2.824365,51.328992]}},{"type":"Feature","properties":{"name":"MCRA-SH-11","type":"Mine","id":"2198","url":"https://www.mcra.org.uk/registry/sitedetails.php?id=2198"},"geometry":{"type":"Point","coordinates":[-2.821632,51.328652]}},{"type":"Feature","properties":{"name":"MCRA-SH-12","type":"Mine","id":"2199","url":"https://www.mcra.org.uk/registry/sitedetails.php?id=2199"},"geometry":{"type":"Point","coordinates":[-2.822206,51.328648]}},{"type":"Feature","properties":{"name":"MCRA-SH-14","type":"Mine","id":"2197","url":"https://www.mcra.org.uk/registry/sitedetails.php?id=2197"},"geometry":{"type":"Point","coordinates":[-2.815918,51.329411]}},{"type":"Feature","properties":{"name":"MCRA-SH-2","type":"Mine","id":"2161","url":"https://www.mcra.org.uk/registry/sitedetails.php?id=2161"},"geometry":{"type":"Point","coordinates":[-2.821374,51.330272]}},{"type":"Feature","properties":{"name":"MCRA-SH-3","type":"Mine","id":"2158","url":"https://www.mcra.org.uk/registry/sitedetails.php?id=2158"},"geometry":{"type":"Point","coordinates":[-2.821517,51.330271]}},{"type":"Feature","properties":{"name":"MCRA-SH-4","type":"Mine","id":"2157","url":"https://www.mcra.org.uk/registry/sitedetails.php?id=2157"},"geometry":{"type":"Point","coordinates":[-2.821514,51.330091]}},{"type":"Feature","properties":{"name":"MCRA-SH-7","type":"Mine","id":"2167","url":"https://www.mcra.org.uk/registry/sitedetails.php?id=2167"},"geometry":{"type":"Point","coordinates":[-2.821087,51.330274]}},{"type":"Feature","properties":{"name":"MCRA-SH-8","type":"Mine","id":"2168","url":"https://www.mcra.org.uk/registry/sitedetails.php?id=2168"},"geometry":{"type":"Point","coordinates":[-2.820798,51.330186]}},{"type":"Feature","properties":{"name":"New Hall Mine","type":"Mine","id":"1135","url":"https://www.mcra.org.uk/registry/sitedetails.php?id=1135"},"geometry":{"type":"Point","coordinates":[-2.798698,51.317211]}},{"type":"Feature","properties":{"name":"New Shaft","type":"Mine","id":"892","url":"https://www.mcra.org.uk/registry/sitedetails.php?id=892"},"geometry":{"type":"Point","coordinates":[-2.80476,51.32002]}},{"type":"Feature","properties":{"name":"Old Shaft 2","type":"Mine","id":"1087","url":"https://www.mcra.org.uk/registry/sitedetails.php?id=1087"},"geometry":{"type":"Point","coordinates":[-2.80117,51.319064]}},{"type":"Feature","properties":{"name":"Pallet Shaft","type":"Mine","id":"1086","url":"https://www.mcra.org.uk/registry/sitedetails.php?id=1086"},"geometry":{"type":"Point","coordinates":[-2.801899,51.318907]}},{"type":"Feature","properties":{"name":"Parallel Gashes","type":"Mine","id":"3600","url":"https://www.mcra.org.uk/registry/sitedetails.php?id=3600"},"geometry":{"type":"Point","coordinates":[-2.785465,51.327111]}},{"type":"Feature","properties":{"name":"Pearl Mine","type":"Mine","id":"853","url":"https://www.mcra.org.uk/registry/sitedetails.php?id=853"},"geometry":{"type":"Point","coordinates":[-2.82192,51.32874]}},{"type":"Feature","properties":{"name":"Rabbit Hole","type":"Mine","id":"871","url":"https://www.mcra.org.uk/registry/sitedetails.php?id=871"},"geometry":{"type":"Point","coordinates":[-2.821218,51.328781]}},{"type":"Feature","properties":{"name":"Robert's Paradise","type":"Mine","id":"854","url":"https://www.mcra.org.uk/registry/sitedetails.php?id=854"},"geometry":{"type":"Point","coordinates":[-2.820537,51.326825]}},{"type":"Feature","properties":{"name":"Rock Girt Pit","type":"Mine","id":"2183","url":"https://www.mcra.org.uk/registry/sitedetails.php?id=2183"},"geometry":{"type":"Point","coordinates":[-2.822923,51.328643]}},{"type":"Feature","properties":{"name":"Rowberrow Beach Shaft","type":"Mine","id":"885","url":"https://www.mcra.org.uk/registry/sitedetails.php?id=885"},"geometry":{"type":"Point","coordinates":[-2.797803,51.320184]}},{"type":"Feature","properties":{"name":"Rowberrow Forest Iron Pits","type":"Mine","id":"3269","url":"https://www.mcra.org.uk/registry/sitedetails.php?id=3269"},"geometry":{"type":"Point","coordinates":[-2.766278,51.31428]}},{"type":"Feature","properties":{"name":"Rowberrow Forest Mine","type":"Mine","id":"3268","url":"https://www.mcra.org.uk/registry/sitedetails.php?id=3268"},"geometry":{"type":"Point","coordinates":[-2.777377,51.313911]}},{"type":"Feature","properties":{"name":"Rowberrow Waterworks Tunnel","type":"Mine","id":"2570","url":"https://www.mcra.org.uk/registry/sitedetails.php?id=2570"},"geometry":{"type":"Point","coordinates":[-2.79766,51.326003]}},{"type":"Feature","properties":{"name":"Rubbishy Rift","type":"Mine","id":"886","url":"https://www.mcra.org.uk/registry/sitedetails.php?id=886"},"geometry":{"type":"Point","coordinates":[-2.800591,51.317953]}},{"type":"Feature","properties":{"name":"Sandford East Ochre Mine","type":"Mine","id":"855","url":"https://www.mcra.org.uk/registry/sitedetails.php?id=855"},"geometry":{"type":"Point","coordinates":[-2.814997,51.32681]}},{"type":"Feature","properties":{"name":"Sandford Hill Mine No.2","type":"Mine","id":"2179","url":"https://www.mcra.org.uk/registry/sitedetails.php?id=2179"},"geometry":{"type":"Point","coordinates":[-2.816772,51.328191]}},{"type":"Feature","properties":{"name":"Sandford Hill Mine No.3","type":"Mine","id":"2163","url":"https://www.mcra.org.uk/registry/sitedetails.php?id=2163"},"geometry":{"type":"Point","coordinates":[-2.817497,51.3278]}},{"type":"Feature","properties":{"name":"Sandford Rake","type":"Mine","id":"2200","url":"https://www.mcra.org.uk/registry/sitedetails.php?id=2200"},"geometry":{"type":"Point","coordinates":[-2.820865,51.327533]}},{"type":"Feature","properties":{"name":"Saville Row Shaft No.1","type":"Mine","id":"852","url":"https://www.mcra.org.uk/registry/sitedetails.php?id=852"},"geometry":{"type":"Point","coordinates":[-2.818994,51.32885]}},{"type":"Feature","properties":{"name":"Saville Row Shaft No.3","type":"Mine","id":"2064","url":"https://www.mcra.org.uk/registry/sitedetails.php?id=2064"},"geometry":{"type":"Point","coordinates":[-2.818908,51.328851]}},{"type":"Feature","properties":{"name":"Scull Mine","type":"Mine","id":"1969","url":"https://www.mcra.org.uk/registry/sitedetails.php?id=1969"},"geometry":{"type":"Point","coordinates":[-2.806536,51.314145]}},{"type":"Feature","properties":{"name":"Scum Hole","type":"Mine","id":"862","url":"https://www.mcra.org.uk/registry/sitedetails.php?id=862"},"geometry":{"type":"Point","coordinates":[-2.82113,51.328673]}},{"type":"Feature","properties":{"name":"Severn View Mine","type":"Mine","id":"1968","url":"https://www.mcra.org.uk/registry/sitedetails.php?id=1968"},"geometry":{"type":"Point","coordinates":[-2.794136,51.312287]}},{"type":"Feature","properties":{"name":"Shaft 120","type":"Mine","id":"863","url":"https://www.mcra.org.uk/registry/sitedetails.php?id=863"},"geometry":{"type":"Point","coordinates":[-2.819052,51.32885]}},{"type":"Feature","properties":{"name":"Shepherd's Shaft","type":"Mine","id":"1136","url":"https://www.mcra.org.uk/registry/sitedetails.php?id=1136"},"geometry":{"type":"Point","coordinates":[-2.795723,51.312807]}},{"type":"Feature","properties":{"name":"Shipham 'Mine'","type":"Mine","id":"889","url":"https://www.mcra.org.uk/registry/sitedetails.php?id=889"},"geometry":{"type":"Point","coordinates":[-2.800388,51.312074]}},{"type":"Feature","properties":{"name":"Shipham Collapse No. 85","type":"Mine","id":"3097","url":"https://www.mcra.org.uk/registry/sitedetails.php?id=3097"},"geometry":{"type":"Point","coordinates":[-2.800189,51.314638]}},{"type":"Feature","properties":{"name":"Shipham Collapse No. 88","type":"Mine","id":"1097","url":"https://www.mcra.org.uk/registry/sitedetails.php?id=1097"},"geometry":{"type":"Point","coordinates":[-2.800006,51.314864]}},{"type":"Feature","properties":{"name":"Shipham Collapse No. 89","type":"Mine","id":"1098","url":"https://www.mcra.org.uk/registry/sitedetails.php?id=1098"},"geometry":{"type":"Point","coordinates":[-2.800006,51.314864]}},{"type":"Feature","properties":{"name":"Singing River Mine","type":"Mine","id":"891","url":"https://www.mcra.org.uk/registry/sitedetails.php?id=891"},"geometry":{"type":"Point","coordinates":[-2.798102,51.312629]}},{"type":"Feature","properties":{"name":"Skeleton Rift","type":"Mine","id":"864","url":"https://www.mcra.org.uk/registry/sitedetails.php?id=864"},"geometry":{"type":"Point","coordinates":[-2.820408,51.326835]}},{"type":"Feature","properties":{"name":"SMCC-10","type":"Mine","id":"2151","url":"https://www.mcra.org.uk/registry/sitedetails.php?id=2151"},"geometry":{"type":"Point","coordinates":[-2.822375,51.330085]}},{"type":"Feature","properties":{"name":"SMCC-4","type":"Mine","id":"2154","url":"https://www.mcra.org.uk/registry/sitedetails.php?id=2154"},"geometry":{"type":"Point","coordinates":[-2.820659,51.330457]}},{"type":"Feature","properties":{"name":"SMCC-7","type":"Mine","id":"2153","url":"https://www.mcra.org.uk/registry/sitedetails.php?id=2153"},"geometry":{"type":"Point","coordinates":[-2.821375,51.330362]}},{"type":"Feature","properties":{"name":"South Rift","type":"Mine","id":"850","url":"https://www.mcra.org.uk/registry/sitedetails.php?id=850"},"geometry":{"type":"Point","coordinates":[-2.820297,51.326233]}},{"type":"Feature","properties":{"name":"SSSS-22-B","type":"Mine","id":"2170","url":"https://www.mcra.org.uk/registry/sitedetails.php?id=2170"},"geometry":{"type":"Point","coordinates":[-2.823226,51.328704]}},{"type":"Feature","properties":{"name":"SSSS-22-F","type":"Mine","id":"2171","url":"https://www.mcra.org.uk/registry/sitedetails.php?id=2171"},"geometry":{"type":"Point","coordinates":[-2.82334,51.328676]}},{"type":"Feature","properties":{"name":"SSSS-22-N","type":"Mine","id":"2176","url":"https://www.mcra.org.uk/registry/sitedetails.php?id=2176"},"geometry":{"type":"Point","coordinates":[-2.824935,51.32719]}},{"type":"Feature","properties":{"name":"SSSS-22-O","type":"Mine","id":"2175","url":"https://www.mcra.org.uk/registry/sitedetails.php?id=2175"},"geometry":{"type":"Point","coordinates":[-2.824489,51.327139]}},{"type":"Feature","properties":{"name":"SSSS-32-N","type":"Mine","id":"2174","url":"https://www.mcra.org.uk/registry/sitedetails.php?id=2174"},"geometry":{"type":"Point","coordinates":[-2.820881,51.326823]}},{"type":"Feature","properties":{"name":"SSSS-43-G","type":"Mine","id":"2201","url":"https://www.mcra.org.uk/registry/sitedetails.php?id=2201"},"geometry":{"type":"Point","coordinates":[-2.817545,51.329688]}},{"type":"Feature","properties":{"name":"SSSS-52-D","type":"Mine","id":"2178","url":"https://www.mcra.org.uk/registry/sitedetails.php?id=2178"},"geometry":{"type":"Point","coordinates":[-2.816404,51.327654]}},{"type":"Feature","properties":{"name":"Stanton Mine","type":"Mine","id":"3204","url":"https://www.mcra.org.uk/registry/sitedetails.php?id=3204"},"geometry":{"type":"Point","coordinates":[-2.804054,51.320699]}},{"type":"Feature","properties":{"name":"Stanton's Shaft","type":"Mine","id":"2180","url":"https://www.mcra.org.uk/registry/sitedetails.php?id=2180"},"geometry":{"type":"Point","coordinates":[-2.815577,51.327184]}},{"type":"Feature","properties":{"name":"Star Mine No.1","type":"Mine","id":"1069","url":"https://www.mcra.org.uk/registry/sitedetails.php?id=1069"},"geometry":{"type":"Point","coordinates":[-2.804754,51.320532]}},{"type":"Feature","properties":{"name":"Star Mine No.2","type":"Mine","id":"893","url":"https://www.mcra.org.uk/registry/sitedetails.php?id=893"},"geometry":{"type":"Point","coordinates":[-2.803694,51.320639]}},{"type":"Feature","properties":{"name":"Star Shaft","type":"Mine","id":"1068","url":"https://www.mcra.org.uk/registry/sitedetails.php?id=1068"},"geometry":{"type":"Point","coordinates":[-2.804916,51.320765]}},{"type":"Feature","properties":{"name":"Suicide Hole","type":"Mine","id":"894","url":"https://www.mcra.org.uk/registry/sitedetails.php?id=894"},"geometry":{"type":"Point","coordinates":[-2.786917,51.312975]}},{"type":"Feature","properties":{"name":"Summit Plantation Mine","type":"Mine","id":"866","url":"https://www.mcra.org.uk/registry/sitedetails.php?id=866"},"geometry":{"type":"Point","coordinates":[-2.822759,51.327475]}},{"type":"Feature","properties":{"name":"Sycamore Garage Shaft","type":"Mine","id":"3036","url":"https://www.mcra.org.uk/registry/sitedetails.php?id=3036"},"geometry":{"type":"Point","coordinates":[-2.794411,51.314902]}},{"type":"Feature","properties":{"name":"Sycamore Pit","type":"Mine","id":"1153","url":"https://www.mcra.org.uk/registry/sitedetails.php?id=1153"},"geometry":{"type":"Point","coordinates":[-2.799721,51.314956]}},{"type":"Feature","properties":{"name":"Thiery's Gruff","type":"Mine","id":"1157","url":"https://www.mcra.org.uk/registry/sitedetails.php?id=1157"},"geometry":{"type":"Point","coordinates":[-2.796159,51.316419]}},{"type":"Feature","properties":{"name":"Tin Can Alley (Shipham)","type":"Mine","id":"895","url":"https://www.mcra.org.uk/registry/sitedetails.php?id=895"},"geometry":{"type":"Point","coordinates":[-2.800922,51.318005]}},{"type":"Feature","properties":{"name":"Udders Hole","type":"Mine","id":"869","url":"https://www.mcra.org.uk/registry/sitedetails.php?id=869"},"geometry":{"type":"Point","coordinates":[-2.816565,51.327851]}},{"type":"Feature","properties":{"name":"Winterhead Mine","type":"Mine","id":"897","url":"https://www.mcra.org.uk/registry/sitedetails.php?id=897"},"geometry":{"type":"Point","coordinates":[-2.806699,51.315232]}},{"type":"Feature","properties":{"name":"Winterhead Shaft","type":"Mine","id":"1084","url":"https://www.mcra.org.uk/registry/sitedetails.php?id=1084"},"geometry":{"type":"Point","coordinates":[-2.805891,51.315004]}},{"type":"Feature","properties":{"name":"Winterhead Swallet","type":"Mine","id":"999","url":"https://www.mcra.org.uk/registry/sitedetails.php?id=999"},"geometry":{"type":"Point","coordinates":[-2.807309,51.314005]}},{"type":"Feature","properties":{"name":"Rowberrow Swallet","type":"Swallet / sink","id":"842","url":"https://www.mcra.org.uk/registry/sitedetails.php?id=842"},"geometry":{"type":"Point","coordinates":[-2.783007,51.319295]}},{"type":"Feature","properties":{"name":"Winterhead Hill Swallet","type":"Swallet / sink","id":"896","url":"https://www.mcra.org.uk/registry/sitedetails.php?id=896"},"geometry":{"type":"Point","coordinates":[-2.812276,51.310913]}},{"type":"Feature","properties":{"name":"Pyle Well","type":"Rising","id":"883","url":"https://www.mcra.org.uk/registry/sitedetails.php?id=883"},"geometry":{"type":"Point","coordinates":[-2.8125,51.32359]}},{"type":"Feature","properties":{"name":"Callow Slit","type":"Karst feature","id":"1004","url":"https://www.mcra.org.uk/registry/sitedetails.php?id=1004"},"geometry":{"type":"Point","coordinates":[-2.812005,51.303667]}},{"type":"Feature","properties":{"name":"Hedgerow Collapse","type":"Collapse","id":"1101","url":"https://www.mcra.org.uk/registry/sitedetails.php?id=1101"},"geometry":{"type":"Point","coordinates":[-2.801405,51.321059]}},{"type":"Feature","properties":{"name":"Rover Hole","type":"Collapse","id":"884","url":"https://www.mcra.org.uk/registry/sitedetails.php?id=884"},"geometry":{"type":"Point","coordinates":[-2.800583,51.31504]}},{"type":"Feature","properties":{"name":"Rowberrow Beach Collapse 1","type":"Collapse","id":"1103","url":"https://www.mcra.org.uk/registry/sitedetails.php?id=1103"},"geometry":{"type":"Point","coordinates":[-2.798225,51.319732]}},{"type":"Feature","properties":{"name":"Rowberrow Beach Collapse 2","type":"Collapse","id":"1102","url":"https://www.mcra.org.uk/registry/sitedetails.php?id=1102"},"geometry":{"type":"Point","coordinates":[-2.798082,51.319733]}},{"type":"Feature","properties":{"name":"Rowberrow Beach Collapse 3","type":"Collapse","id":"1104","url":"https://www.mcra.org.uk/registry/sitedetails.php?id=1104"},"geometry":{"type":"Point","coordinates":[-2.797938,51.319734]}},{"type":"Feature","properties":{"name":"Shipham Collapse","type":"Collapse","id":"887","url":"https://www.mcra.org.uk/registry/sitedetails.php?id=887"},"geometry":{"type":"Point","coordinates":[-2.800006,51.314864]}},{"type":"Feature","properties":{"name":"Shipham Collapse No. 01","type":"Collapse","id":"1165","url":"https://www.mcra.org.uk/registry/sitedetails.php?id=1165"},"geometry":{"type":"Point","coordinates":[-2.794116,51.314455]}},{"type":"Feature","properties":{"name":"Shipham Collapse No. 02","type":"Collapse","id":"1166","url":"https://www.mcra.org.uk/registry/sitedetails.php?id=1166"},"geometry":{"type":"Point","coordinates":[-2.793974,51.314546]}},{"type":"Feature","properties":{"name":"Shipham Collapse No. 03","type":"Collapse","id":"1167","url":"https://www.mcra.org.uk/registry/sitedetails.php?id=1167"},"geometry":{"type":"Point","coordinates":[-2.793831,51.314547]}},{"type":"Feature","properties":{"name":"Shipham Collapse No. 04","type":"Collapse","id":"1168","url":"https://www.mcra.org.uk/registry/sitedetails.php?id=1168"},"geometry":{"type":"Point","coordinates":[-2.793541,51.314369]}},{"type":"Feature","properties":{"name":"Shipham Collapse No. 05","type":"Collapse","id":"1169","url":"https://www.mcra.org.uk/registry/sitedetails.php?id=1169"},"geometry":{"type":"Point","coordinates":[-2.793538,51.314189]}},{"type":"Feature","properties":{"name":"Shipham Collapse No. 06","type":"Collapse","id":"1170","url":"https://www.mcra.org.uk/registry/sitedetails.php?id=1170"},"geometry":{"type":"Point","coordinates":[-2.793536,51.314099]}},{"type":"Feature","properties":{"name":"Shipham Collapse No. 07","type":"Collapse","id":"1171","url":"https://www.mcra.org.uk/registry/sitedetails.php?id=1171"},"geometry":{"type":"Point","coordinates":[-2.793535,51.314009]}},{"type":"Feature","properties":{"name":"Shipham Collapse No. 08","type":"Collapse","id":"1172","url":"https://www.mcra.org.uk/registry/sitedetails.php?id=1172"},"geometry":{"type":"Point","coordinates":[-2.793829,51.314457]}},{"type":"Feature","properties":{"name":"Shipham Collapse No. 09","type":"Collapse","id":"1173","url":"https://www.mcra.org.uk/registry/sitedetails.php?id=1173"},"geometry":{"type":"Point","coordinates":[-2.798414,51.314066]}},{"type":"Feature","properties":{"name":"Shipham Collapse No. 10","type":"Collapse","id":"1174","url":"https://www.mcra.org.uk/registry/sitedetails.php?id=1174"},"geometry":{"type":"Point","coordinates":[-2.798127,51.314068]}},{"type":"Feature","properties":{"name":"Shipham Collapse No. 11","type":"Collapse","id":"1175","url":"https://www.mcra.org.uk/registry/sitedetails.php?id=1175"},"geometry":{"type":"Point","coordinates":[-2.798129,51.314158]}},{"type":"Feature","properties":{"name":"Shipham Collapse No. 12","type":"Collapse","id":"1176","url":"https://www.mcra.org.uk/registry/sitedetails.php?id=1176"},"geometry":{"type":"Point","coordinates":[-2.798129,51.314158]}},{"type":"Feature","properties":{"name":"Shipham Collapse No. 13","type":"Collapse","id":"1177","url":"https://www.mcra.org.uk/registry/sitedetails.php?id=1177"},"geometry":{"type":"Point","coordinates":[-2.798414,51.314066]}},{"type":"Feature","properties":{"name":"Shipham Collapse No. 14","type":"Collapse","id":"1178","url":"https://www.mcra.org.uk/registry/sitedetails.php?id=1178"},"geometry":{"type":"Point","coordinates":[-2.798411,51.313886]}},{"type":"Feature","properties":{"name":"Shipham Collapse No. 15","type":"Collapse","id":"1179","url":"https://www.mcra.org.uk/registry/sitedetails.php?id=1179"},"geometry":{"type":"Point","coordinates":[-2.798841,51.313883]}},{"type":"Feature","properties":{"name":"Shipham Collapse No. 16","type":"Collapse","id":"1180","url":"https://www.mcra.org.uk/registry/sitedetails.php?id=1180"},"geometry":{"type":"Point","coordinates":[-2.799279,51.31433]}},{"type":"Feature","properties":{"name":"Shipham Collapse No. 17","type":"Collapse","id":"1181","url":"https://www.mcra.org.uk/registry/sitedetails.php?id=1181"},"geometry":{"type":"Point","coordinates":[-2.799278,51.31424]}},{"type":"Feature","properties":{"name":"Shipham Collapse No. 18","type":"Collapse","id":"1182","url":"https://www.mcra.org.uk/registry/sitedetails.php?id=1182"},"geometry":{"type":"Point","coordinates":[-2.799278,51.31424]}},{"type":"Feature","properties":{"name":"Shipham Collapse No. 19","type":"Collapse","id":"1183","url":"https://www.mcra.org.uk/registry/sitedetails.php?id=1183"},"geometry":{"type":"Point","coordinates":[-2.799421,51.314239]}},{"type":"Feature","properties":{"name":"Shipham Collapse No. 20","type":"Collapse","id":"1184","url":"https://www.mcra.org.uk/registry/sitedetails.php?id=1184"},"geometry":{"type":"Point","coordinates":[-2.790525,51.314209]}},{"type":"Feature","properties":{"name":"Shipham Collapse No. 21","type":"Collapse","id":"1185","url":"https://www.mcra.org.uk/registry/sitedetails.php?id=1185"},"geometry":{"type":"Point","coordinates":[-2.799702,51.313877]}},{"type":"Feature","properties":{"name":"Shipham Collapse No. 22","type":"Collapse","id":"1186","url":"https://www.mcra.org.uk/registry/sitedetails.php?id=1186"},"geometry":{"type":"Point","coordinates":[-2.799702,51.313877]}},{"type":"Feature","properties":{"name":"Shipham Collapse No. 23","type":"Collapse","id":"1187","url":"https://www.mcra.org.uk/registry/sitedetails.php?id=1187"},"geometry":{"type":"Point","coordinates":[-2.798132,51.314337]}},{"type":"Feature","properties":{"name":"Shipham Collapse No. 24","type":"Collapse","id":"1188","url":"https://www.mcra.org.uk/registry/sitedetails.php?id=1188"},"geometry":{"type":"Point","coordinates":[-2.798996,51.314511]}},{"type":"Feature","properties":{"name":"Shipham Collapse No. 25","type":"Collapse","id":"1189","url":"https://www.mcra.org.uk/registry/sitedetails.php?id=1189"},"geometry":{"type":"Point","coordinates":[-2.797248,51.312995]}},{"type":"Feature","properties":{"name":"Shipham Collapse No. 26","type":"Collapse","id":"1190","url":"https://www.mcra.org.uk/registry/sitedetails.php?id=1190"},"geometry":{"type":"Point","coordinates":[-2.796972,51.313626]}},{"type":"Feature","properties":{"name":"Shipham Collapse No. 27","type":"Collapse","id":"1191","url":"https://www.mcra.org.uk/registry/sitedetails.php?id=1191"},"geometry":{"type":"Point","coordinates":[-2.797046,51.313796]}},{"type":"Feature","properties":{"name":"Shipham Collapse No. 28","type":"Collapse","id":"1192","url":"https://www.mcra.org.uk/registry/sitedetails.php?id=1192"},"geometry":{"type":"Point","coordinates":[-2.796543,51.313719]}},{"type":"Feature","properties":{"name":"Shipham Collapse No. 29","type":"Collapse","id":"1193","url":"https://www.mcra.org.uk/registry/sitedetails.php?id=1193"},"geometry":{"type":"Point","coordinates":[-2.796543,51.313719]}},{"type":"Feature","properties":{"name":"Shipham Collapse No. 30","type":"Collapse","id":"1194","url":"https://www.mcra.org.uk/registry/sitedetails.php?id=1194"},"geometry":{"type":"Point","coordinates":[-2.796543,51.313719]}},{"type":"Feature","properties":{"name":"Shipham Collapse No. 31","type":"Collapse","id":"1195","url":"https://www.mcra.org.uk/registry/sitedetails.php?id=1195"},"geometry":{"type":"Point","coordinates":[-2.796543,51.313719]}},{"type":"Feature","properties":{"name":"Shipham Collapse No. 32","type":"Collapse","id":"1196","url":"https://www.mcra.org.uk/registry/sitedetails.php?id=1196"},"geometry":{"type":"Point","coordinates":[-2.795393,51.313637]}},{"type":"Feature","properties":{"name":"Shipham Collapse No. 33","type":"Collapse","id":"1197","url":"https://www.mcra.org.uk/registry/sitedetails.php?id=1197"},"geometry":{"type":"Point","coordinates":[-2.79525,51.313638]}},{"type":"Feature","properties":{"name":"Shipham Collapse No. 34","type":"Collapse","id":"1198","url":"https://www.mcra.org.uk/registry/sitedetails.php?id=1198"},"geometry":{"type":"Point","coordinates":[-2.795241,51.313098]}},{"type":"Feature","properties":{"name":"Shipham Collapse No. 35","type":"Collapse","id":"1199","url":"https://www.mcra.org.uk/registry/sitedetails.php?id=1199"},"geometry":{"type":"Point","coordinates":[-2.795531,51.313276]}},{"type":"Feature","properties":{"name":"Shipham Collapse No. 36","type":"Collapse","id":"1200","url":"https://www.mcra.org.uk/registry/sitedetails.php?id=1200"},"geometry":{"type":"Point","coordinates":[-2.795674,51.313275]}},{"type":"Feature","properties":{"name":"Shipham Collapse No. 37","type":"Collapse","id":"1201","url":"https://www.mcra.org.uk/registry/sitedetails.php?id=1201"},"geometry":{"type":"Point","coordinates":[-2.7951,51.313279]}},{"type":"Feature","properties":{"name":"Shipham Collapse No. 38","type":"Collapse","id":"1202","url":"https://www.mcra.org.uk/registry/sitedetails.php?id=1202"},"geometry":{"type":"Point","coordinates":[-2.796689,51.313898]}},{"type":"Feature","properties":{"name":"Shipham Collapse No. 39","type":"Collapse","id":"1203","url":"https://www.mcra.org.uk/registry/sitedetails.php?id=1203"},"geometry":{"type":"Point","coordinates":[-2.797408,51.313983]}},{"type":"Feature","properties":{"name":"Shipham Collapse No. 40","type":"Collapse","id":"1204","url":"https://www.mcra.org.uk/registry/sitedetails.php?id=1204"},"geometry":{"type":"Point","coordinates":[-2.797839,51.31398]}},{"type":"Feature","properties":{"name":"Shipham Collapse No. 41","type":"Collapse","id":"1205","url":"https://www.mcra.org.uk/registry/sitedetails.php?id=1205"},"geometry":{"type":"Point","coordinates":[-2.797982,51.313979]}},{"type":"Feature","properties":{"name":"Shipham Collapse No. 42","type":"Collapse","id":"1206","url":"https://www.mcra.org.uk/registry/sitedetails.php?id=1206"},"geometry":{"type":"Point","coordinates":[-2.796262,51.31408]}},{"type":"Feature","properties":{"name":"Shipham Collapse No. 43","type":"Collapse","id":"1207","url":"https://www.mcra.org.uk/registry/sitedetails.php?id=1207"},"geometry":{"type":"Point","coordinates":[-2.796125,51.314441]}},{"type":"Feature","properties":{"name":"Shipham Collapse No. 44","type":"Collapse","id":"1208","url":"https://www.mcra.org.uk/registry/sitedetails.php?id=1208"},"geometry":{"type":"Point","coordinates":[-2.795549,51.314355]}},{"type":"Feature","properties":{"name":"Shipham Collapse No. 45","type":"Collapse","id":"1209","url":"https://www.mcra.org.uk/registry/sitedetails.php?id=1209"},"geometry":{"type":"Point","coordinates":[-2.796984,51.314345]}},{"type":"Feature","properties":{"name":"Shipham Collapse No. 46","type":"Collapse","id":"1210","url":"https://www.mcra.org.uk/registry/sitedetails.php?id=1210"},"geometry":{"type":"Point","coordinates":[-2.794548,51.314542]}},{"type":"Feature","properties":{"name":"Shipham Collapse No. 47","type":"Collapse","id":"1211","url":"https://www.mcra.org.uk/registry/sitedetails.php?id=1211"},"geometry":{"type":"Point","coordinates":[-2.796702,51.314617]}},{"type":"Feature","properties":{"name":"Shipham Collapse No. 48","type":"Collapse","id":"1212","url":"https://www.mcra.org.uk/registry/sitedetails.php?id=1212"},"geometry":{"type":"Point","coordinates":[-2.797156,51.315963]}},{"type":"Feature","properties":{"name":"Shipham Collapse No. 49","type":"Collapse","id":"1213","url":"https://www.mcra.org.uk/registry/sitedetails.php?id=1213"},"geometry":{"type":"Point","coordinates":[-2.79489,51.316068]}},{"type":"Feature","properties":{"name":"Shipham Collapse No. 50","type":"Collapse","id":"1214","url":"https://www.mcra.org.uk/registry/sitedetails.php?id=1214"},"geometry":{"type":"Point","coordinates":[-2.794804,51.31606]}},{"type":"Feature","properties":{"name":"Shipham Collapse No. 51","type":"Collapse","id":"1215","url":"https://www.mcra.org.uk/registry/sitedetails.php?id=1215"},"geometry":{"type":"Point","coordinates":[-2.797282,51.314973]}},{"type":"Feature","properties":{"name":"Shipham Collapse No. 52","type":"Collapse","id":"1216","url":"https://www.mcra.org.uk/registry/sitedetails.php?id=1216"},"geometry":{"type":"Point","coordinates":[-2.79772,51.315419]}},{"type":"Feature","properties":{"name":"Shipham Collapse No. 53","type":"Collapse","id":"1217","url":"https://www.mcra.org.uk/registry/sitedetails.php?id=1217"},"geometry":{"type":"Point","coordinates":[-2.797432,51.315331]}},{"type":"Feature","properties":{"name":"Shipham Collapse No. 54","type":"Collapse","id":"1218","url":"https://www.mcra.org.uk/registry/sitedetails.php?id=1218"},"geometry":{"type":"Point","coordinates":[-2.797428,51.315152]}},{"type":"Feature","properties":{"name":"Shipham Collapse No. 55","type":"Collapse","id":"1219","url":"https://www.mcra.org.uk/registry/sitedetails.php?id=1219"},"geometry":{"type":"Point","coordinates":[-2.797145,51.315333]}},{"type":"Feature","properties":{"name":"Shipham Collapse No. 56","type":"Collapse","id":"1220","url":"https://www.mcra.org.uk/registry/sitedetails.php?id=1220"},"geometry":{"type":"Point","coordinates":[-2.796566,51.315067]}},{"type":"Feature","properties":{"name":"Shipham Collapse No. 57","type":"Collapse","id":"1221","url":"https://www.mcra.org.uk/registry/sitedetails.php?id=1221"},"geometry":{"type":"Point","coordinates":[-2.797587,51.31605]}},{"type":"Feature","properties":{"name":"Shipham Collapse No. 58","type":"Collapse","id":"1222","url":"https://www.mcra.org.uk/registry/sitedetails.php?id=1222"},"geometry":{"type":"Point","coordinates":[-2.798598,51.316402]}},{"type":"Feature","properties":{"name":"Shipham Collapse No. 59","type":"Collapse","id":"1223","url":"https://www.mcra.org.uk/registry/sitedetails.php?id=1223"},"geometry":{"type":"Point","coordinates":[-2.798601,51.316582]}},{"type":"Feature","properties":{"name":"Shipham Collapse No. 60","type":"Collapse","id":"1224","url":"https://www.mcra.org.uk/registry/sitedetails.php?id=1224"},"geometry":{"type":"Point","coordinates":[-2.800872,51.315128]}},{"type":"Feature","properties":{"name":"Shipham Collapse No. 61","type":"Collapse","id":"1225","url":"https://www.mcra.org.uk/registry/sitedetails.php?id=1225"},"geometry":{"type":"Point","coordinates":[-2.801014,51.315037]}},{"type":"Feature","properties":{"name":"Shipham Collapse No. 62","type":"Collapse","id":"1226","url":"https://www.mcra.org.uk/registry/sitedetails.php?id=1226"},"geometry":{"type":"Point","coordinates":[-2.801313,51.314945]}},{"type":"Feature","properties":{"name":"Shipham Collapse No. 63","type":"Collapse","id":"1227","url":"https://www.mcra.org.uk/registry/sitedetails.php?id=1227"},"geometry":{"type":"Point","coordinates":[-2.80101,51.314857]}},{"type":"Feature","properties":{"name":"Shipham Collapse No. 64","type":"Collapse","id":"1228","url":"https://www.mcra.org.uk/registry/sitedetails.php?id=1228"},"geometry":{"type":"Point","coordinates":[-2.801874,51.315031]}},{"type":"Feature","properties":{"name":"Shipham Collapse No. 65","type":"Collapse","id":"1229","url":"https://www.mcra.org.uk/registry/sitedetails.php?id=1229"},"geometry":{"type":"Point","coordinates":[-2.801729,51.314942]}},{"type":"Feature","properties":{"name":"Shipham Collapse No. 66","type":"Collapse","id":"1230","url":"https://www.mcra.org.uk/registry/sitedetails.php?id=1230"},"geometry":{"type":"Point","coordinates":[-2.800146,51.314638]}},{"type":"Feature","properties":{"name":"Shipham Collapse No. 67","type":"Collapse","id":"1231","url":"https://www.mcra.org.uk/registry/sitedetails.php?id=1231"},"geometry":{"type":"Point","coordinates":[-2.800567,51.314141]}},{"type":"Feature","properties":{"name":"Shipham Collapse No. 68","type":"Collapse","id":"1232","url":"https://www.mcra.org.uk/registry/sitedetails.php?id=1232"},"geometry":{"type":"Point","coordinates":[-2.800858,51.314319]}},{"type":"Feature","properties":{"name":"Shipham Collapse No. 69","type":"Collapse","id":"1233","url":"https://www.mcra.org.uk/registry/sitedetails.php?id=1233"},"geometry":{"type":"Point","coordinates":[-2.800432,51.314591]}},{"type":"Feature","properties":{"name":"Shipham Collapse No. 70","type":"Collapse","id":"1234","url":"https://www.mcra.org.uk/registry/sitedetails.php?id=1234"},"geometry":{"type":"Point","coordinates":[-2.789786,51.312955]}},{"type":"Feature","properties":{"name":"Shipham Collapse No. 71","type":"Collapse","id":"1235","url":"https://www.mcra.org.uk/registry/sitedetails.php?id=1235"},"geometry":{"type":"Point","coordinates":[-2.79517,51.317325]}},{"type":"Feature","properties":{"name":"Shipham Collapse No. 72","type":"Collapse","id":"1236","url":"https://www.mcra.org.uk/registry/sitedetails.php?id=1236"},"geometry":{"type":"Point","coordinates":[-2.796593,51.316596]}},{"type":"Feature","properties":{"name":"Shipham Collapse No. 73","type":"Collapse","id":"1237","url":"https://www.mcra.org.uk/registry/sitedetails.php?id=1237"},"geometry":{"type":"Point","coordinates":[-2.793804,51.313018]}},{"type":"Feature","properties":{"name":"Shipham Collapse No. 74","type":"Collapse","id":"1238","url":"https://www.mcra.org.uk/registry/sitedetails.php?id=1238"},"geometry":{"type":"Point","coordinates":[-2.792941,51.312844]}},{"type":"Feature","properties":{"name":"Shipham Collapse No. 75","type":"Collapse","id":"1239","url":"https://www.mcra.org.uk/registry/sitedetails.php?id=1239"},"geometry":{"type":"Point","coordinates":[-2.793299,51.316978]}},{"type":"Feature","properties":{"name":"Shipham Collapse No. 76","type":"Collapse","id":"1240","url":"https://www.mcra.org.uk/registry/sitedetails.php?id=1240"},"geometry":{"type":"Point","coordinates":[-2.806886,51.314457]}},{"type":"Feature","properties":{"name":"Shipham Collapse No. 77","type":"Collapse","id":"1241","url":"https://www.mcra.org.uk/registry/sitedetails.php?id=1241"},"geometry":{"type":"Point","coordinates":[-2.792941,51.312844]}},{"type":"Feature","properties":{"name":"Shipham Collapse No. 78","type":"Collapse","id":"1242","url":"https://www.mcra.org.uk/registry/sitedetails.php?id=1242"},"geometry":{"type":"Point","coordinates":[-2.807332,51.315353]}},{"type":"Feature","properties":{"name":"Shipham Collapse No. 79","type":"Collapse","id":"1243","url":"https://www.mcra.org.uk/registry/sitedetails.php?id=1243"},"geometry":{"type":"Point","coordinates":[-2.804583,51.314024]}},{"type":"Feature","properties":{"name":"Shipham Collapse No. 80","type":"Collapse","id":"1244","url":"https://www.mcra.org.uk/registry/sitedetails.php?id=1244"},"geometry":{"type":"Point","coordinates":[-2.80487,51.314022]}},{"type":"Feature","properties":{"name":"Shipham Collapse No. 82","type":"Collapse","id":"2209","url":"https://www.mcra.org.uk/registry/sitedetails.php?id=2209"},"geometry":{"type":"Point","coordinates":[-2.792017,51.312563]}},{"type":"Feature","properties":{"name":"Shipham Collapse No. 83","type":"Collapse","id":"2210","url":"https://www.mcra.org.uk/registry/sitedetails.php?id=2210"},"geometry":{"type":"Point","coordinates":[-2.793254,51.311871]}},{"type":"Feature","properties":{"name":"Shipham Collapse No. 84","type":"Collapse","id":"3093","url":"https://www.mcra.org.uk/registry/sitedetails.php?id=3093"},"geometry":{"type":"Point","coordinates":[-2.798909,51.316113]}},{"type":"Feature","properties":{"name":"Shipham Collapse No. 86","type":"Collapse","id":"3102","url":"https://www.mcra.org.uk/registry/sitedetails.php?id=3102"},"geometry":{"type":"Point","coordinates":[-2.801297,51.314855]}},{"type":"Feature","properties":{"name":"Star Collapse Number 1","type":"Collapse","id":"1100","url":"https://www.mcra.org.uk/registry/sitedetails.php?id=1100"},"geometry":{"type":"Point","coordinates":[-2.805149,51.321753]}},{"type":"Feature","properties":{"name":"Star Collapse Number 2","type":"Collapse","id":"1099","url":"https://www.mcra.org.uk/registry/sitedetails.php?id=1099"},"geometry":{"type":"Point","coordinates":[-2.802279,51.321772]}},{"type":"Feature","properties":{"name":"Helictite Well","type":"Well","id":"879","url":"https://www.mcra.org.uk/registry/sitedetails.php?id=879"},"geometry":{"type":"Point","coordinates":[-2.798957,51.312264]}},{"type":"Feature","properties":{"name":"MCRA-SH-13","type":"Unclassified site","id":"2196","url":"https://www.mcra.org.uk/registry/sitedetails.php?id=2196"},"geometry":{"type":"Point","coordinates":[-2.816191,51.329409]}},{"type":"Feature","properties":{"name":"Pseudo Udders Hole","type":"Unclassified site","id":"2126","url":"https://www.mcra.org.uk/registry/sitedetails.php?id=2126"},"geometry":{"type":"Point","coordinates":[-2.81965,51.330194]}},{"type":"Feature","properties":{"name":"Rowberrow Forest Swallet","type":"Unclassified site","id":"3270","url":"https://www.mcra.org.uk/registry/sitedetails.php?id=3270"},"geometry":{"type":"Point","coordinates":[-2.767126,51.313556]}},{"type":"Feature","properties":{"name":"Rowberrow Lane Mine","type":"Unclassified site","id":"3035","url":"https://www.mcra.org.uk/registry/sitedetails.php?id=3035"},"geometry":{"type":"Point","coordinates":[-2.792561,51.315814]}}]}