{"type":"FeatureCollection","features":[{"type":"Feature","properties":{"name":"Hedgerow Collapse","type":"Collapse","id":"1101","url":"https://www.mcra.org.uk/registry/sitedetails.php?id=1101","source":"Mendip Cave Registry"},"geometry":{"type":"Point","coordinates":[-2.801405,51.321059]}},{"type":"Feature","properties":{"name":"Rover Hole","type":"Collapse","id":"884","url":"https://www.mcra.org.uk/registry/sitedetails.php?id=884","source":"Mendip Cave Registry"},"geometry":{"type":"Point","coordinates":[-2.800583,51.31504]}},{"type":"Feature","properties":{"name":"Rowberrow Beach Collapse 1","type":"Collapse","id":"1103","url":"https://www.mcra.org.uk/registry/sitedetails.php?id=1103","source":"Mendip Cave Registry"},"geometry":{"type":"Point","coordinates":[-2.798225,51.319732]}},{"type":"Feature","properties":{"name":"Rowberrow Beach Collapse 2","type":"Collapse","id":"1102","url":"https://www.mcra.org.uk/registry/sitedetails.php?id=1102","source":"Mendip Cave Registry"},"geometry":{"type":"Point","coordinates":[-2.798082,51.319733]}},{"type":"Feature","properties":{"name":"Rowberrow Beach Collapse 3","type":"Collapse","id":"1104","url":"https://www.mcra.org.uk/registry/sitedetails.php?id=1104","source":"Mendip Cave Registry"},"geometry":{"type":"Point","coordinates":[-2.797938,51.319734]}},{"type":"Feature","properties":{"name":"Shipham Collapse","type":"Collapse","id":"887","url":"https://www.mcra.org.uk/registry/sitedetails.php?id=887","source":"Mendip Cave Registry"},"geometry":{"type":"Point","coordinates":[-2.800006,51.314864]}},{"type":"Feature","properties":{"name":"Shipham Collapse No. 01","type":"Collapse","id":"1165","url":"https://www.mcra.org.uk/registry/sitedetails.php?id=1165","source":"Mendip Cave Registry"},"geometry":{"type":"Point","coordinates":[-2.794116,51.314455]}},{"type":"Feature","properties":{"name":"Shipham Collapse No. 02","type":"Collapse","id":"1166","url":"https://www.mcra.org.uk/registry/sitedetails.php?id=1166","source":"Mendip Cave Registry"},"geometry":{"type":"Point","coordinates":[-2.793974,51.314546]}},{"type":"Feature","properties":{"name":"Shipham Collapse No. 03","type":"Collapse","id":"1167","url":"https://www.mcra.org.uk/registry/sitedetails.php?id=1167","source":"Mendip Cave Registry"},"geometry":{"type":"Point","coordinates":[-2.793831,51.314547]}},{"type":"Feature","properties":{"name":"Shipham Collapse No. 04","type":"Collapse","id":"1168","url":"https://www.mcra.org.uk/registry/sitedetails.php?id=1168","source":"Mendip Cave Registry"},"geometry":{"type":"Point","coordinates":[-2.793541,51.314369]}},{"type":"Feature","properties":{"name":"Shipham Collapse No. 05","type":"Collapse","id":"1169","url":"https://www.mcra.org.uk/registry/sitedetails.php?id=1169","source":"Mendip Cave Registry"},"geometry":{"type":"Point","coordinates":[-2.793538,51.314189]}},{"type":"Feature","properties":{"name":"Shipham Collapse No. 06","type":"Collapse","id":"1170","url":"https://www.mcra.org.uk/registry/sitedetails.php?id=1170","source":"Mendip Cave Registry"},"geometry":{"type":"Point","coordinates":[-2.793536,51.314099]}},{"type":"Feature","properties":{"name":"Shipham Collapse No. 07","type":"Collapse","id":"1171","url":"https://www.mcra.org.uk/registry/sitedetails.php?id=1171","source":"Mendip Cave Registry"},"geometry":{"type":"Point","coordinates":[-2.793535,51.314009]}},{"type":"Feature","properties":{"name":"Shipham Collapse No. 08","type":"Collapse","id":"1172","url":"https://www.mcra.org.uk/registry/sitedetails.php?id=1172","source":"Mendip Cave Registry"},"geometry":{"type":"Point","coordinates":[-2.793829,51.314457]}},{"type":"Feature","properties":{"name":"Shipham Collapse No. 09","type":"Collapse","id":"1173","url":"https://www.mcra.org.uk/registry/sitedetails.php?id=1173","source":"Mendip Cave Registry"},"geometry":{"type":"Point","coordinates":[-2.798414,51.314066]}},{"type":"Feature","properties":{"name":"Shipham Collapse No. 10","type":"Collapse","id":"1174","url":"https://www.mcra.org.uk/registry/sitedetails.php?id=1174","source":"Mendip Cave Registry"},"geometry":{"type":"Point","coordinates":[-2.798127,51.314068]}},{"type":"Feature","properties":{"name":"Shipham Collapse No. 11","type":"Collapse","id":"1175","url":"https://www.mcra.org.uk/registry/sitedetails.php?id=1175","source":"Mendip Cave Registry"},"geometry":{"type":"Point","coordinates":[-2.798129,51.314158]}},{"type":"Feature","properties":{"name":"Shipham Collapse No. 12","type":"Collapse","id":"1176","url":"https://www.mcra.org.uk/registry/sitedetails.php?id=1176","source":"Mendip Cave Registry"},"geometry":{"type":"Point","coordinates":[-2.798129,51.314158]}},{"type":"Feature","properties":{"name":"Shipham Collapse No. 13","type":"Collapse","id":"1177","url":"https://www.mcra.org.uk/registry/sitedetails.php?id=1177","source":"Mendip Cave Registry"},"geometry":{"type":"Point","coordinates":[-2.798414,51.314066]}},{"type":"Feature","properties":{"name":"Shipham Collapse No. 14","type":"Collapse","id":"1178","url":"https://www.mcra.org.uk/registry/sitedetails.php?id=1178","source":"Mendip Cave Registry"},"geometry":{"type":"Point","coordinates":[-2.798411,51.313886]}},{"type":"Feature","properties":{"name":"Shipham Collapse No. 15","type":"Collapse","id":"1179","url":"https://www.mcra.org.uk/registry/sitedetails.php?id=1179","source":"Mendip Cave Registry"},"geometry":{"type":"Point","coordinates":[-2.798841,51.313883]}},{"type":"Feature","properties":{"name":"Shipham Collapse No. 16","type":"Collapse","id":"1180","url":"https://www.mcra.org.uk/registry/sitedetails.php?id=1180","source":"Mendip Cave Registry"},"geometry":{"type":"Point","coordinates":[-2.799279,51.31433]}},{"type":"Feature","properties":{"name":"Shipham Collapse No. 17","type":"Collapse","id":"1181","url":"https://www.mcra.org.uk/registry/sitedetails.php?id=1181","source":"Mendip Cave Registry"},"geometry":{"type":"Point","coordinates":[-2.799278,51.31424]}},{"type":"Feature","properties":{"name":"Shipham Collapse No. 18","type":"Collapse","id":"1182","url":"https://www.mcra.org.uk/registry/sitedetails.php?id=1182","source":"Mendip Cave Registry"},"geometry":{"type":"Point","coordinates":[-2.799278,51.31424]}},{"type":"Feature","properties":{"name":"Shipham Collapse No. 19","type":"Collapse","id":"1183","url":"https://www.mcra.org.uk/registry/sitedetails.php?id=1183","source":"Mendip Cave Registry"},"geometry":{"type":"Point","coordinates":[-2.799421,51.314239]}},{"type":"Feature","properties":{"name":"Shipham Collapse No. 20","type":"Collapse","id":"1184","url":"https://www.mcra.org.uk/registry/sitedetails.php?id=1184","source":"Mendip Cave Registry"},"geometry":{"type":"Point","coordinates":[-2.790525,51.314209]}},{"type":"Feature","properties":{"name":"Shipham Collapse No. 21","type":"Collapse","id":"1185","url":"https://www.mcra.org.uk/registry/sitedetails.php?id=1185","source":"Mendip Cave Registry"},"geometry":{"type":"Point","coordinates":[-2.799702,51.313877]}},{"type":"Feature","properties":{"name":"Shipham Collapse No. 22","type":"Collapse","id":"1186","url":"https://www.mcra.org.uk/registry/sitedetails.php?id=1186","source":"Mendip Cave Registry"},"geometry":{"type":"Point","coordinates":[-2.799702,51.313877]}},{"type":"Feature","properties":{"name":"Shipham Collapse No. 23","type":"Collapse","id":"1187","url":"https://www.mcra.org.uk/registry/sitedetails.php?id=1187","source":"Mendip Cave Registry"},"geometry":{"type":"Point","coordinates":[-2.798132,51.314337]}},{"type":"Feature","properties":{"name":"Shipham Collapse No. 24","type":"Collapse","id":"1188","url":"https://www.mcra.org.uk/registry/sitedetails.php?id=1188","source":"Mendip Cave Registry"},"geometry":{"type":"Point","coordinates":[-2.798996,51.314511]}},{"type":"Feature","properties":{"name":"Shipham Collapse No. 25","type":"Collapse","id":"1189","url":"https://www.mcra.org.uk/registry/sitedetails.php?id=1189","source":"Mendip Cave Registry"},"geometry":{"type":"Point","coordinates":[-2.797248,51.312995]}},{"type":"Feature","properties":{"name":"Shipham Collapse No. 26","type":"Collapse","id":"1190","url":"https://www.mcra.org.uk/registry/sitedetails.php?id=1190","source":"Mendip Cave Registry"},"geometry":{"type":"Point","coordinates":[-2.796972,51.313626]}},{"type":"Feature","properties":{"name":"Shipham Collapse No. 27","type":"Collapse","id":"1191","url":"https://www.mcra.org.uk/registry/sitedetails.php?id=1191","source":"Mendip Cave Registry"},"geometry":{"type":"Point","coordinates":[-2.797046,51.313796]}},{"type":"Feature","properties":{"name":"Shipham Collapse No. 28","type":"Collapse","id":"1192","url":"https://www.mcra.org.uk/registry/sitedetails.php?id=1192","source":"Mendip Cave Registry"},"geometry":{"type":"Point","coordinates":[-2.796543,51.313719]}},{"type":"Feature","properties":{"name":"Shipham Collapse No. 29","type":"Collapse","id":"1193","url":"https://www.mcra.org.uk/registry/sitedetails.php?id=1193","source":"Mendip Cave Registry"},"geometry":{"type":"Point","coordinates":[-2.796543,51.313719]}},{"type":"Feature","properties":{"name":"Shipham Collapse No. 30","type":"Collapse","id":"1194","url":"https://www.mcra.org.uk/registry/sitedetails.php?id=1194","source":"Mendip Cave Registry"},"geometry":{"type":"Point","coordinates":[-2.796543,51.313719]}},{"type":"Feature","properties":{"name":"Shipham Collapse No. 31","type":"Collapse","id":"1195","url":"https://www.mcra.org.uk/registry/sitedetails.php?id=1195","source":"Mendip Cave Registry"},"geometry":{"type":"Point","coordinates":[-2.796543,51.313719]}},{"type":"Feature","properties":{"name":"Shipham Collapse No. 32","type":"Collapse","id":"1196","url":"https://www.mcra.org.uk/registry/sitedetails.php?id=1196","source":"Mendip Cave Registry"},"geometry":{"type":"Point","coordinates":[-2.795393,51.313637]}},{"type":"Feature","properties":{"name":"Shipham Collapse No. 33","type":"Collapse","id":"1197","url":"https://www.mcra.org.uk/registry/sitedetails.php?id=1197","source":"Mendip Cave Registry"},"geometry":{"type":"Point","coordinates":[-2.79525,51.313638]}},{"type":"Feature","properties":{"name":"Shipham Collapse No. 34","type":"Collapse","id":"1198","url":"https://www.mcra.org.uk/registry/sitedetails.php?id=1198","source":"Mendip Cave Registry"},"geometry":{"type":"Point","coordinates":[-2.795241,51.313098]}},{"type":"Feature","properties":{"name":"Shipham Collapse No. 35","type":"Collapse","id":"1199","url":"https://www.mcra.org.uk/registry/sitedetails.php?id=1199","source":"Mendip Cave Registry"},"geometry":{"type":"Point","coordinates":[-2.795531,51.313276]}},{"type":"Feature","properties":{"name":"Shipham Collapse No. 36","type":"Collapse","id":"1200","url":"https://www.mcra.org.uk/registry/sitedetails.php?id=1200","source":"Mendip Cave Registry"},"geometry":{"type":"Point","coordinates":[-2.795674,51.313275]}},{"type":"Feature","properties":{"name":"Shipham Collapse No. 37","type":"Collapse","id":"1201","url":"https://www.mcra.org.uk/registry/sitedetails.php?id=1201","source":"Mendip Cave Registry"},"geometry":{"type":"Point","coordinates":[-2.7951,51.313279]}},{"type":"Feature","properties":{"name":"Shipham Collapse No. 38","type":"Collapse","id":"1202","url":"https://www.mcra.org.uk/registry/sitedetails.php?id=1202","source":"Mendip Cave Registry"},"geometry":{"type":"Point","coordinates":[-2.796689,51.313898]}},{"type":"Feature","properties":{"name":"Shipham Collapse No. 39","type":"Collapse","id":"1203","url":"https://www.mcra.org.uk/registry/sitedetails.php?id=1203","source":"Mendip Cave Registry"},"geometry":{"type":"Point","coordinates":[-2.797408,51.313983]}},{"type":"Feature","properties":{"name":"Shipham Collapse No. 40","type":"Collapse","id":"1204","url":"https://www.mcra.org.uk/registry/sitedetails.php?id=1204","source":"Mendip Cave Registry"},"geometry":{"type":"Point","coordinates":[-2.797839,51.31398]}},{"type":"Feature","properties":{"name":"Shipham Collapse No. 41","type":"Collapse","id":"1205","url":"https://www.mcra.org.uk/registry/sitedetails.php?id=1205","source":"Mendip Cave Registry"},"geometry":{"type":"Point","coordinates":[-2.797982,51.313979]}},{"type":"Feature","properties":{"name":"Shipham Collapse No. 42","type":"Collapse","id":"1206","url":"https://www.mcra.org.uk/registry/sitedetails.php?id=1206","source":"Mendip Cave Registry"},"geometry":{"type":"Point","coordinates":[-2.796262,51.31408]}},{"type":"Feature","properties":{"name":"Shipham Collapse No. 43","type":"Collapse","id":"1207","url":"https://www.mcra.org.uk/registry/sitedetails.php?id=1207","source":"Mendip Cave Registry"},"geometry":{"type":"Point","coordinates":[-2.796125,51.314441]}},{"type":"Feature","properties":{"name":"Shipham Collapse No. 44","type":"Collapse","id":"1208","url":"https://www.mcra.org.uk/registry/sitedetails.php?id=1208","source":"Mendip Cave Registry"},"geometry":{"type":"Point","coordinates":[-2.795549,51.314355]}},{"type":"Feature","properties":{"name":"Shipham Collapse No. 45","type":"Collapse","id":"1209","url":"https://www.mcra.org.uk/registry/sitedetails.php?id=1209","source":"Mendip Cave Registry"},"geometry":{"type":"Point","coordinates":[-2.796984,51.314345]}},{"type":"Feature","properties":{"name":"Shipham Collapse No. 46","type":"Collapse","id":"1210","url":"https://www.mcra.org.uk/registry/sitedetails.php?id=1210","source":"Mendip Cave Registry"},"geometry":{"type":"Point","coordinates":[-2.794548,51.314542]}},{"type":"Feature","properties":{"name":"Shipham Collapse No. 47","type":"Collapse","id":"1211","url":"https://www.mcra.org.uk/registry/sitedetails.php?id=1211","source":"Mendip Cave Registry"},"geometry":{"type":"Point","coordinates":[-2.796702,51.314617]}},{"type":"Feature","properties":{"name":"Shipham Collapse No. 48","type":"Collapse","id":"1212","url":"https://www.mcra.org.uk/registry/sitedetails.php?id=1212","source":"Mendip Cave Registry"},"geometry":{"type":"Point","coordinates":[-2.797156,51.315963]}},{"type":"Feature","properties":{"name":"Shipham Collapse No. 49","type":"Collapse","id":"1213","url":"https://www.mcra.org.uk/registry/sitedetails.php?id=1213","source":"Mendip Cave Registry"},"geometry":{"type":"Point","coordinates":[-2.79489,51.316068]}},{"type":"Feature","properties":{"name":"Shipham Collapse No. 50","type":"Collapse","id":"1214","url":"https://www.mcra.org.uk/registry/sitedetails.php?id=1214","source":"Mendip Cave Registry"},"geometry":{"type":"Point","coordinates":[-2.794804,51.31606]}},{"type":"Feature","properties":{"name":"Shipham Collapse No. 51","type":"Collapse","id":"1215","url":"https://www.mcra.org.uk/registry/sitedetails.php?id=1215","source":"Mendip Cave Registry"},"geometry":{"type":"Point","coordinates":[-2.797282,51.314973]}},{"type":"Feature","properties":{"name":"Shipham Collapse No. 52","type":"Collapse","id":"1216","url":"https://www.mcra.org.uk/registry/sitedetails.php?id=1216","source":"Mendip Cave Registry"},"geometry":{"type":"Point","coordinates":[-2.79772,51.315419]}},{"type":"Feature","properties":{"name":"Shipham Collapse No. 53","type":"Collapse","id":"1217","url":"https://www.mcra.org.uk/registry/sitedetails.php?id=1217","source":"Mendip Cave Registry"},"geometry":{"type":"Point","coordinates":[-2.797432,51.315331]}},{"type":"Feature","properties":{"name":"Shipham Collapse No. 54","type":"Collapse","id":"1218","url":"https://www.mcra.org.uk/registry/sitedetails.php?id=1218","source":"Mendip Cave Registry"},"geometry":{"type":"Point","coordinates":[-2.797428,51.315152]}},{"type":"Feature","properties":{"name":"Shipham Collapse No. 55","type":"Collapse","id":"1219","url":"https://www.mcra.org.uk/registry/sitedetails.php?id=1219","source":"Mendip Cave Registry"},"geometry":{"type":"Point","coordinates":[-2.797145,51.315333]}},{"type":"Feature","properties":{"name":"Shipham Collapse No. 56","type":"Collapse","id":"1220","url":"https://www.mcra.org.uk/registry/sitedetails.php?id=1220","source":"Mendip Cave Registry"},"geometry":{"type":"Point","coordinates":[-2.796566,51.315067]}},{"type":"Feature","properties":{"name":"Shipham Collapse No. 57","type":"Collapse","id":"1221","url":"https://www.mcra.org.uk/registry/sitedetails.php?id=1221","source":"Mendip Cave Registry"},"geometry":{"type":"Point","coordinates":[-2.797587,51.31605]}},{"type":"Feature","properties":{"name":"Shipham Collapse No. 58","type":"Collapse","id":"1222","url":"https://www.mcra.org.uk/registry/sitedetails.php?id=1222","source":"Mendip Cave Registry"},"geometry":{"type":"Point","coordinates":[-2.798598,51.316402]}},{"type":"Feature","properties":{"name":"Shipham Collapse No. 59","type":"Collapse","id":"1223","url":"https://www.mcra.org.uk/registry/sitedetails.php?id=1223","source":"Mendip Cave Registry"},"geometry":{"type":"Point","coordinates":[-2.798601,51.316582]}},{"type":"Feature","properties":{"name":"Shipham Collapse No. 60","type":"Collapse","id":"1224","url":"https://www.mcra.org.uk/registry/sitedetails.php?id=1224","source":"Mendip Cave Registry"},"geometry":{"type":"Point","coordinates":[-2.800872,51.315128]}},{"type":"Feature","properties":{"name":"Shipham Collapse No. 61","type":"Collapse","id":"1225","url":"https://www.mcra.org.uk/registry/sitedetails.php?id=1225","source":"Mendip Cave Registry"},"geometry":{"type":"Point","coordinates":[-2.801014,51.315037]}},{"type":"Feature","properties":{"name":"Shipham Collapse No. 62","type":"Collapse","id":"1226","url":"https://www.mcra.org.uk/registry/sitedetails.php?id=1226","source":"Mendip Cave Registry"},"geometry":{"type":"Point","coordinates":[-2.801313,51.314945]}},{"type":"Feature","properties":{"name":"Shipham Collapse No. 63","type":"Collapse","id":"1227","url":"https://www.mcra.org.uk/registry/sitedetails.php?id=1227","source":"Mendip Cave Registry"},"geometry":{"type":"Point","coordinates":[-2.80101,51.314857]}},{"type":"Feature","properties":{"name":"Shipham Collapse No. 64","type":"Collapse","id":"1228","url":"https://www.mcra.org.uk/registry/sitedetails.php?id=1228","source":"Mendip Cave Registry"},"geometry":{"type":"Point","coordinates":[-2.801874,51.315031]}},{"type":"Feature","properties":{"name":"Shipham Collapse No. 65","type":"Collapse","id":"1229","url":"https://www.mcra.org.uk/registry/sitedetails.php?id=1229","source":"Mendip Cave Registry"},"geometry":{"type":"Point","coordinates":[-2.801729,51.314942]}},{"type":"Feature","properties":{"name":"Shipham Collapse No. 66","type":"Collapse","id":"1230","url":"https://www.mcra.org.uk/registry/sitedetails.php?id=1230","source":"Mendip Cave Registry"},"geometry":{"type":"Point","coordinates":[-2.800146,51.314638]}},{"type":"Feature","properties":{"name":"Shipham Collapse No. 67","type":"Collapse","id":"1231","url":"https://www.mcra.org.uk/registry/sitedetails.php?id=1231","source":"Mendip Cave Registry"},"geometry":{"type":"Point","coordinates":[-2.800567,51.314141]}},{"type":"Feature","properties":{"name":"Shipham Collapse No. 68","type":"Collapse","id":"1232","url":"https://www.mcra.org.uk/registry/sitedetails.php?id=1232","source":"Mendip Cave Registry"},"geometry":{"type":"Point","coordinates":[-2.800858,51.314319]}},{"type":"Feature","properties":{"name":"Shipham Collapse No. 69","type":"Collapse","id":"1233","url":"https://www.mcra.org.uk/registry/sitedetails.php?id=1233","source":"Mendip Cave Registry"},"geometry":{"type":"Point","coordinates":[-2.800432,51.314591]}},{"type":"Feature","properties":{"name":"Shipham Collapse No. 70","type":"Collapse","id":"1234","url":"https://www.mcra.org.uk/registry/sitedetails.php?id=1234","source":"Mendip Cave Registry"},"geometry":{"type":"Point","coordinates":[-2.789786,51.312955]}},{"type":"Feature","properties":{"name":"Shipham Collapse No. 71","type":"Collapse","id":"1235","url":"https://www.mcra.org.uk/registry/sitedetails.php?id=1235","source":"Mendip Cave Registry"},"geometry":{"type":"Point","coordinates":[-2.79517,51.317325]}},{"type":"Feature","properties":{"name":"Shipham Collapse No. 72","type":"Collapse","id":"1236","url":"https://www.mcra.org.uk/registry/sitedetails.php?id=1236","source":"Mendip Cave Registry"},"geometry":{"type":"Point","coordinates":[-2.796593,51.316596]}},{"type":"Feature","properties":{"name":"Shipham Collapse No. 73","type":"Collapse","id":"1237","url":"https://www.mcra.org.uk/registry/sitedetails.php?id=1237","source":"Mendip Cave Registry"},"geometry":{"type":"Point","coordinates":[-2.793804,51.313018]}},{"type":"Feature","properties":{"name":"Shipham Collapse No. 74","type":"Collapse","id":"1238","url":"https://www.mcra.org.uk/registry/sitedetails.php?id=1238","source":"Mendip Cave Registry"},"geometry":{"type":"Point","coordinates":[-2.792941,51.312844]}},{"type":"Feature","properties":{"name":"Shipham Collapse No. 75","type":"Collapse","id":"1239","url":"https://www.mcra.org.uk/registry/sitedetails.php?id=1239","source":"Mendip Cave Registry"},"geometry":{"type":"Point","coordinates":[-2.793299,51.316978]}},{"type":"Feature","properties":{"name":"Shipham Collapse No. 76","type":"Collapse","id":"1240","url":"https://www.mcra.org.uk/registry/sitedetails.php?id=1240","source":"Mendip Cave Registry"},"geometry":{"type":"Point","coordinates":[-2.806886,51.314457]}},{"type":"Feature","properties":{"name":"Shipham Collapse No. 77","type":"Collapse","id":"1241","url":"https://www.mcra.org.uk/registry/sitedetails.php?id=1241","source":"Mendip Cave Registry"},"geometry":{"type":"Point","coordinates":[-2.792941,51.312844]}},{"type":"Feature","properties":{"name":"Shipham Collapse No. 78","type":"Collapse","id":"1242","url":"https://www.mcra.org.uk/registry/sitedetails.php?id=1242","source":"Mendip Cave Registry"},"geometry":{"type":"Point","coordinates":[-2.807332,51.315353]}},{"type":"Feature","properties":{"name":"Shipham Collapse No. 79","type":"Collapse","id":"1243","url":"https://www.mcra.org.uk/registry/sitedetails.php?id=1243","source":"Mendip Cave Registry"},"geometry":{"type":"Point","coordinates":[-2.804583,51.314024]}},{"type":"Feature","properties":{"name":"Shipham Collapse No. 80","type":"Collapse","id":"1244","url":"https://www.mcra.org.uk/registry/sitedetails.php?id=1244","source":"Mendip Cave Registry"},"geometry":{"type":"Point","coordinates":[-2.80487,51.314022]}},{"type":"Feature","properties":{"name":"Shipham Collapse No. 82","type":"Collapse","id":"2209","url":"https://www.mcra.org.uk/registry/sitedetails.php?id=2209","source":"Mendip Cave Registry"},"geometry":{"type":"Point","coordinates":[-2.792017,51.312563]}},{"type":"Feature","properties":{"name":"Shipham Collapse No. 83","type":"Collapse","id":"2210","url":"https://www.mcra.org.uk/registry/sitedetails.php?id=2210","source":"Mendip Cave Registry"},"geometry":{"type":"Point","coordinates":[-2.793254,51.311871]}},{"type":"Feature","properties":{"name":"Shipham Collapse No. 84","type":"Collapse","id":"3093","url":"https://www.mcra.org.uk/registry/sitedetails.php?id=3093","source":"Mendip Cave Registry"},"geometry":{"type":"Point","coordinates":[-2.798909,51.316113]}},{"type":"Feature","properties":{"name":"Shipham Collapse No. 86","type":"Collapse","id":"3102","url":"https://www.mcra.org.uk/registry/sitedetails.php?id=3102","source":"Mendip Cave Registry"},"geometry":{"type":"Point","coordinates":[-2.801297,51.314855]}},{"type":"Feature","properties":{"name":"Star Collapse Number 1","type":"Collapse","id":"1100","url":"https://www.mcra.org.uk/registry/sitedetails.php?id=1100","source":"Mendip Cave Registry"},"geometry":{"type":"Point","coordinates":[-2.805149,51.321753]}},{"type":"Feature","properties":{"name":"Star Collapse Number 2","type":"Collapse","id":"1099","url":"https://www.mcra.org.uk/registry/sitedetails.php?id=1099","source":"Mendip Cave Registry"},"geometry":{"type":"Point","coordinates":[-2.802279,51.321772]}}]}