{"type":"FeatureCollection","features":[{"type":"Feature","properties":{"name":"ACG-05","type":"Mine","id":"2191","url":"https://www.mcra.org.uk/registry/sitedetails.php?id=2191","source":"Mendip Cave Registry"},"geometry":{"type":"Point","coordinates":[-2.82152,51.330451]}},{"type":"Feature","properties":{"name":"ACG-07","type":"Mine","id":"2192","url":"https://www.mcra.org.uk/registry/sitedetails.php?id=2192","source":"Mendip Cave Registry"},"geometry":{"type":"Point","coordinates":[-2.82209,51.330177]}},{"type":"Feature","properties":{"name":"Ash Tree Pit","type":"Mine","id":"3481","url":"https://www.mcra.org.uk/registry/sitedetails.php?id=3481","source":"Mendip Cave Registry"},"geometry":{"type":"Point","coordinates":[-2.790926,51.301672]}},{"type":"Feature","properties":{"name":"August Pit","type":"Mine","id":"873","url":"https://www.mcra.org.uk/registry/sitedetails.php?id=873","source":"Mendip Cave Registry","img":"https://www.mcra.org.uk/photoarchive/thumbs/2000/2011.jpg","imgBy":"Mendip Cave Registry & Archive","imgLic":"used with credit"},"geometry":{"type":"Point","coordinates":[-2.793931,51.312028]}},{"type":"Feature","properties":{"name":"Batch Gruff","type":"Mine","id":"1161","url":"https://www.mcra.org.uk/registry/sitedetails.php?id=1161","source":"Mendip Cave Registry"},"geometry":{"type":"Point","coordinates":[-2.798462,51.316853]}},{"type":"Feature","properties":{"name":"Blind Pit","type":"Mine","id":"1088","url":"https://www.mcra.org.uk/registry/sitedetails.php?id=1088","source":"Mendip Cave Registry","img":"https://www.mcra.org.uk/photoarchive/thumbs/1000/1313%20Blind%20Pit_1.jpg","imgBy":"Mendip Cave Registry & Archive","imgLic":"used with credit"},"geometry":{"type":"Point","coordinates":[-2.804564,51.320327]}},{"type":"Feature","properties":{"name":"Boot Mine","type":"Mine","id":"1094","url":"https://www.mcra.org.uk/registry/sitedetails.php?id=1094","source":"Mendip Cave Registry"},"geometry":{"type":"Point","coordinates":[-2.8046,51.31994]}},{"type":"Feature","properties":{"name":"Boulder Shaft","type":"Mine","id":"3203","url":"https://www.mcra.org.uk/registry/sitedetails.php?id=3203","source":"Mendip Cave Registry"},"geometry":{"type":"Point","coordinates":[-2.803911,51.320709]}},{"type":"Feature","properties":{"name":"Boulders Gruff","type":"Mine","id":"1163","url":"https://www.mcra.org.uk/registry/sitedetails.php?id=1163","source":"Mendip Cave Registry"},"geometry":{"type":"Point","coordinates":[-2.794877,51.316967]}},{"type":"Feature","properties":{"name":"Bramble Shaft","type":"Mine","id":"3072","url":"https://www.mcra.org.uk/registry/sitedetails.php?id=3072","source":"Mendip Cave Registry"},"geometry":{"type":"Point","coordinates":[-2.803604,51.319587]}},{"type":"Feature","properties":{"name":"Brooks' Shaft","type":"Mine","id":"1160","url":"https://www.mcra.org.uk/registry/sitedetails.php?id=1160","source":"Mendip Cave Registry"},"geometry":{"type":"Point","coordinates":[-2.793352,51.311762]}},{"type":"Feature","properties":{"name":"Bush Gruff","type":"Mine","id":"1158","url":"https://www.mcra.org.uk/registry/sitedetails.php?id=1158","source":"Mendip Cave Registry"},"geometry":{"type":"Point","coordinates":[-2.794877,51.316967]}},{"type":"Feature","properties":{"name":"Cemetery Shaft","type":"Mine","id":"1095","url":"https://www.mcra.org.uk/registry/sitedetails.php?id=1095","source":"Mendip Cave Registry"},"geometry":{"type":"Point","coordinates":[-2.799794,51.319182]}},{"type":"Feature","properties":{"name":"Classic Shaft","type":"Mine","id":"845","url":"https://www.mcra.org.uk/registry/sitedetails.php?id=845","source":"Mendip Cave Registry"},"geometry":{"type":"Point","coordinates":[-2.822185,51.327479]}},{"type":"Feature","properties":{"name":"Coffee Pot","type":"Mine","id":"2184","url":"https://www.mcra.org.uk/registry/sitedetails.php?id=2184","source":"Mendip Cave Registry"},"geometry":{"type":"Point","coordinates":[-2.822964,51.328535]}},{"type":"Feature","properties":{"name":"Collared Pit","type":"Mine","id":"3071","url":"https://www.mcra.org.uk/registry/sitedetails.php?id=3071","source":"Mendip Cave Registry"},"geometry":{"type":"Point","coordinates":[-2.803962,51.320385]}},{"type":"Feature","properties":{"name":"Cook's Gruff","type":"Mine","id":"1137","url":"https://www.mcra.org.uk/registry/sitedetails.php?id=1137","source":"Mendip Cave Registry"},"geometry":{"type":"Point","coordinates":[-2.795093,51.312829]}},{"type":"Feature","properties":{"name":"Cornish Shaft","type":"Mine","id":"1164","url":"https://www.mcra.org.uk/registry/sitedetails.php?id=1164","source":"Mendip Cave Registry"},"geometry":{"type":"Point","coordinates":[-2.806322,51.315001]}},{"type":"Feature","properties":{"name":"Court House Orchard Shaft","type":"Mine","id":"3037","url":"https://www.mcra.org.uk/registry/sitedetails.php?id=3037","source":"Mendip Cave Registry"},"geometry":{"type":"Point","coordinates":[-2.798966,51.312803]}},{"type":"Feature","properties":{"name":"Crocus Hole","type":"Mine","id":"876","url":"https://www.mcra.org.uk/registry/sitedetails.php?id=876","source":"Mendip Cave Registry"},"geometry":{"type":"Point","coordinates":[-2.805765,51.320049]}},{"type":"Feature","properties":{"name":"Crow Catch","type":"Mine","id":"1085","url":"https://www.mcra.org.uk/registry/sitedetails.php?id=1085","source":"Mendip Cave Registry"},"geometry":{"type":"Point","coordinates":[-2.791406,51.299555]}},{"type":"Feature","properties":{"name":"Daffers' Hole","type":"Mine","id":"1162","url":"https://www.mcra.org.uk/registry/sitedetails.php?id=1162","source":"Mendip Cave Registry"},"geometry":{"type":"Point","coordinates":[-2.798536,51.312806]}},{"type":"Feature","properties":{"name":"Daffodil Mine","type":"Mine","id":"877","url":"https://www.mcra.org.uk/registry/sitedetails.php?id=877","source":"Mendip Cave Registry","img":"https://www.mcra.org.uk/photoarchive/thumbs/1000/1314.jpg","imgBy":"Mendip Cave Registry & Archive","imgLic":"used with credit"},"geometry":{"type":"Point","coordinates":[-2.801078,51.317914]}},{"type":"Feature","properties":{"name":"Deep Groove Mine","type":"Mine","id":"2186","url":"https://www.mcra.org.uk/registry/sitedetails.php?id=2186","source":"Mendip Cave Registry"},"geometry":{"type":"Point","coordinates":[-2.817731,51.32724]}},{"type":"Feature","properties":{"name":"DGW Mine","type":"Mine","id":"1134","url":"https://www.mcra.org.uk/registry/sitedetails.php?id=1134","source":"Mendip Cave Registry","img":"https://www.mcra.org.uk/photoarchive/thumbs/1000/1316%20DGW%20Mine_1.jpg","imgBy":"Mendip Cave Registry & Archive","imgLic":"used with credit"},"geometry":{"type":"Point","coordinates":[-2.799477,51.31743]}},{"type":"Feature","properties":{"name":"Dolebury Levvy","type":"Mine","id":"837","url":"https://www.mcra.org.uk/registry/sitedetails.php?id=837","source":"Mendip Cave Registry","img":"https://www.mcra.org.uk/photoarchive/thumbs/0500/0918%20Dolebury%20Levy.jpg","imgBy":"Mendip Cave Registry & Archive","imgLic":"used with credit"},"geometry":{"type":"Point","coordinates":[-2.788385,51.324969]}},{"type":"Feature","properties":{"name":"Dolebury Warren Mineshaft","type":"Mine","id":"838","url":"https://www.mcra.org.uk/registry/sitedetails.php?id=838","source":"Mendip Cave Registry"},"geometry":{"type":"Point","coordinates":[-2.779099,51.325786]}},{"type":"Feature","properties":{"name":"Drake's Collapse","type":"Mine","id":"1884","url":"https://www.mcra.org.uk/registry/sitedetails.php?id=1884","source":"Mendip Cave Registry"},"geometry":{"type":"Point","coordinates":[-2.793816,51.31452]}},{"type":"Feature","properties":{"name":"Ellis' Wonder","type":"Mine","id":"846","url":"https://www.mcra.org.uk/registry/sitedetails.php?id=846","source":"Mendip Cave Registry"},"geometry":{"type":"Point","coordinates":[-2.817264,51.329222]}},{"type":"Feature","properties":{"name":"Fern Mine","type":"Mine","id":"847","url":"https://www.mcra.org.uk/registry/sitedetails.php?id=847","source":"Mendip Cave Registry"},"geometry":{"type":"Point","coordinates":[-2.820632,51.328929]}},{"type":"Feature","properties":{"name":"Field Mouse Hole","type":"Mine","id":"1152","url":"https://www.mcra.org.uk/registry/sitedetails.php?id=1152","source":"Mendip Cave Registry"},"geometry":{"type":"Point","coordinates":[-2.795966,51.313543]}},{"type":"Feature","properties":{"name":"Forty Acres Mine","type":"Mine","id":"3144","url":"https://www.mcra.org.uk/registry/sitedetails.php?id=3144","source":"Mendip Cave Registry"},"geometry":{"type":"Point","coordinates":[-2.81131,51.298439]}},{"type":"Feature","properties":{"name":"Fountain Gruff","type":"Mine","id":"1151","url":"https://www.mcra.org.uk/registry/sitedetails.php?id=1151","source":"Mendip Cave Registry"},"geometry":{"type":"Point","coordinates":[-2.799861,51.314775]}},{"type":"Feature","properties":{"name":"Fountain Mine","type":"Mine","id":"878","url":"https://www.mcra.org.uk/registry/sitedetails.php?id=878","source":"Mendip Cave Registry"},"geometry":{"type":"Point","coordinates":[-2.80375,51.315648]}},{"type":"Feature","properties":{"name":"Girl's Hole","type":"Mine","id":"2770","url":"https://www.mcra.org.uk/registry/sitedetails.php?id=2770","source":"Mendip Cave Registry"},"geometry":{"type":"Point","coordinates":[-2.815105,51.32725]}},{"type":"Feature","properties":{"name":"Glover's Gruff","type":"Mine","id":"1155","url":"https://www.mcra.org.uk/registry/sitedetails.php?id=1155","source":"Mendip Cave Registry"},"geometry":{"type":"Point","coordinates":[-2.796307,51.316688]}},{"type":"Feature","properties":{"name":"Glover's Shaft","type":"Mine","id":"1154","url":"https://www.mcra.org.uk/registry/sitedetails.php?id=1154","source":"Mendip Cave Registry"},"geometry":{"type":"Point","coordinates":[-2.795668,51.312915]}},{"type":"Feature","properties":{"name":"Gobber Hole","type":"Mine","id":"1150","url":"https://www.mcra.org.uk/registry/sitedetails.php?id=1150","source":"Mendip Cave Registry"},"geometry":{"type":"Point","coordinates":[-2.798551,51.313705]}},{"type":"Feature","properties":{"name":"Gran's Discovery","type":"Mine","id":"848","url":"https://www.mcra.org.uk/registry/sitedetails.php?id=848","source":"Mendip Cave Registry"},"geometry":{"type":"Point","coordinates":[-2.817336,51.329221]}},{"type":"Feature","properties":{"name":"Groof House Shafts","type":"Mine","id":"3107","url":"https://www.mcra.org.uk/registry/sitedetails.php?id=3107","source":"Mendip Cave Registry"},"geometry":{"type":"Point","coordinates":[-2.819772,51.329025]}},{"type":"Feature","properties":{"name":"Ham Mine - 1","type":"Mine","id":"1065","url":"https://www.mcra.org.uk/registry/sitedetails.php?id=1065","source":"Mendip Cave Registry"},"geometry":{"type":"Point","coordinates":[-2.80517,51.322984]}},{"type":"Feature","properties":{"name":"Ham Mine - 2","type":"Mine","id":"1066","url":"https://www.mcra.org.uk/registry/sitedetails.php?id=1066","source":"Mendip Cave Registry"},"geometry":{"type":"Point","coordinates":[-2.805325,51.322804]}},{"type":"Feature","properties":{"name":"Ham Mine - 3","type":"Mine","id":"1067","url":"https://www.mcra.org.uk/registry/sitedetails.php?id=1067","source":"Mendip Cave Registry"},"geometry":{"type":"Point","coordinates":[-2.805212,51.322921]}},{"type":"Feature","properties":{"name":"Hayes Rift Mine","type":"Mine","id":"1955","url":"https://www.mcra.org.uk/registry/sitedetails.php?id=1955","source":"Mendip Cave Registry","img":"https://www.mcra.org.uk/photoarchive/thumbs/1000/1362%20HaysRift.jpg","imgBy":"Mendip Cave Registry & Archive","imgLic":"used with credit"},"geometry":{"type":"Point","coordinates":[-2.802732,51.313173]}},{"type":"Feature","properties":{"name":"Hazel Mine","type":"Mine","id":"1093","url":"https://www.mcra.org.uk/registry/sitedetails.php?id=1093","source":"Mendip Cave Registry","img":"https://www.mcra.org.uk/photoarchive/thumbs/1500/1569.jpg","imgBy":"Mendip Cave Registry & Archive","imgLic":"used with credit"},"geometry":{"type":"Point","coordinates":[-2.804702,51.320002]}},{"type":"Feature","properties":{"name":"Holly Bush Shaft","type":"Mine","id":"881","url":"https://www.mcra.org.uk/registry/sitedetails.php?id=881","source":"Mendip Cave Registry","img":"https://www.mcra.org.uk/photoarchive/thumbs/0500/0619%20Holly%20Bush%20Shaft.jpg","imgBy":"Mendip Cave Registry & Archive","imgLic":"used with credit"},"geometry":{"type":"Point","coordinates":[-2.794914,51.312462]}},{"type":"Feature","properties":{"name":"Holly Fissure","type":"Mine","id":"880","url":"https://www.mcra.org.uk/registry/sitedetails.php?id=880","source":"Mendip Cave Registry","img":"https://www.mcra.org.uk/photoarchive/thumbs/1000/1317.jpg","imgBy":"Mendip Cave Registry & Archive","imgLic":"used with credit"},"geometry":{"type":"Point","coordinates":[-2.804803,51.320047]}},{"type":"Feature","properties":{"name":"Holly Tree Gruff","type":"Mine","id":"1159","url":"https://www.mcra.org.uk/registry/sitedetails.php?id=1159","source":"Mendip Cave Registry"},"geometry":{"type":"Point","coordinates":[-2.794026,51.317513]}},{"type":"Feature","properties":{"name":"Ivy Fissure","type":"Mine","id":"882","url":"https://www.mcra.org.uk/registry/sitedetails.php?id=882","source":"Mendip Cave Registry","img":"https://www.mcra.org.uk/photoarchive/thumbs/1000/1318.jpg","imgBy":"Mendip Cave Registry & Archive","imgLic":"used with credit"},"geometry":{"type":"Point","coordinates":[-2.804833,51.320136]}},{"type":"Feature","properties":{"name":"Knowle Wood Mine","type":"Mine","id":"772","url":"https://www.mcra.org.uk/registry/sitedetails.php?id=772","source":"Mendip Cave Registry"},"geometry":{"type":"Point","coordinates":[-2.807052,51.329608]}},{"type":"Feature","properties":{"name":"Lambs Gruff","type":"Mine","id":"1882","url":"https://www.mcra.org.uk/registry/sitedetails.php?id=1882","source":"Mendip Cave Registry"},"geometry":{"type":"Point","coordinates":[-2.799274,51.31317]}},{"type":"Feature","properties":{"name":"Lyncombe Mine","type":"Mine","id":"1092","url":"https://www.mcra.org.uk/registry/sitedetails.php?id=1092","source":"Mendip Cave Registry","img":"https://www.mcra.org.uk/photoarchive/thumbs/2000/2127.jpg","imgBy":"Mendip Cave Registry & Archive","imgLic":"used with credit"},"geometry":{"type":"Point","coordinates":[-2.811584,51.328632]}},{"type":"Feature","properties":{"name":"Lyncombe Shaft","type":"Mine","id":"2173","url":"https://www.mcra.org.uk/registry/sitedetails.php?id=2173","source":"Mendip Cave Registry"},"geometry":{"type":"Point","coordinates":[-2.81203,51.328656]}},{"type":"Feature","properties":{"name":"Mark's Gruff","type":"Mine","id":"1156","url":"https://www.mcra.org.uk/registry/sitedetails.php?id=1156","source":"Mendip Cave Registry"},"geometry":{"type":"Point","coordinates":[-2.795172,51.317415]}},{"type":"Feature","properties":{"name":"MCRA-SH-1","type":"Mine","id":"2160","url":"https://www.mcra.org.uk/registry/sitedetails.php?id=2160","source":"Mendip Cave Registry"},"geometry":{"type":"Point","coordinates":[-2.820082,51.330281]}},{"type":"Feature","properties":{"name":"MCRA-SH-10","type":"Mine","id":"2195","url":"https://www.mcra.org.uk/registry/sitedetails.php?id=2195","source":"Mendip Cave Registry"},"geometry":{"type":"Point","coordinates":[-2.824365,51.328992]}},{"type":"Feature","properties":{"name":"MCRA-SH-11","type":"Mine","id":"2198","url":"https://www.mcra.org.uk/registry/sitedetails.php?id=2198","source":"Mendip Cave Registry"},"geometry":{"type":"Point","coordinates":[-2.821632,51.328652]}},{"type":"Feature","properties":{"name":"MCRA-SH-12","type":"Mine","id":"2199","url":"https://www.mcra.org.uk/registry/sitedetails.php?id=2199","source":"Mendip Cave Registry"},"geometry":{"type":"Point","coordinates":[-2.822206,51.328648]}},{"type":"Feature","properties":{"name":"MCRA-SH-14","type":"Mine","id":"2197","url":"https://www.mcra.org.uk/registry/sitedetails.php?id=2197","source":"Mendip Cave Registry"},"geometry":{"type":"Point","coordinates":[-2.815918,51.329411]}},{"type":"Feature","properties":{"name":"MCRA-SH-2","type":"Mine","id":"2161","url":"https://www.mcra.org.uk/registry/sitedetails.php?id=2161","source":"Mendip Cave Registry"},"geometry":{"type":"Point","coordinates":[-2.821374,51.330272]}},{"type":"Feature","properties":{"name":"MCRA-SH-3","type":"Mine","id":"2158","url":"https://www.mcra.org.uk/registry/sitedetails.php?id=2158","source":"Mendip Cave Registry"},"geometry":{"type":"Point","coordinates":[-2.821517,51.330271]}},{"type":"Feature","properties":{"name":"MCRA-SH-4","type":"Mine","id":"2157","url":"https://www.mcra.org.uk/registry/sitedetails.php?id=2157","source":"Mendip Cave Registry"},"geometry":{"type":"Point","coordinates":[-2.821514,51.330091]}},{"type":"Feature","properties":{"name":"MCRA-SH-7","type":"Mine","id":"2167","url":"https://www.mcra.org.uk/registry/sitedetails.php?id=2167","source":"Mendip Cave Registry"},"geometry":{"type":"Point","coordinates":[-2.821087,51.330274]}},{"type":"Feature","properties":{"name":"MCRA-SH-8","type":"Mine","id":"2168","url":"https://www.mcra.org.uk/registry/sitedetails.php?id=2168","source":"Mendip Cave Registry"},"geometry":{"type":"Point","coordinates":[-2.820798,51.330186]}},{"type":"Feature","properties":{"name":"New Hall Mine","type":"Mine","id":"1135","url":"https://www.mcra.org.uk/registry/sitedetails.php?id=1135","source":"Mendip Cave Registry","img":"https://www.mcra.org.uk/photoarchive/thumbs/1000/1319.jpg","imgBy":"Mendip Cave Registry & Archive","imgLic":"used with credit"},"geometry":{"type":"Point","coordinates":[-2.798698,51.317211]}},{"type":"Feature","properties":{"name":"New Shaft","type":"Mine","id":"892","url":"https://www.mcra.org.uk/registry/sitedetails.php?id=892","source":"Mendip Cave Registry"},"geometry":{"type":"Point","coordinates":[-2.80476,51.32002]}},{"type":"Feature","properties":{"name":"Old Shaft 2","type":"Mine","id":"1087","url":"https://www.mcra.org.uk/registry/sitedetails.php?id=1087","source":"Mendip Cave Registry"},"geometry":{"type":"Point","coordinates":[-2.80117,51.319064]}},{"type":"Feature","properties":{"name":"Pallet Shaft","type":"Mine","id":"1086","url":"https://www.mcra.org.uk/registry/sitedetails.php?id=1086","source":"Mendip Cave Registry"},"geometry":{"type":"Point","coordinates":[-2.801899,51.318907]}},{"type":"Feature","properties":{"name":"Parallel Gashes","type":"Mine","id":"3600","url":"https://www.mcra.org.uk/registry/sitedetails.php?id=3600","source":"Mendip Cave Registry"},"geometry":{"type":"Point","coordinates":[-2.785465,51.327111]}},{"type":"Feature","properties":{"name":"Pearl Mine","type":"Mine","id":"853","url":"https://www.mcra.org.uk/registry/sitedetails.php?id=853","source":"Mendip Cave Registry","img":"https://www.mcra.org.uk/photoarchive/thumbs/0000/0044%20Pearl%20Mine.jpg","imgBy":"Mendip Cave Registry & Archive","imgLic":"used with credit"},"geometry":{"type":"Point","coordinates":[-2.82192,51.32874]}},{"type":"Feature","properties":{"name":"Rabbit Hole","type":"Mine","id":"871","url":"https://www.mcra.org.uk/registry/sitedetails.php?id=871","source":"Mendip Cave Registry"},"geometry":{"type":"Point","coordinates":[-2.821218,51.328781]}},{"type":"Feature","properties":{"name":"Robert's Paradise","type":"Mine","id":"854","url":"https://www.mcra.org.uk/registry/sitedetails.php?id=854","source":"Mendip Cave Registry"},"geometry":{"type":"Point","coordinates":[-2.820537,51.326825]}},{"type":"Feature","properties":{"name":"Rock Girt Pit","type":"Mine","id":"2183","url":"https://www.mcra.org.uk/registry/sitedetails.php?id=2183","source":"Mendip Cave Registry"},"geometry":{"type":"Point","coordinates":[-2.822923,51.328643]}},{"type":"Feature","properties":{"name":"Rowberrow Beach Shaft","type":"Mine","id":"885","url":"https://www.mcra.org.uk/registry/sitedetails.php?id=885","source":"Mendip Cave Registry"},"geometry":{"type":"Point","coordinates":[-2.797803,51.320184]}},{"type":"Feature","properties":{"name":"Rowberrow Forest Iron Pits","type":"Mine","id":"3269","url":"https://www.mcra.org.uk/registry/sitedetails.php?id=3269","source":"Mendip Cave Registry"},"geometry":{"type":"Point","coordinates":[-2.766278,51.31428]}},{"type":"Feature","properties":{"name":"Rowberrow Forest Mine","type":"Mine","id":"3268","url":"https://www.mcra.org.uk/registry/sitedetails.php?id=3268","source":"Mendip Cave Registry"},"geometry":{"type":"Point","coordinates":[-2.777377,51.313911]}},{"type":"Feature","properties":{"name":"Rowberrow Waterworks Tunnel","type":"Mine","id":"2570","url":"https://www.mcra.org.uk/registry/sitedetails.php?id=2570","source":"Mendip Cave Registry"},"geometry":{"type":"Point","coordinates":[-2.79766,51.326003]}},{"type":"Feature","properties":{"name":"Rubbishy Rift","type":"Mine","id":"886","url":"https://www.mcra.org.uk/registry/sitedetails.php?id=886","source":"Mendip Cave Registry"},"geometry":{"type":"Point","coordinates":[-2.800591,51.317953]}},{"type":"Feature","properties":{"name":"Sandford East Ochre Mine","type":"Mine","id":"855","url":"https://www.mcra.org.uk/registry/sitedetails.php?id=855","source":"Mendip Cave Registry"},"geometry":{"type":"Point","coordinates":[-2.814997,51.32681]}},{"type":"Feature","properties":{"name":"Sandford Hill Mine No.2","type":"Mine","id":"2179","url":"https://www.mcra.org.uk/registry/sitedetails.php?id=2179","source":"Mendip Cave Registry"},"geometry":{"type":"Point","coordinates":[-2.816772,51.328191]}},{"type":"Feature","properties":{"name":"Sandford Hill Mine No.3","type":"Mine","id":"2163","url":"https://www.mcra.org.uk/registry/sitedetails.php?id=2163","source":"Mendip Cave Registry"},"geometry":{"type":"Point","coordinates":[-2.817497,51.3278]}},{"type":"Feature","properties":{"name":"Sandford Rake","type":"Mine","id":"2200","url":"https://www.mcra.org.uk/registry/sitedetails.php?id=2200","source":"Mendip Cave Registry"},"geometry":{"type":"Point","coordinates":[-2.820865,51.327533]}},{"type":"Feature","properties":{"name":"Saville Row Shaft No.1","type":"Mine","id":"852","url":"https://www.mcra.org.uk/registry/sitedetails.php?id=852","source":"Mendip Cave Registry"},"geometry":{"type":"Point","coordinates":[-2.818994,51.32885]}},{"type":"Feature","properties":{"name":"Saville Row Shaft No.3","type":"Mine","id":"2064","url":"https://www.mcra.org.uk/registry/sitedetails.php?id=2064","source":"Mendip Cave Registry"},"geometry":{"type":"Point","coordinates":[-2.818908,51.328851]}},{"type":"Feature","properties":{"name":"Scull Mine","type":"Mine","id":"1969","url":"https://www.mcra.org.uk/registry/sitedetails.php?id=1969","source":"Mendip Cave Registry"},"geometry":{"type":"Point","coordinates":[-2.806536,51.314145]}},{"type":"Feature","properties":{"name":"Scum Hole","type":"Mine","id":"862","url":"https://www.mcra.org.uk/registry/sitedetails.php?id=862","source":"Mendip Cave Registry"},"geometry":{"type":"Point","coordinates":[-2.82113,51.328673]}},{"type":"Feature","properties":{"name":"Severn View Mine","type":"Mine","id":"1968","url":"https://www.mcra.org.uk/registry/sitedetails.php?id=1968","source":"Mendip Cave Registry"},"geometry":{"type":"Point","coordinates":[-2.794136,51.312287]}},{"type":"Feature","properties":{"name":"Shaft 120","type":"Mine","id":"863","url":"https://www.mcra.org.uk/registry/sitedetails.php?id=863","source":"Mendip Cave Registry","img":"https://www.mcra.org.uk/photoarchive/thumbs/1000/1070%20Saville%20Row.jpg","imgBy":"Mendip Cave Registry & Archive","imgLic":"used with credit"},"geometry":{"type":"Point","coordinates":[-2.819052,51.32885]}},{"type":"Feature","properties":{"name":"Shepherd's Shaft","type":"Mine","id":"1136","url":"https://www.mcra.org.uk/registry/sitedetails.php?id=1136","source":"Mendip Cave Registry"},"geometry":{"type":"Point","coordinates":[-2.795723,51.312807]}},{"type":"Feature","properties":{"name":"Shipham 'Mine'","type":"Mine","id":"889","url":"https://www.mcra.org.uk/registry/sitedetails.php?id=889","source":"Mendip Cave Registry"},"geometry":{"type":"Point","coordinates":[-2.800388,51.312074]}},{"type":"Feature","properties":{"name":"Shipham Collapse No. 85","type":"Mine","id":"3097","url":"https://www.mcra.org.uk/registry/sitedetails.php?id=3097","source":"Mendip Cave Registry"},"geometry":{"type":"Point","coordinates":[-2.800189,51.314638]}},{"type":"Feature","properties":{"name":"Shipham Collapse No. 88","type":"Mine","id":"1097","url":"https://www.mcra.org.uk/registry/sitedetails.php?id=1097","source":"Mendip Cave Registry"},"geometry":{"type":"Point","coordinates":[-2.800006,51.314864]}},{"type":"Feature","properties":{"name":"Shipham Collapse No. 89","type":"Mine","id":"1098","url":"https://www.mcra.org.uk/registry/sitedetails.php?id=1098","source":"Mendip Cave Registry"},"geometry":{"type":"Point","coordinates":[-2.800006,51.314864]}},{"type":"Feature","properties":{"name":"Singing River Mine","type":"Mine","id":"891","url":"https://www.mcra.org.uk/registry/sitedetails.php?id=891","source":"Mendip Cave Registry","img":"https://www.mcra.org.uk/photoarchive/thumbs/0500/0587%20Singing%20River%20Mine.jpg","imgBy":"Mendip Cave Registry & Archive","imgLic":"used with credit"},"geometry":{"type":"Point","coordinates":[-2.798102,51.312629]}},{"type":"Feature","properties":{"name":"Skeleton Rift","type":"Mine","id":"864","url":"https://www.mcra.org.uk/registry/sitedetails.php?id=864","source":"Mendip Cave Registry"},"geometry":{"type":"Point","coordinates":[-2.820408,51.326835]}},{"type":"Feature","properties":{"name":"SMCC-10","type":"Mine","id":"2151","url":"https://www.mcra.org.uk/registry/sitedetails.php?id=2151","source":"Mendip Cave Registry"},"geometry":{"type":"Point","coordinates":[-2.822375,51.330085]}},{"type":"Feature","properties":{"name":"SMCC-4","type":"Mine","id":"2154","url":"https://www.mcra.org.uk/registry/sitedetails.php?id=2154","source":"Mendip Cave Registry"},"geometry":{"type":"Point","coordinates":[-2.820659,51.330457]}},{"type":"Feature","properties":{"name":"SMCC-7","type":"Mine","id":"2153","url":"https://www.mcra.org.uk/registry/sitedetails.php?id=2153","source":"Mendip Cave Registry"},"geometry":{"type":"Point","coordinates":[-2.821375,51.330362]}},{"type":"Feature","properties":{"name":"South Rift","type":"Mine","id":"850","url":"https://www.mcra.org.uk/registry/sitedetails.php?id=850","source":"Mendip Cave Registry"},"geometry":{"type":"Point","coordinates":[-2.820297,51.326233]}},{"type":"Feature","properties":{"name":"SSSS-22-B","type":"Mine","id":"2170","url":"https://www.mcra.org.uk/registry/sitedetails.php?id=2170","source":"Mendip Cave Registry"},"geometry":{"type":"Point","coordinates":[-2.823226,51.328704]}},{"type":"Feature","properties":{"name":"SSSS-22-F","type":"Mine","id":"2171","url":"https://www.mcra.org.uk/registry/sitedetails.php?id=2171","source":"Mendip Cave Registry"},"geometry":{"type":"Point","coordinates":[-2.82334,51.328676]}},{"type":"Feature","properties":{"name":"SSSS-22-N","type":"Mine","id":"2176","url":"https://www.mcra.org.uk/registry/sitedetails.php?id=2176","source":"Mendip Cave Registry"},"geometry":{"type":"Point","coordinates":[-2.824935,51.32719]}},{"type":"Feature","properties":{"name":"SSSS-22-O","type":"Mine","id":"2175","url":"https://www.mcra.org.uk/registry/sitedetails.php?id=2175","source":"Mendip Cave Registry"},"geometry":{"type":"Point","coordinates":[-2.824489,51.327139]}},{"type":"Feature","properties":{"name":"SSSS-32-N","type":"Mine","id":"2174","url":"https://www.mcra.org.uk/registry/sitedetails.php?id=2174","source":"Mendip Cave Registry"},"geometry":{"type":"Point","coordinates":[-2.820881,51.326823]}},{"type":"Feature","properties":{"name":"SSSS-43-G","type":"Mine","id":"2201","url":"https://www.mcra.org.uk/registry/sitedetails.php?id=2201","source":"Mendip Cave Registry"},"geometry":{"type":"Point","coordinates":[-2.817545,51.329688]}},{"type":"Feature","properties":{"name":"SSSS-52-D","type":"Mine","id":"2178","url":"https://www.mcra.org.uk/registry/sitedetails.php?id=2178","source":"Mendip Cave Registry"},"geometry":{"type":"Point","coordinates":[-2.816404,51.327654]}},{"type":"Feature","properties":{"name":"Stanton Mine","type":"Mine","id":"3204","url":"https://www.mcra.org.uk/registry/sitedetails.php?id=3204","source":"Mendip Cave Registry"},"geometry":{"type":"Point","coordinates":[-2.804054,51.320699]}},{"type":"Feature","properties":{"name":"Stanton's Shaft","type":"Mine","id":"2180","url":"https://www.mcra.org.uk/registry/sitedetails.php?id=2180","source":"Mendip Cave Registry"},"geometry":{"type":"Point","coordinates":[-2.815577,51.327184]}},{"type":"Feature","properties":{"name":"Star Mine No.1","type":"Mine","id":"1069","url":"https://www.mcra.org.uk/registry/sitedetails.php?id=1069","source":"Mendip Cave Registry","img":"https://www.mcra.org.uk/photoarchive/thumbs/1500/1568.jpg","imgBy":"Mendip Cave Registry & Archive","imgLic":"used with credit"},"geometry":{"type":"Point","coordinates":[-2.804754,51.320532]}},{"type":"Feature","properties":{"name":"Star Mine No.2","type":"Mine","id":"893","url":"https://www.mcra.org.uk/registry/sitedetails.php?id=893","source":"Mendip Cave Registry","img":"https://www.mcra.org.uk/photoarchive/thumbs/1500/1567.jpg","imgBy":"Mendip Cave Registry & Archive","imgLic":"used with credit"},"geometry":{"type":"Point","coordinates":[-2.803694,51.320639]}},{"type":"Feature","properties":{"name":"Star Shaft","type":"Mine","id":"1068","url":"https://www.mcra.org.uk/registry/sitedetails.php?id=1068","source":"Mendip Cave Registry","img":"https://www.mcra.org.uk/photoarchive/thumbs/0000/0265%20Star%20Shaft.jpg","imgBy":"Mendip Cave Registry & Archive","imgLic":"used with credit"},"geometry":{"type":"Point","coordinates":[-2.804916,51.320765]}},{"type":"Feature","properties":{"name":"Suicide Hole","type":"Mine","id":"894","url":"https://www.mcra.org.uk/registry/sitedetails.php?id=894","source":"Mendip Cave Registry"},"geometry":{"type":"Point","coordinates":[-2.786917,51.312975]}},{"type":"Feature","properties":{"name":"Summit Plantation Mine","type":"Mine","id":"866","url":"https://www.mcra.org.uk/registry/sitedetails.php?id=866","source":"Mendip Cave Registry"},"geometry":{"type":"Point","coordinates":[-2.822759,51.327475]}},{"type":"Feature","properties":{"name":"Sycamore Garage Shaft","type":"Mine","id":"3036","url":"https://www.mcra.org.uk/registry/sitedetails.php?id=3036","source":"Mendip Cave Registry"},"geometry":{"type":"Point","coordinates":[-2.794411,51.314902]}},{"type":"Feature","properties":{"name":"Sycamore Pit","type":"Mine","id":"1153","url":"https://www.mcra.org.uk/registry/sitedetails.php?id=1153","source":"Mendip Cave Registry"},"geometry":{"type":"Point","coordinates":[-2.799721,51.314956]}},{"type":"Feature","properties":{"name":"Thiery's Gruff","type":"Mine","id":"1157","url":"https://www.mcra.org.uk/registry/sitedetails.php?id=1157","source":"Mendip Cave Registry"},"geometry":{"type":"Point","coordinates":[-2.796159,51.316419]}},{"type":"Feature","properties":{"name":"Tin Can Alley (Shipham)","type":"Mine","id":"895","url":"https://www.mcra.org.uk/registry/sitedetails.php?id=895","source":"Mendip Cave Registry"},"geometry":{"type":"Point","coordinates":[-2.800922,51.318005]}},{"type":"Feature","properties":{"name":"Udders Hole","type":"Mine","id":"869","url":"https://www.mcra.org.uk/registry/sitedetails.php?id=869","source":"Mendip Cave Registry"},"geometry":{"type":"Point","coordinates":[-2.816565,51.327851]}},{"type":"Feature","properties":{"name":"Winterhead Mine","type":"Mine","id":"897","url":"https://www.mcra.org.uk/registry/sitedetails.php?id=897","source":"Mendip Cave Registry"},"geometry":{"type":"Point","coordinates":[-2.806699,51.315232]}},{"type":"Feature","properties":{"name":"Winterhead Shaft","type":"Mine","id":"1084","url":"https://www.mcra.org.uk/registry/sitedetails.php?id=1084","source":"Mendip Cave Registry","img":"https://www.mcra.org.uk/photoarchive/thumbs/0500/0884%20Winterhead.jpg","imgBy":"Mendip Cave Registry & Archive","imgLic":"used with credit"},"geometry":{"type":"Point","coordinates":[-2.805891,51.315004]}},{"type":"Feature","properties":{"name":"Winterhead Swallet","type":"Mine","id":"999","url":"https://www.mcra.org.uk/registry/sitedetails.php?id=999","source":"Mendip Cave Registry"},"geometry":{"type":"Point","coordinates":[-2.807309,51.314005]}},{"type":"Feature","properties":{"name":"","type":"mineshaft","source":"OpenStreetMap"},"geometry":{"type":"Point","coordinates":[-2.78446,51.38026]}},{"type":"Feature","properties":{"name":"","type":"mineshaft","source":"OpenStreetMap"},"geometry":{"type":"Point","coordinates":[-2.78409,51.38025]}},{"type":"Feature","properties":{"name":"","type":"mineshaft","source":"OpenStreetMap"},"geometry":{"type":"Point","coordinates":[-2.78322,51.37986]}},{"type":"Feature","properties":{"name":"","type":"mineshaft","source":"OpenStreetMap"},"geometry":{"type":"Point","coordinates":[-2.77243,51.37362]}},{"type":"Feature","properties":{"name":"","type":"mineshaft","source":"OpenStreetMap"},"geometry":{"type":"Point","coordinates":[-2.77197,51.37367]}},{"type":"Feature","properties":{"name":"","type":"mineshaft","source":"OpenStreetMap"},"geometry":{"type":"Point","coordinates":[-2.78305,51.3802]}},{"type":"Feature","properties":{"name":"","type":"adit","source":"OpenStreetMap"},"geometry":{"type":"Point","coordinates":[-2.78629,51.37703]}},{"type":"Feature","properties":{"name":"","type":"mineshaft","source":"OpenStreetMap"},"geometry":{"type":"Point","coordinates":[-2.77971,51.38076]}}]}