{"type":"FeatureCollection","features":[{"type":"Feature","properties":{"name":"Dolebury Warren Swallet","type":"Dig","id":"839","url":"https://www.mcra.org.uk/registry/sitedetails.php?id=839","source":"Mendip Cave Registry"},"geometry":{"type":"Point","coordinates":[-2.783116,51.324006]}},{"type":"Feature","properties":{"name":"P Hole","type":"Dig","id":"32","url":"https://www.mcra.org.uk/registry/sitedetails.php?id=32","source":"Mendip Cave Registry"},"geometry":{"type":"Point","coordinates":[-2.758282,51.322767]}},{"type":"Feature","properties":{"name":"Swan Inn Swallet","type":"Dig","id":"843","url":"https://www.mcra.org.uk/registry/sitedetails.php?id=843","source":"Mendip Cave Registry"},"geometry":{"type":"Point","coordinates":[-2.782541,51.31723]}},{"type":"Feature","properties":{"name":"Water Valley Swallet","type":"Dig","id":"52","url":"https://www.mcra.org.uk/registry/sitedetails.php?id=52","source":"Mendip Cave Registry"},"geometry":{"type":"Point","coordinates":[-2.766022,51.307538]}},{"type":"Feature","properties":{"name":"Helictite Well","type":"Well","id":"879","url":"https://www.mcra.org.uk/registry/sitedetails.php?id=879","source":"Mendip Cave Registry"},"geometry":{"type":"Point","coordinates":[-2.798957,51.312264]}},{"type":"Feature","properties":{"name":"MCRA-SH-13","type":"Unclassified site","id":"2196","url":"https://www.mcra.org.uk/registry/sitedetails.php?id=2196","source":"Mendip Cave Registry"},"geometry":{"type":"Point","coordinates":[-2.816191,51.329409]}},{"type":"Feature","properties":{"name":"Pseudo Udders Hole","type":"Unclassified site","id":"2126","url":"https://www.mcra.org.uk/registry/sitedetails.php?id=2126","source":"Mendip Cave Registry"},"geometry":{"type":"Point","coordinates":[-2.81965,51.330194]}},{"type":"Feature","properties":{"name":"Rowberrow Forest Swallet","type":"Unclassified site","id":"3270","url":"https://www.mcra.org.uk/registry/sitedetails.php?id=3270","source":"Mendip Cave Registry"},"geometry":{"type":"Point","coordinates":[-2.767126,51.313556]}},{"type":"Feature","properties":{"name":"Rowberrow Lane Mine","type":"Unclassified site","id":"3035","url":"https://www.mcra.org.uk/registry/sitedetails.php?id=3035","source":"Mendip Cave Registry"},"geometry":{"type":"Point","coordinates":[-2.792561,51.315814]}}]}