{"type":"FeatureCollection","features":[{"type":"Feature","properties":{"CODE":"21","NAME":"Mendip Hills","DESIG_DATE":"Oct-89","HOTLINK":"https://mendiphills-nl.org.uk/","STAT_AREA":198.46},"geometry":{"type":"Polygon","coordinates":[[[-2.95104,51.31437],[-2.95137,51.31462],[-2.95102,51.31485],[-2.95066,51.315],[-2.95171,51.31707],[-2.95175,51.31718],[-2.9517,51.31719],[-2.9517,51.31729],[-2.95198,51.31833],[-2.9523,51.31913],[-2.95244,51.3193],[-2.95261,51.3198],[-2.95292,51.32053],[-2.95331,51.32124],[-2.95299,51.3214],[-2.95244,51.32153],[-2.95202,51.32158],[-2.95197,51.32155],[-2.95191,51.32155],[-2.95192,51.3216],[-2.95097,51.32176],[-2.95079,51.32182],[-2.95052,51.32204],[-2.94947,51.32216],[-2.94778,51.32259],[-2.94766,51.32252],[-2.94761,51.32254],[-2.94764,51.32259],[-2.94761,51.32262],[-2.94716,51.3227],[-2.94578,51.32289],[-2.94571,51.32285],[-2.94562,51.32292],[-2.94463,51.32305],[-2.94201,51.32349],[-2.94114,51.32359],[-2.94052,51.3237],[-2.93995,51.32374],[-2.93895,51.32372],[-2.93848,51.32375],[-2.93666,51.32401],[-2.93656,51.32394],[-2.93618,51.32385],[-2.93605,51.32375],[-2.93507,51.32243],[-2.93296,51.32273],[-2.93206,51.32284],[-2.93131,51.32288],[-2.93058,51.32308],[-2.93029,51.3231],[-2.9302,51.32327],[-2.93024,51.32331],[-2.93025,51.32356],[-2.93019,51.32356],[-2.93016,51.3236],[-2.93018,51.32363],[-2.93027,51.32363],[-2.93049,51.32401],[-2.93046,51.32412],[-2.93039,51.32413],[-2.93044,51.32417],[-2.93041,51.32425],[-2.93037,51.32424],[-2.93036,51.32427],[-2.9304,51.32428],[-2.93038,51.32434],[-2.93029,51.32444],[-2.92925,51.32459],[-2.92922,51.32447],[-2.92917,51.32447],[-2.92919,51.32453],[-2.92909,51.32462],[-2.92778,51.32476],[-2.92704,51.32487],[-2.92541,51.32498],[-2.92452,51.3251],[-2.92451,51.32507],[-2.92443,51.32511],[-2.92263,51.32537],[-2.92223,51.32579],[-2.92224,51.32591],[-2.92215,51.32623],[-2.92202,51.32653],[-2.92158,51.32698],[-2.9215,51.32701],[-2.92152,51.32704],[-2.92142,51.32714],[-2.9212,51.3273],[-2.92077,51.32751],[-2.92015,51.3277],[-2.91869,51.32801],[-2.91788,51.32822],[-2.91605,51.32833],[-2.91586,51.32825],[-2.91562,51.32836],[-2.91462,51.32843],[-2.91304,51.32839],[-2.91055,51.32851],[-2.90869,51.32877],[-2.90825,51.3288],[-2.90819,51.32878],[-2.90815,51.32872],[-2.90808,51.32817],[-2.90811,51.32774],[-2.90819,51.32744],[-2.90824,51.32735],[-2.9082,51.32728],[-2.90777,51.32731],[-2.90746,51.32729],[-2.90281,51.3273],[-2.90209,51.32734],[-2.9021,51.32741],[-2.90199,51.32741],[-2.90109,51.32731],[-2.89676,51.32728],[-2.89672,51.32704],[-2.89672,51.32666],[-2.89657,51.32656],[-2.89604,51.32657],[-2.89586,51.32652],[-2.89558,51.3265],[-2.89547,51.32681],[-2.89538,51.32694],[-2.8953,51.32699],[-2.89521,51.32699],[-2.89483,51.32689],[-2.89383,51.32682],[-2.89382,51.32687],[-2.89376,51.32693],[-2.89378,51.32702],[-2.89382,51.32702],[-2.89377,51.3275],[-2.89309,51.32757],[-2.89267,51.32764],[-2.89248,51.32758],[-2.8923,51.32746],[-2.89219,51.32732],[-2.89196,51.3267],[-2.89165,51.32657],[-2.89115,51.32662],[-2.89104,51.32643],[-2.89082,51.32639],[-2.89081,51.32636],[-2.88923,51.32644],[-2.88846,51.32639],[-2.88806,51.32633],[-2.88808,51.32623],[-2.888,51.32626],[-2.88668,51.3263],[-2.88625,51.32645],[-2.885,51.32641],[-2.88416,51.32642],[-2.88414,51.3264],[-2.88304,51.32643],[-2.88287,51.32638],[-2.88285,51.3264],[-2.88296,51.32644],[-2.88082,51.32661],[-2.87925,51.32678],[-2.87817,51.32663],[-2.87812,51.32666],[-2.8778,51.32662],[-2.876,51.32654],[-2.87564,51.32662],[-2.87514,51.32667],[-2.87465,51.32666],[-2.8745,51.32662],[-2.87428,51.3266],[-2.87345,51.32661],[-2.87342,51.32656],[-2.87318,51.32657],[-2.87318,51.32651],[-2.87191,51.32655],[-2.87143,51.32647],[-2.87068,51.32622],[-2.87049,51.32621],[-2.87046,51.32612],[-2.8699,51.326],[-2.8698,51.32611],[-2.86919,51.32608],[-2.86844,51.32625],[-2.86827,51.32602],[-2.86783,51.3259],[-2.8675,51.32614],[-2.86725,51.32644],[-2.86702,51.32657],[-2.86698,51.32652],[-2.8668,51.32659],[-2.86684,51.32663],[-2.86674,51.32667],[-2.86671,51.32665],[-2.86651,51.32675],[-2.86653,51.32677],[-2.86649,51.32679],[-2.86644,51.32674],[-2.86601,51.32682],[-2.86598,51.32676],[-2.86581,51.32678],[-2.86583,51.32683],[-2.86566,51.32685],[-2.86566,51.32694],[-2.86449,51.32694],[-2.86414,51.32678],[-2.864,51.32676],[-2.86391,51.32688],[-2.86385,51.3269],[-2.86346,51.32684],[-2.86334,51.32677],[-2.86324,51.3267],[-2.86327,51.32668],[-2.86287,51.32645],[-2.86277,51.32635],[-2.86299,51.32621],[-2.86284,51.32612],[-2.86266,51.32596],[-2.8626,51.32584],[-2.86269,51.32581],[-2.86252,51.32569],[-2.86223,51.32562],[-2.86217,51.32564],[-2.862,51.32536],[-2.86155,51.32544],[-2.86161,51.3256],[-2.86155,51.32562],[-2.86141,51.32604],[-2.86097,51.32671],[-2.86063,51.32712],[-2.86055,51.32727],[-2.86052,51.32742],[-2.86063,51.32768],[-2.86061,51.32771],[-2.85866,51.32793],[-2.85753,51.32821],[-2.85566,51.32889],[-2.85529,51.32907],[-2.85476,51.32941],[-2.85441,51.32958],[-2.85405,51.32971],[-2.85344,51.32984],[-2.85235,51.33],[-2.85231,51.32996],[-2.85219,51.32998],[-2.85213,51.33003],[-2.85064,51.33031],[-2.85055,51.33031],[-2.84933,51.33051],[-2.84918,51.3305],[-2.84917,51.33053],[-2.84906,51.33056],[-2.84575,51.33118],[-2.84426,51.3317],[-2.84324,51.33213],[-2.84313,51.33195],[-2.84291,51.3318],[-2.84252,51.33167],[-2.8422,51.33144],[-2.84218,51.33136],[-2.84215,51.33134],[-2.84191,51.33137],[-2.84179,51.33132],[-2.84162,51.33115],[-2.84148,51.33107],[-2.84138,51.33093],[-2.84138,51.33082],[-2.84117,51.33078],[-2.84106,51.33072],[-2.841,51.33063],[-2.84097,51.33048],[-2.84076,51.33026],[-2.84073,51.33019],[-2.84063,51.32956],[-2.84045,51.3291],[-2.84035,51.32894],[-2.84035,51.32889],[-2.84027,51.32882],[-2.84028,51.32862],[-2.84032,51.32855],[-2.84023,51.32821],[-2.84013,51.32794],[-2.83996,51.32767],[-2.83962,51.32729],[-2.83956,51.32715],[-2.83897,51.32673],[-2.83825,51.32638],[-2.83784,51.32487],[-2.83734,51.3226],[-2.8367,51.32033],[-2.83659,51.31947],[-2.83596,51.31686],[-2.83698,51.31683],[-2.83689,51.31666],[-2.83699,51.31652],[-2.83703,51.31633],[-2.83806,51.31636],[-2.83799,51.3161],[-2.83711,51.315],[-2.83715,51.31484],[-2.83758,51.31465],[-2.83745,51.31419],[-2.83782,51.31413],[-2.83784,51.31396],[-2.83829,51.31397],[-2.83882,51.31406],[-2.8391,51.31412],[-2.83914,51.31419],[-2.83924,51.31418],[-2.83971,51.31439],[-2.8399,51.31436],[-2.84043,51.31415],[-2.84046,51.31417],[-2.84083,51.31401],[-2.84079,51.31398],[-2.84092,51.31368],[-2.84118,51.31355],[-2.84136,51.31325],[-2.84191,51.31181],[-2.842,51.31152],[-2.84251,51.31159],[-2.84264,51.31123],[-2.8422,51.31117],[-2.84214,51.3111],[-2.84236,51.31054],[-2.84211,51.31051],[-2.84208,51.31047],[-2.84257,51.31018],[-2.84226,51.30994],[-2.84333,51.30979],[-2.84314,51.3093],[-2.8431,51.3093],[-2.84281,51.30866],[-2.8424,51.30849],[-2.84237,51.30839],[-2.84063,51.30883],[-2.84054,51.30872],[-2.84053,51.30866],[-2.84001,51.30876],[-2.83995,51.30881],[-2.83997,51.30884],[-2.8399,51.30886],[-2.84012,51.30911],[-2.8402,51.30956],[-2.84005,51.30958],[-2.84001,51.30963],[-2.84003,51.30977],[-2.84016,51.3098],[-2.83978,51.31014],[-2.83939,51.31018],[-2.83944,51.31042],[-2.83982,51.3104],[-2.83984,51.31067],[-2.83977,51.31068],[-2.83979,51.31074],[-2.83853,51.31087],[-2.83858,51.31121],[-2.83823,51.31121],[-2.83824,51.31125],[-2.83778,51.31129],[-2.83777,51.31125],[-2.83766,51.31126],[-2.83767,51.3113],[-2.83763,51.3113],[-2.83758,51.31115],[-2.83667,51.31121],[-2.83453,51.31121],[-2.83472,51.31065],[-2.83441,51.31065],[-2.8343,51.31042],[-2.83402,51.31038],[-2.83398,51.30985],[-2.8339,51.3096],[-2.834,51.30955],[-2.83398,51.30948],[-2.83391,51.30946],[-2.83391,51.30938],[-2.83276,51.30946],[-2.8324,51.30952],[-2.83236,51.30947],[-2.83249,51.30943],[-2.83248,51.30932],[-2.8323,51.30792],[-2.83211,51.30791],[-2.83204,51.30795],[-2.83163,51.30789],[-2.83159,51.30799],[-2.83126,51.30798],[-2.83102,51.30707],[-2.83093,51.30663],[-2.83086,51.30595],[-2.83076,51.30592],[-2.83063,51.30604],[-2.8306,51.30633],[-2.8305,51.30664],[-2.83024,51.30728],[-2.83002,51.30763],[-2.8295,51.30798],[-2.82883,51.3083],[-2.82673,51.30873],[-2.8259,51.30896],[-2.82584,51.30894],[-2.82585,51.30887],[-2.82513,51.30876],[-2.82417,51.3088],[-2.82322,51.30894],[-2.82314,51.30892],[-2.82312,51.30885],[-2.82306,51.30886],[-2.82308,51.30895],[-2.82303,51.30901],[-2.82201,51.30918],[-2.82142,51.30922],[-2.82141,51.30925],[-2.82005,51.30934],[-2.8197,51.30944],[-2.81972,51.30952],[-2.81962,51.30956],[-2.81992,51.30992],[-2.8199,51.30995],[-2.81983,51.30996],[-2.81983,51.30999],[-2.81999,51.31002],[-2.8202,51.31033],[-2.82052,51.31092],[-2.82048,51.31094],[-2.8205,51.31098],[-2.82053,51.31098],[-2.82061,51.31118],[-2.82061,51.31126],[-2.82058,51.31127],[-2.82058,51.3113],[-2.82063,51.31131],[-2.82061,51.31135],[-2.82065,51.31154],[-2.82062,51.31194],[-2.8207,51.31223],[-2.82041,51.31227],[-2.82042,51.3123],[-2.82072,51.31227],[-2.82075,51.31245],[-2.82064,51.31288],[-2.82048,51.31287],[-2.82046,51.31291],[-2.8206,51.31294],[-2.82063,51.31301],[-2.82063,51.31323],[-2.82061,51.31342],[-2.82058,51.31344],[-2.82058,51.31357],[-2.8205,51.3138],[-2.82046,51.31381],[-2.82047,51.31392],[-2.82041,51.31414],[-2.82033,51.31426],[-2.82093,51.31451],[-2.82132,51.31448],[-2.82186,51.31438],[-2.82208,51.31428],[-2.82264,51.31383],[-2.82273,51.31387],[-2.82267,51.31382],[-2.82386,51.31292],[-2.82445,51.31324],[-2.82504,51.31348],[-2.82539,51.31477],[-2.82538,51.31483],[-2.82498,51.31484],[-2.82392,51.31477],[-2.82313,51.31479],[-2.82265,51.31475],[-2.82261,51.3149],[-2.82272,51.31488],[-2.82508,51.31536],[-2.82645,51.31583],[-2.82653,51.31588],[-2.82657,51.31596],[-2.82661,51.31596],[-2.8267,51.3159],[-2.82724,51.31588],[-2.82791,51.31579],[-2.82947,51.31547],[-2.82944,51.31576],[-2.82933,51.31605],[-2.829,51.31653],[-2.82879,51.31695],[-2.82896,51.31728],[-2.82694,51.31771],[-2.82713,51.31857],[-2.82782,51.31849],[-2.82817,51.31851],[-2.82849,51.31842],[-2.82904,51.31844],[-2.82913,51.31829],[-2.82924,51.31832],[-2.82936,51.3183],[-2.82939,51.31842],[-2.82935,51.31854],[-2.82964,51.31942],[-2.83147,51.31923],[-2.83214,51.31926],[-2.83195,51.31946],[-2.83214,51.31997],[-2.83254,51.3204],[-2.83262,51.3204],[-2.83266,51.32046],[-2.83306,51.32123],[-2.83316,51.32151],[-2.83354,51.32146],[-2.83362,51.32148],[-2.83404,51.32232],[-2.83412,51.32256],[-2.83341,51.32259],[-2.83357,51.32319],[-2.8336,51.32352],[-2.83355,51.32387],[-2.8334,51.32439],[-2.83385,51.32451],[-2.83306,51.32578],[-2.83269,51.32616],[-2.83285,51.32623],[-2.83278,51.3263],[-2.83264,51.32624],[-2.83251,51.32634],[-2.83271,51.32648],[-2.83321,51.32675],[-2.8331,51.32683],[-2.83328,51.32694],[-2.83336,51.3269],[-2.83362,51.32706],[-2.83393,51.32715],[-2.83429,51.32735],[-2.83429,51.32744],[-2.83415,51.32748],[-2.83416,51.32754],[-2.83428,51.32757],[-2.83428,51.32765],[-2.83408,51.32939],[-2.83404,51.3294],[-2.83366,51.32974],[-2.83352,51.32991],[-2.83345,51.32993],[-2.83318,51.33014],[-2.83305,51.33019],[-2.83304,51.33026],[-2.83286,51.33032],[-2.83286,51.33034],[-2.83094,51.33075],[-2.83083,51.33079],[-2.83085,51.33082],[-2.82998,51.33116],[-2.82856,51.33152],[-2.82801,51.33159],[-2.82651,51.33164],[-2.82645,51.33164],[-2.82646,51.33167],[-2.82564,51.33171],[-2.8252,51.33172],[-2.82515,51.33167],[-2.82442,51.33173],[-2.82432,51.33171],[-2.82429,51.33174],[-2.82276,51.33185],[-2.82277,51.33191],[-2.8224,51.33193],[-2.82063,51.33196],[-2.82047,51.33193],[-2.81967,51.33198],[-2.81861,51.33209],[-2.81722,51.33232],[-2.81693,51.33241],[-2.81632,51.33249],[-2.81594,51.33251],[-2.81585,51.33248],[-2.81576,51.33252],[-2.8156,51.33252],[-2.81554,51.33249],[-2.81534,51.33253],[-2.81499,51.33249],[-2.81461,51.33256],[-2.81458,51.33259],[-2.81461,51.33268],[-2.81462,51.33311],[-2.81457,51.33327],[-2.81451,51.33334],[-2.81346,51.33311],[-2.81233,51.33271],[-2.81216,51.33272],[-2.81195,51.33269],[-2.81036,51.3328],[-2.80729,51.33316],[-2.80649,51.33321],[-2.80649,51.33317],[-2.80642,51.33317],[-2.8064,51.33321],[-2.80633,51.33322],[-2.8041,51.33334],[-2.80406,51.33331],[-2.80396,51.33332],[-2.80392,51.33335],[-2.80356,51.33337],[-2.80277,51.33339],[-2.8027,51.33336],[-2.8026,51.33337],[-2.80258,51.33339],[-2.80221,51.33342],[-2.80004,51.33382],[-2.79916,51.33403],[-2.79861,51.33408],[-2.79846,51.33404],[-2.79834,51.33389],[-2.79827,51.33389],[-2.79819,51.33382],[-2.7975,51.33285],[-2.79732,51.33281],[-2.79722,51.33282],[-2.79686,51.33271],[-2.79639,51.33262],[-2.79603,51.3325],[-2.79576,51.33235],[-2.79497,51.33172],[-2.79494,51.33166],[-2.79497,51.33158],[-2.79478,51.33154],[-2.79448,51.33141],[-2.79396,51.33135],[-2.79382,51.3313],[-2.7937,51.33121],[-2.79343,51.33117],[-2.79328,51.33142],[-2.7912,51.3314],[-2.79087,51.33119],[-2.79062,51.33118],[-2.78972,51.33131],[-2.78974,51.33134],[-2.78915,51.33142],[-2.78872,51.33142],[-2.78793,51.33148],[-2.78753,51.33158],[-2.78753,51.33161],[-2.78668,51.33176],[-2.7862,51.33174],[-2.78608,51.3317],[-2.78582,51.33172],[-2.7862,51.33303],[-2.78651,51.33381],[-2.78652,51.33389],[-2.78648,51.33392],[-2.78547,51.33363],[-2.78515,51.33352],[-2.78513,51.33349],[-2.78507,51.33348],[-2.78507,51.3335],[-2.78471,51.3334],[-2.78467,51.33335],[-2.78455,51.33337],[-2.7838,51.33325],[-2.78381,51.33315],[-2.78374,51.33314],[-2.78374,51.3332],[-2.78369,51.33323],[-2.7819,51.33323],[-2.78143,51.33318],[-2.78087,51.33301],[-2.77966,51.33257],[-2.7788,51.33236],[-2.778,51.33225],[-2.77619,51.33219],[-2.77615,51.33215],[-2.7761,51.33218],[-2.77551,51.33211],[-2.77535,51.33213],[-2.77439,51.33205],[-2.77248,51.33203],[-2.77121,51.33191],[-2.76909,51.3318],[-2.76742,51.33164],[-2.76699,51.33166],[-2.76606,51.33183],[-2.76425,51.33189],[-2.76297,51.33185],[-2.76134,51.33162],[-2.76,51.33162],[-2.75928,51.33166],[-2.75766,51.33194],[-2.75686,51.332],[-2.75524,51.33198],[-2.75517,51.33194],[-2.75513,51.33181],[-2.75504,51.33181],[-2.75505,51.33195],[-2.755,51.332],[-2.75456,51.33206],[-2.75402,51.33209],[-2.75232,51.33234],[-2.75188,51.33237],[-2.75175,51.33243],[-2.75097,51.33257],[-2.75093,51.33253],[-2.75088,51.33254],[-2.75088,51.33258],[-2.75001,51.33276],[-2.74985,51.33284],[-2.74895,51.33315],[-2.74631,51.33402],[-2.74553,51.33426],[-2.74527,51.3343],[-2.745,51.33448],[-2.74414,51.33482],[-2.74303,51.33489],[-2.74132,51.33525],[-2.74064,51.33528],[-2.73944,51.33554],[-2.73848,51.33564],[-2.73778,51.33566],[-2.73722,51.33562],[-2.73623,51.33535],[-2.73553,51.33525],[-2.73484,51.33568],[-2.73427,51.33594],[-2.73321,51.33635],[-2.73214,51.33671],[-2.73116,51.33695],[-2.73119,51.33701],[-2.73114,51.33702],[-2.73105,51.33696],[-2.72997,51.33723],[-2.72839,51.33748],[-2.72517,51.33758],[-2.72298,51.33751],[-2.72251,51.33745],[-2.72226,51.33735],[-2.7219,51.33728],[-2.72181,51.33722],[-2.7213,51.33723],[-2.72104,51.33719],[-2.72104,51.33711],[-2.71954,51.33683],[-2.71864,51.33657],[-2.71815,51.33636],[-2.71782,51.33631],[-2.71766,51.33648],[-2.71729,51.33666],[-2.71723,51.33698],[-2.71701,51.33696],[-2.71676,51.33722],[-2.71619,51.33791],[-2.71605,51.33792],[-2.71588,51.33801],[-2.71435,51.33917],[-2.71411,51.33932],[-2.71375,51.33944],[-2.71332,51.33952],[-2.71296,51.33953],[-2.71294,51.3399],[-2.71285,51.34014],[-2.71273,51.34035],[-2.71242,51.34067],[-2.7121,51.34092],[-2.71186,51.34115],[-2.71182,51.34118],[-2.71177,51.34114],[-2.7117,51.34116],[-2.71169,51.34129],[-2.71164,51.34139],[-2.71097,51.34235],[-2.71033,51.34343],[-2.71028,51.34342],[-2.71026,51.34347],[-2.7103,51.34349],[-2.7099,51.3443],[-2.70984,51.34459],[-2.7098,51.34517],[-2.70975,51.34527],[-2.70842,51.34604],[-2.70804,51.34629],[-2.70766,51.34647],[-2.70735,51.34669],[-2.70703,51.3468],[-2.70674,51.34695],[-2.70612,51.34715],[-2.7056,51.34736],[-2.70527,51.3474],[-2.70465,51.34743],[-2.70435,51.34749],[-2.70255,51.34813],[-2.70228,51.34828],[-2.70209,51.34845],[-2.70197,51.34861],[-2.70174,51.34879],[-2.70091,51.34924],[-2.70045,51.34939],[-2.70018,51.34957],[-2.69971,51.34973],[-2.69956,51.34976],[-2.6988,51.34954],[-2.69797,51.34936],[-2.69731,51.34935],[-2.69715,51.34933],[-2.69678,51.34874],[-2.69639,51.34833],[-2.69635,51.34823],[-2.69627,51.34821],[-2.69603,51.34782],[-2.69575,51.34754],[-2.69519,51.34731],[-2.69353,51.34701],[-2.69345,51.34696],[-2.69337,51.34677],[-2.69326,51.34668],[-2.6917,51.34634],[-2.69134,51.3462],[-2.69176,51.34573],[-2.69193,51.34544],[-2.69202,51.34466],[-2.69199,51.34401],[-2.69201,51.34399],[-2.6921,51.34399],[-2.6921,51.34393],[-2.69199,51.34391],[-2.69193,51.3432],[-2.69208,51.34288],[-2.69217,51.34257],[-2.69248,51.34223],[-2.69276,51.34183],[-2.69291,51.34172],[-2.69305,51.34171],[-2.69317,51.34162],[-2.69333,51.34135],[-2.69343,51.34099],[-2.69347,51.34096],[-2.69344,51.3409],[-2.69336,51.34088],[-2.69272,51.34095],[-2.69203,51.34084],[-2.69185,51.34091],[-2.69126,51.34089],[-2.69,51.34069],[-2.68966,51.3407],[-2.68912,51.34063],[-2.68812,51.34066],[-2.68759,51.34056],[-2.68632,51.34048],[-2.68621,51.3405],[-2.68619,51.34054],[-2.68612,51.34052],[-2.68579,51.34055],[-2.68543,51.3405],[-2.68446,51.34002],[-2.68407,51.33993],[-2.68408,51.33987],[-2.68405,51.33985],[-2.68402,51.33974],[-2.68379,51.33943],[-2.68364,51.33931],[-2.68343,51.33921],[-2.68275,51.33906],[-2.68208,51.33883],[-2.68189,51.33874],[-2.68172,51.33859],[-2.68165,51.33857],[-2.6815,51.33845],[-2.68101,51.33831],[-2.68071,51.33814],[-2.68055,51.33811],[-2.68039,51.33804],[-2.68028,51.33795],[-2.68025,51.33797],[-2.68013,51.33782],[-2.68003,51.33748],[-2.67978,51.33711],[-2.67961,51.33691],[-2.67942,51.3368],[-2.67834,51.33646],[-2.67769,51.33613],[-2.67668,51.33578],[-2.67548,51.33547],[-2.67496,51.33529],[-2.67373,51.33511],[-2.67261,51.33509],[-2.67092,51.33537],[-2.66979,51.33552],[-2.6697,51.3355],[-2.66947,51.33559],[-2.66933,51.33559],[-2.6692,51.33557],[-2.66921,51.33552],[-2.66918,51.33552],[-2.66916,51.33557],[-2.66895,51.33552],[-2.66877,51.33545],[-2.66881,51.3354],[-2.66876,51.33538],[-2.66871,51.33543],[-2.66781,51.33503],[-2.66634,51.33454],[-2.6661,51.33453],[-2.66491,51.33468],[-2.66437,51.33468],[-2.66418,51.33462],[-2.66405,51.33465],[-2.66399,51.33473],[-2.66389,51.33478],[-2.66319,51.33493],[-2.6629,51.33502],[-2.66224,51.33532],[-2.66161,51.33566],[-2.66125,51.33578],[-2.66062,51.33584],[-2.65942,51.33585],[-2.65877,51.3359],[-2.65834,51.33599],[-2.6576,51.33627],[-2.6561,51.33698],[-2.65612,51.337],[-2.65568,51.33725],[-2.65541,51.33744],[-2.65501,51.33781],[-2.65467,51.33825],[-2.65407,51.33892],[-2.65332,51.33955],[-2.65296,51.33978],[-2.65181,51.34021],[-2.6508,51.34034],[-2.65057,51.34033],[-2.65035,51.34027],[-2.65013,51.3401],[-2.65002,51.34007],[-2.64967,51.34014],[-2.64927,51.34035],[-2.64901,51.34051],[-2.64834,51.34109],[-2.64828,51.3411],[-2.64767,51.34156],[-2.64554,51.34282],[-2.64501,51.34335],[-2.64441,51.34405],[-2.64426,51.34428],[-2.64423,51.34428],[-2.64422,51.34434],[-2.64412,51.34449],[-2.64387,51.34475],[-2.64344,51.34499],[-2.64254,51.34529],[-2.64188,51.34565],[-2.64172,51.34581],[-2.64144,51.34619],[-2.64135,51.34617],[-2.64133,51.3462],[-2.64138,51.34625],[-2.64097,51.34672],[-2.64039,51.3472],[-2.63971,51.34748],[-2.63973,51.34751],[-2.63965,51.34757],[-2.63842,51.34819],[-2.63804,51.34849],[-2.63766,51.3485],[-2.63735,51.34846],[-2.63716,51.34838],[-2.63707,51.3483],[-2.63689,51.34826],[-2.63657,51.34834],[-2.63651,51.34832],[-2.63573,51.34854],[-2.63562,51.34852],[-2.63545,51.34856],[-2.63545,51.34861],[-2.6348,51.34886],[-2.63455,51.34913],[-2.6344,51.34923],[-2.63432,51.34926],[-2.63417,51.34927],[-2.63415,51.34932],[-2.63406,51.34933],[-2.63412,51.34937],[-2.63407,51.34944],[-2.63409,51.34948],[-2.63393,51.34984],[-2.63363,51.35039],[-2.63358,51.35057],[-2.63386,51.3511],[-2.63428,51.35177],[-2.63427,51.35182],[-2.63418,51.35187],[-2.63366,51.35185],[-2.63311,51.35178],[-2.63313,51.35186],[-2.63311,51.35187],[-2.63277,51.35177],[-2.63232,51.35174],[-2.63217,51.35177],[-2.63068,51.35177],[-2.62968,51.35166],[-2.6277,51.35175],[-2.62607,51.35193],[-2.62599,51.35186],[-2.62586,51.35182],[-2.62584,51.35184],[-2.62595,51.35189],[-2.62596,51.35194],[-2.62594,51.35195],[-2.62535,51.35205],[-2.62465,51.35211],[-2.62422,51.35207],[-2.62356,51.35193],[-2.62224,51.35138],[-2.62183,51.35127],[-2.62136,51.35121],[-2.61453,51.35121],[-2.61401,51.35112],[-2.61375,51.35101],[-2.61354,51.35089],[-2.61309,51.3505],[-2.61306,51.35044],[-2.6131,51.35039],[-2.61306,51.35035],[-2.61289,51.3503],[-2.61257,51.34999],[-2.61256,51.34995],[-2.61264,51.34987],[-2.61259,51.34984],[-2.6125,51.34985],[-2.61239,51.34982],[-2.6116,51.34904],[-2.61109,51.3487],[-2.61071,51.34856],[-2.60815,51.34799],[-2.60772,51.34785],[-2.60746,51.34771],[-2.60725,51.34755],[-2.60709,51.34737],[-2.60617,51.34616],[-2.60617,51.34611],[-2.60621,51.34609],[-2.60613,51.34599],[-2.60602,51.34599],[-2.60568,51.34566],[-2.60521,51.34532],[-2.60094,51.34251],[-2.60019,51.34206],[-2.59967,51.34181],[-2.5996,51.34174],[-2.59962,51.34164],[-2.59971,51.34156],[-2.6,51.34141],[-2.59998,51.3414],[-2.60005,51.34124],[-2.60004,51.34123],[-2.60018,51.34099],[-2.60013,51.34097],[-2.60026,51.34047],[-2.60027,51.33997],[-2.60022,51.33957],[-2.60024,51.33931],[-2.60017,51.33906],[-2.6001,51.33896],[-2.60012,51.33891],[-2.60001,51.33889],[-2.59948,51.33843],[-2.59881,51.33806],[-2.59843,51.33779],[-2.59788,51.3375],[-2.59721,51.33705],[-2.59884,51.33648],[-2.59836,51.33592],[-2.59806,51.3357],[-2.5977,51.33552],[-2.5976,51.33532],[-2.59789,51.33526],[-2.59816,51.33514],[-2.5984,51.33513],[-2.59896,51.33523],[-2.5993,51.33537],[-2.5995,51.33538],[-2.60146,51.33486],[-2.60237,51.33467],[-2.60369,51.33464],[-2.6037,51.33459],[-2.60375,51.33458],[-2.60402,51.33456],[-2.60408,51.33447],[-2.60398,51.33436],[-2.60394,51.33408],[-2.60379,51.3337],[-2.60378,51.33349],[-2.60371,51.33342],[-2.60347,51.33332],[-2.60341,51.33323],[-2.60336,51.33304],[-2.60337,51.33265],[-2.60329,51.33252],[-2.60312,51.33213],[-2.6029,51.33179],[-2.60273,51.33132],[-2.60279,51.33118],[-2.6032,51.33071],[-2.60337,51.33055],[-2.60351,51.33048],[-2.60351,51.33044],[-2.60348,51.3304],[-2.60332,51.33034],[-2.6031,51.33014],[-2.60239,51.32938],[-2.60234,51.32927],[-2.602,51.32934],[-2.60199,51.32938],[-2.60159,51.32938],[-2.60122,51.32943],[-2.60051,51.32963],[-2.60041,51.32961],[-2.59923,51.33014],[-2.59837,51.33049],[-2.5983,51.33055],[-2.59837,51.33066],[-2.59834,51.33067],[-2.5975,51.33089],[-2.59753,51.33093],[-2.5974,51.33098],[-2.59477,51.33179],[-2.59457,51.3319],[-2.59357,51.3321],[-2.59258,51.33243],[-2.59204,51.33255],[-2.59205,51.33257],[-2.59168,51.33272],[-2.5915,51.33274],[-2.59148,51.3328],[-2.59138,51.33277],[-2.59136,51.3328],[-2.59106,51.33277],[-2.59103,51.33272],[-2.59094,51.33272],[-2.5909,51.33274],[-2.59042,51.33274],[-2.59038,51.33264],[-2.59027,51.33266],[-2.58969,51.33241],[-2.58945,51.33238],[-2.58885,51.3322],[-2.58839,51.33221],[-2.58821,51.33207],[-2.588,51.33184],[-2.58743,51.33143],[-2.58745,51.33141],[-2.58738,51.33134],[-2.58732,51.33116],[-2.5875,51.33068],[-2.58752,51.33048],[-2.58731,51.32996],[-2.58714,51.32927],[-2.58688,51.32878],[-2.58684,51.32853],[-2.58689,51.32824],[-2.5871,51.32784],[-2.58723,51.32753],[-2.58737,51.32737],[-2.58851,51.32685],[-2.58899,51.3265],[-2.58952,51.32585],[-2.58962,51.32562],[-2.58971,51.32525],[-2.58957,51.32433],[-2.5894,51.32379],[-2.58947,51.32376],[-2.58937,51.32323],[-2.58934,51.32263],[-2.58936,51.32242],[-2.58927,51.322],[-2.58933,51.32146],[-2.58958,51.32071],[-2.58957,51.32052],[-2.58941,51.32003],[-2.58923,51.31972],[-2.58876,51.31899],[-2.58839,51.31858],[-2.58816,51.31828],[-2.5885,51.31784],[-2.5891,51.31722],[-2.58967,51.3164],[-2.59009,51.31563],[-2.59021,51.31531],[-2.59025,51.31508],[-2.59,51.31504],[-2.58991,51.315],[-2.58995,51.31494],[-2.59013,51.31477],[-2.59036,51.31463],[-2.59053,51.31456],[-2.59086,51.3145],[-2.59103,51.3144],[-2.58965,51.3138],[-2.58946,51.31368],[-2.58964,51.31351],[-2.59004,51.31322],[-2.59105,51.31252],[-2.59113,51.31253],[-2.59042,51.31201],[-2.59026,51.31176],[-2.59018,51.31138],[-2.59002,51.31117],[-2.58918,51.31043],[-2.58868,51.31018],[-2.58822,51.3099],[-2.58837,51.30977],[-2.58857,51.30972],[-2.5894,51.30928],[-2.59056,51.30886],[-2.5911,51.30857],[-2.59151,51.30842],[-2.59154,51.30837],[-2.59022,51.30773],[-2.5897,51.30743],[-2.58908,51.30704],[-2.58874,51.30677],[-2.58867,51.30668],[-2.58747,51.30657],[-2.58733,51.30654],[-2.58739,51.30643],[-2.58746,51.30615],[-2.58761,51.30576],[-2.58777,51.30552],[-2.58802,51.30529],[-2.58818,51.30503],[-2.58815,51.30501],[-2.58815,51.30489],[-2.58805,51.30458],[-2.58778,51.30402],[-2.58772,51.30375],[-2.58781,51.30343],[-2.58803,51.30296],[-2.58805,51.30278],[-2.5879,51.30224],[-2.58778,51.30197],[-2.58751,51.30164],[-2.58672,51.30085],[-2.58674,51.30082],[-2.5866,51.30082],[-2.58629,51.3009],[-2.58615,51.30088],[-2.58576,51.30055],[-2.58559,51.30038],[-2.58497,51.29992],[-2.5842,51.29942],[-2.58395,51.29931],[-2.58332,51.29915],[-2.58316,51.29907],[-2.58296,51.29886],[-2.583,51.29798],[-2.5825,51.29783],[-2.58156,51.29767],[-2.58139,51.29762],[-2.58128,51.29752],[-2.58123,51.29753],[-2.58123,51.29756],[-2.5811,51.29749],[-2.58101,51.29739],[-2.58097,51.29719],[-2.58105,51.2968],[-2.58103,51.29658],[-2.58088,51.29638],[-2.58075,51.2963],[-2.58039,51.29616],[-2.57979,51.296],[-2.57925,51.29595],[-2.57808,51.29574],[-2.57777,51.2957],[-2.57681,51.29574],[-2.57652,51.29566],[-2.5765,51.29562],[-2.57655,51.29539],[-2.57654,51.29527],[-2.5762,51.29458],[-2.57618,51.29448],[-2.57633,51.29436],[-2.57685,51.29415],[-2.57672,51.29406],[-2.57545,51.29271],[-2.57535,51.29255],[-2.57532,51.29236],[-2.57546,51.29199],[-2.57585,51.29141],[-2.57648,51.29009],[-2.57685,51.28967],[-2.5775,51.2892],[-2.57799,51.2889],[-2.57799,51.28887],[-2.57872,51.28856],[-2.57913,51.28843],[-2.5799,51.28826],[-2.57993,51.28828],[-2.58024,51.28818],[-2.58033,51.28818],[-2.58037,51.28824],[-2.58042,51.28823],[-2.58042,51.28815],[-2.58109,51.28803],[-2.58117,51.28798],[-2.58114,51.28794],[-2.58118,51.28778],[-2.58138,51.28737],[-2.58142,51.28736],[-2.5815,51.28721],[-2.58155,51.28698],[-2.58161,51.28617],[-2.58167,51.28605],[-2.58253,51.28547],[-2.58297,51.28505],[-2.58344,51.28453],[-2.58498,51.28377],[-2.58568,51.28354],[-2.58604,51.28337],[-2.58616,51.28337],[-2.58623,51.28333],[-2.58664,51.28311],[-2.58707,51.28283],[-2.58714,51.28282],[-2.58737,51.28254],[-2.58759,51.28214],[-2.58761,51.28197],[-2.58755,51.28131],[-2.58751,51.28115],[-2.58742,51.28108],[-2.58741,51.28102],[-2.58727,51.28095],[-2.58714,51.28082],[-2.5866,51.28042],[-2.58642,51.28047],[-2.58643,51.28069],[-2.58636,51.28071],[-2.5858,51.2808],[-2.58563,51.2809],[-2.58544,51.28094],[-2.5854,51.28089],[-2.58508,51.28092],[-2.5845,51.28109],[-2.5839,51.2808],[-2.58358,51.28069],[-2.58192,51.28032],[-2.58171,51.28019],[-2.58069,51.27973],[-2.57904,51.27937],[-2.57819,51.27911],[-2.57778,51.27893],[-2.57722,51.27872],[-2.57697,51.27868],[-2.57681,51.27861],[-2.57631,51.27809],[-2.57589,51.27756],[-2.57582,51.2774],[-2.57586,51.27731],[-2.57594,51.27727],[-2.57573,51.27683],[-2.57561,51.27673],[-2.57562,51.2767],[-2.57545,51.27659],[-2.57599,51.2765],[-2.57606,51.27606],[-2.57616,51.27581],[-2.57592,51.27537],[-2.57591,51.27531],[-2.57595,51.27523],[-2.57602,51.27519],[-2.57632,51.27516],[-2.57656,51.27517],[-2.57661,51.2752],[-2.57663,51.27517],[-2.57692,51.2752],[-2.57698,51.2751],[-2.57731,51.27492],[-2.57754,51.27463],[-2.57757,51.27464],[-2.57765,51.2745],[-2.57762,51.27449],[-2.57771,51.27435],[-2.57774,51.27435],[-2.5778,51.27425],[-2.57777,51.27424],[-2.57785,51.27417],[-2.57785,51.27412],[-2.57794,51.27395],[-2.57799,51.27393],[-2.57806,51.27373],[-2.57836,51.27323],[-2.5787,51.27303],[-2.57879,51.27303],[-2.57882,51.27295],[-2.57921,51.27281],[-2.57978,51.27263],[-2.58017,51.27256],[-2.5808,51.27233],[-2.58153,51.2722],[-2.58163,51.27212],[-2.5823,51.27195],[-2.58292,51.27156],[-2.58342,51.27145],[-2.5842,51.27121],[-2.58447,51.27118],[-2.58505,51.27079],[-2.58619,51.2699],[-2.5862,51.26983],[-2.58644,51.26962],[-2.58662,51.26932],[-2.58672,51.26927],[-2.58676,51.26908],[-2.58738,51.26807],[-2.58792,51.26736],[-2.58854,51.26682],[-2.58974,51.26603],[-2.59113,51.26462],[-2.59147,51.26419],[-2.59188,51.26379],[-2.59197,51.26376],[-2.59196,51.26371],[-2.59227,51.26336],[-2.59319,51.26203],[-2.59326,51.26201],[-2.59326,51.26191],[-2.59331,51.26182],[-2.59385,51.26105],[-2.594,51.26091],[-2.59403,51.26078],[-2.59457,51.25999],[-2.59548,51.25878],[-2.59638,51.25764],[-2.60343,51.25125],[-2.60356,51.25114],[-2.60363,51.25113],[-2.60366,51.25108],[-2.60364,51.25106],[-2.60494,51.24988],[-2.6053,51.24966],[-2.60543,51.24953],[-2.60554,51.24936],[-2.6064,51.24862],[-2.60657,51.24843],[-2.60761,51.24747],[-2.61189,51.24358],[-2.61202,51.24352],[-2.61214,51.24341],[-2.61218,51.24333],[-2.61529,51.24053],[-2.6154,51.24045],[-2.61881,51.23731],[-2.61903,51.23718],[-2.61895,51.23709],[-2.61887,51.23707],[-2.6187,51.23707],[-2.6174,51.23686],[-2.60817,51.23529],[-2.60682,51.23513],[-2.6033,51.23521],[-2.60319,51.2352],[-2.60308,51.23511],[-2.60302,51.23511],[-2.60292,51.23517],[-2.60002,51.23514],[-2.59542,51.23547],[-2.58925,51.23465],[-2.58914,51.23461],[-2.58913,51.23455],[-2.5912,51.2315],[-2.59128,51.23146],[-2.59139,51.23129],[-2.59142,51.23116],[-2.59162,51.23088],[-2.59187,51.23089],[-2.59188,51.23085],[-2.59168,51.23079],[-2.59183,51.23059],[-2.59491,51.22976],[-2.59725,51.22894],[-2.59728,51.22895],[-2.59748,51.22888],[-2.59749,51.22885],[-2.59807,51.22864],[-2.59831,51.22852],[-2.5984,51.22844],[-2.59916,51.22802],[-2.60002,51.22763],[-2.60145,51.22717],[-2.60203,51.22705],[-2.60218,51.2269],[-2.6055,51.22546],[-2.60946,51.22358],[-2.60962,51.22353],[-2.60979,51.22356],[-2.61034,51.22254],[-2.61061,51.22213],[-2.61081,51.22195],[-2.61096,51.22186],[-2.61181,51.22161],[-2.61189,51.22156],[-2.61237,51.221],[-2.61259,51.22058],[-2.61295,51.22004],[-2.61314,51.21989],[-2.6134,51.21975],[-2.61478,51.21919],[-2.61553,51.21882],[-2.61742,51.21673],[-2.61765,51.21654],[-2.61849,51.21604],[-2.61918,51.21557],[-2.62013,51.21469],[-2.62046,51.21424],[-2.62088,51.21346],[-2.62108,51.2132],[-2.62146,51.21295],[-2.62196,51.21278],[-2.62246,51.2127],[-2.62272,51.21272],[-2.62315,51.2127],[-2.62443,51.21278],[-2.62454,51.21284],[-2.62466,51.21319],[-2.62469,51.21331],[-2.62464,51.21332],[-2.62471,51.21359],[-2.62503,51.21401],[-2.62551,51.21403],[-2.62591,51.21409],[-2.62659,51.21434],[-2.62658,51.21441],[-2.62782,51.21474],[-2.62827,51.21482],[-2.6284,51.21494],[-2.62838,51.21503],[-2.62846,51.21591],[-2.62852,51.21592],[-2.62924,51.21638],[-2.62967,51.21657],[-2.63014,51.21672],[-2.63019,51.21676],[-2.63035,51.21728],[-2.6325,51.21679],[-2.63253,51.21669],[-2.63257,51.21668],[-2.63308,51.21664],[-2.63327,51.21671],[-2.63399,51.21667],[-2.63393,51.21686],[-2.63494,51.21673],[-2.63623,51.21663],[-2.63626,51.21723],[-2.63639,51.2172],[-2.63661,51.21703],[-2.63688,51.21669],[-2.63715,51.21644],[-2.63745,51.21621],[-2.63776,51.21608],[-2.63847,51.21543],[-2.63889,51.21509],[-2.63979,51.2152],[-2.63982,51.21518],[-2.63988,51.21522],[-2.64014,51.21529],[-2.64061,51.21535],[-2.64284,51.21519],[-2.6435,51.21518],[-2.64427,51.21506],[-2.64496,51.21488],[-2.64517,51.2151],[-2.64518,51.21524],[-2.64534,51.21522],[-2.64552,51.21526],[-2.64559,51.2153],[-2.64563,51.21537],[-2.64582,51.21543],[-2.64625,51.21567],[-2.64631,51.21574],[-2.64795,51.21556],[-2.65093,51.2154],[-2.6517,51.21759],[-2.65307,51.2173],[-2.65289,51.21688],[-2.65447,51.2165],[-2.65491,51.21689],[-2.65536,51.21719],[-2.65469,51.21855],[-2.65464,51.21863],[-2.65454,51.21871],[-2.65455,51.21883],[-2.65426,51.21922],[-2.65493,51.2193],[-2.65528,51.21855],[-2.65585,51.21771],[-2.65623,51.21784],[-2.65645,51.21757],[-2.65741,51.21861],[-2.65786,51.21921],[-2.6586,51.21921],[-2.65863,51.21924],[-2.66105,51.21924],[-2.66107,51.21925],[-2.66104,51.21927],[-2.66117,51.2193],[-2.66134,51.21945],[-2.66173,51.21984],[-2.6619,51.22011],[-2.66216,51.22032],[-2.66312,51.22076],[-2.66379,51.22091],[-2.66414,51.22096],[-2.66486,51.22098],[-2.66565,51.22095],[-2.66647,51.22118],[-2.66739,51.22122],[-2.66776,51.22128],[-2.66921,51.22077],[-2.66918,51.22085],[-2.66905,51.22104],[-2.66907,51.22121],[-2.6692,51.22143],[-2.66973,51.22175],[-2.67009,51.22202],[-2.6703,51.22222],[-2.67045,51.22247],[-2.67051,51.22271],[-2.67056,51.22303],[-2.67052,51.22319],[-2.67022,51.22354],[-2.67024,51.22359],[-2.66973,51.22381],[-2.66979,51.22407],[-2.6691,51.22439],[-2.6686,51.22477],[-2.66838,51.2249],[-2.66833,51.22489],[-2.66831,51.22494],[-2.6674,51.22551],[-2.66671,51.22583],[-2.66604,51.22608],[-2.66597,51.22617],[-2.66615,51.22624],[-2.66679,51.22631],[-2.66692,51.22638],[-2.66732,51.22622],[-2.66835,51.22572],[-2.66914,51.22522],[-2.66968,51.22481],[-2.66975,51.22484],[-2.67017,51.22453],[-2.67021,51.22452],[-2.67023,51.22457],[-2.67058,51.22444],[-2.67062,51.22445],[-2.6706,51.22448],[-2.6707,51.22464],[-2.6703,51.22483],[-2.6702,51.22491],[-2.67052,51.22495],[-2.67053,51.22533],[-2.67058,51.22533],[-2.67063,51.22577],[-2.67083,51.22614],[-2.67078,51.2263],[-2.6708,51.2264],[-2.67055,51.22646],[-2.67056,51.22653],[-2.67051,51.22663],[-2.67013,51.22705],[-2.66988,51.22741],[-2.67086,51.22768],[-2.67119,51.22717],[-2.67132,51.22714],[-2.67139,51.22741],[-2.67135,51.22743],[-2.67139,51.22746],[-2.67136,51.22776],[-2.67138,51.22785],[-2.67143,51.22791],[-2.6716,51.22796],[-2.67209,51.228],[-2.67223,51.22736],[-2.67225,51.22736],[-2.6725,51.22666],[-2.67256,51.22667],[-2.67267,51.22658],[-2.67311,51.2266],[-2.67327,51.22661],[-2.67323,51.2267],[-2.67341,51.22673],[-2.6735,51.22657],[-2.67361,51.22653],[-2.67374,51.22662],[-2.6743,51.22684],[-2.6748,51.22693],[-2.67479,51.22695],[-2.67483,51.22696],[-2.67489,51.22695],[-2.67487,51.22697],[-2.67494,51.22698],[-2.67481,51.22724],[-2.67483,51.22725],[-2.67478,51.22726],[-2.67488,51.22733],[-2.67483,51.22736],[-2.67505,51.22743],[-2.6751,51.22737],[-2.67546,51.22759],[-2.67561,51.22764],[-2.67577,51.22747],[-2.67625,51.22719],[-2.67691,51.22747],[-2.67737,51.22755],[-2.67784,51.22758],[-2.67854,51.22767],[-2.67914,51.22778],[-2.67989,51.22797],[-2.68073,51.22808],[-2.68111,51.2282],[-2.68132,51.22835],[-2.68306,51.22867],[-2.68415,51.22872],[-2.68524,51.22891],[-2.68625,51.22901],[-2.68748,51.2292],[-2.68987,51.22937],[-2.69069,51.22932],[-2.69251,51.22903],[-2.69308,51.22889],[-2.69393,51.22874],[-2.69537,51.22858],[-2.69545,51.22854],[-2.69653,51.22827],[-2.69652,51.22829],[-2.6966,51.2283],[-2.69667,51.22821],[-2.69709,51.22811],[-2.69743,51.22796],[-2.69781,51.22771],[-2.69811,51.22756],[-2.69818,51.22762],[-2.69927,51.22806],[-2.70188,51.22908],[-2.70266,51.22936],[-2.70347,51.2296],[-2.70361,51.22976],[-2.70395,51.23004],[-2.70467,51.23073],[-2.70507,51.23103],[-2.70634,51.2316],[-2.70721,51.23215],[-2.70727,51.23214],[-2.70759,51.23233],[-2.70792,51.23255],[-2.70789,51.23262],[-2.70799,51.23261],[-2.70816,51.23286],[-2.70851,51.23296],[-2.7085,51.23302],[-2.70858,51.23299],[-2.70913,51.2331],[-2.70986,51.2333],[-2.71033,51.23351],[-2.71062,51.23373],[-2.71102,51.23423],[-2.71122,51.23439],[-2.7116,51.23462],[-2.71261,51.235],[-2.71291,51.23522],[-2.71302,51.23542],[-2.71308,51.23563],[-2.71319,51.23578],[-2.71376,51.23627],[-2.71381,51.23633],[-2.71379,51.23635],[-2.7137,51.23636],[-2.71317,51.23626],[-2.71202,51.236],[-2.71167,51.23598],[-2.71165,51.23605],[-2.71171,51.23616],[-2.71196,51.23644],[-2.71198,51.23643],[-2.71225,51.23662],[-2.71192,51.2369],[-2.71299,51.23764],[-2.71289,51.2377],[-2.71308,51.23783],[-2.71319,51.23782],[-2.71322,51.23787],[-2.71315,51.23809],[-2.7129,51.23853],[-2.71283,51.23873],[-2.71295,51.23876],[-2.7137,51.23827],[-2.71419,51.23855],[-2.71453,51.23842],[-2.7147,51.23855],[-2.71444,51.23869],[-2.71448,51.23877],[-2.71464,51.23877],[-2.71469,51.23891],[-2.71474,51.23891],[-2.7148,51.23909],[-2.71481,51.2393],[-2.7147,51.2393],[-2.71458,51.23936],[-2.71451,51.23944],[-2.71449,51.23952],[-2.7142,51.23948],[-2.71382,51.23956],[-2.71408,51.23993],[-2.71413,51.24016],[-2.71409,51.2404],[-2.714,51.24054],[-2.71378,51.24073],[-2.71341,51.2409],[-2.71338,51.24088],[-2.71321,51.24095],[-2.71331,51.24104],[-2.71343,51.241],[-2.71355,51.241],[-2.71378,51.2411],[-2.7135,51.24137],[-2.71394,51.24155],[-2.71425,51.24153],[-2.71435,51.24121],[-2.71432,51.24114],[-2.71428,51.24111],[-2.71438,51.24106],[-2.71461,51.24111],[-2.71453,51.24125],[-2.71496,51.24141],[-2.71494,51.24143],[-2.71499,51.24145],[-2.71477,51.24175],[-2.71498,51.24178],[-2.71496,51.24182],[-2.71516,51.24185],[-2.7148,51.24244],[-2.71559,51.24229],[-2.71565,51.24232],[-2.71655,51.24236],[-2.71654,51.24221],[-2.71737,51.24239],[-2.71743,51.24236],[-2.71784,51.24249],[-2.71794,51.24246],[-2.718,51.24248],[-2.71804,51.24257],[-2.71809,51.24256],[-2.71819,51.2427],[-2.71814,51.24302],[-2.71833,51.24302],[-2.71845,51.24262],[-2.71851,51.24263],[-2.71853,51.24252],[-2.71913,51.24249],[-2.71923,51.24243],[-2.71899,51.24231],[-2.71818,51.24209],[-2.71778,51.24154],[-2.71723,51.24112],[-2.71692,51.24082],[-2.71672,51.24055],[-2.7166,51.24026],[-2.71592,51.24045],[-2.71515,51.24078],[-2.71513,51.24075],[-2.71506,51.24045],[-2.71503,51.23977],[-2.71533,51.23981],[-2.71541,51.23962],[-2.71539,51.2394],[-2.71574,51.23934],[-2.71561,51.23908],[-2.71557,51.23909],[-2.71557,51.23902],[-2.71536,51.23898],[-2.71519,51.23899],[-2.71514,51.23845],[-2.71518,51.23845],[-2.71508,51.23818],[-2.7152,51.23818],[-2.71516,51.23799],[-2.71524,51.23766],[-2.71534,51.23758],[-2.71552,51.23752],[-2.71561,51.23788],[-2.71569,51.23806],[-2.716,51.23838],[-2.71598,51.23839],[-2.71603,51.23857],[-2.71613,51.23856],[-2.71613,51.23853],[-2.71629,51.23849],[-2.71633,51.2385],[-2.7163,51.23849],[-2.71638,51.23845],[-2.71667,51.2381],[-2.71695,51.23763],[-2.71698,51.23764],[-2.71716,51.23743],[-2.71769,51.23783],[-2.71799,51.23795],[-2.71911,51.23792],[-2.71959,51.23808],[-2.72033,51.23842],[-2.72164,51.23862],[-2.72339,51.23902],[-2.7239,51.23907],[-2.72394,51.2391],[-2.72393,51.23913],[-2.72398,51.23914],[-2.72406,51.23907],[-2.72461,51.23913],[-2.72543,51.23936],[-2.72782,51.24045],[-2.7287,51.24094],[-2.72934,51.24124],[-2.72937,51.24128],[-2.73036,51.24165],[-2.73082,51.24191],[-2.73115,51.24212],[-2.73227,51.243],[-2.73269,51.24322],[-2.73301,51.24345],[-2.73312,51.24366],[-2.73312,51.2442],[-2.73321,51.24427],[-2.73458,51.24487],[-2.73649,51.24591],[-2.73651,51.24596],[-2.73639,51.24598],[-2.7363,51.24603],[-2.73618,51.2464],[-2.73635,51.24638],[-2.73671,51.24645],[-2.73685,51.24662],[-2.73683,51.24679],[-2.73673,51.24677],[-2.73671,51.24701],[-2.73657,51.247],[-2.73656,51.2472],[-2.73669,51.2472],[-2.7368,51.24725],[-2.73681,51.24736],[-2.73667,51.24759],[-2.73668,51.24771],[-2.73631,51.24764],[-2.73628,51.24777],[-2.73606,51.24775],[-2.73608,51.24791],[-2.73587,51.24797],[-2.73563,51.24788],[-2.73552,51.24816],[-2.73556,51.24824],[-2.73582,51.24826],[-2.7364,51.24846],[-2.73653,51.24853],[-2.73678,51.24854],[-2.73704,51.2485],[-2.7381,51.24896],[-2.73831,51.24876],[-2.7395,51.24917],[-2.73999,51.2493],[-2.74014,51.24932],[-2.74087,51.24982],[-2.74131,51.25008],[-2.74249,51.2506],[-2.74327,51.2509],[-2.74331,51.25092],[-2.74325,51.25099],[-2.7433,51.25101],[-2.74337,51.25095],[-2.74373,51.25112],[-2.74471,51.2514],[-2.74523,51.25161],[-2.74608,51.25201],[-2.74604,51.25204],[-2.74615,51.25205],[-2.74721,51.25272],[-2.74717,51.25276],[-2.74777,51.25309],[-2.74822,51.2533],[-2.74819,51.25337],[-2.74777,51.25358],[-2.74827,51.25394],[-2.74846,51.25415],[-2.74924,51.25474],[-2.74943,51.25493],[-2.74943,51.25496],[-2.74889,51.25515],[-2.74912,51.25539],[-2.74909,51.2554],[-2.74932,51.2556],[-2.74908,51.25575],[-2.74907,51.25579],[-2.74895,51.25587],[-2.7494,51.25626],[-2.74942,51.25625],[-2.74938,51.25621],[-2.74962,51.25613],[-2.75031,51.25681],[-2.75008,51.2569],[-2.75051,51.2573],[-2.75042,51.25734],[-2.75062,51.25758],[-2.75058,51.25763],[-2.75063,51.25764],[-2.75075,51.2578],[-2.75072,51.25785],[-2.75078,51.25792],[-2.75081,51.25851],[-2.75102,51.2591],[-2.75261,51.25867],[-2.75272,51.25878],[-2.75275,51.25877],[-2.75299,51.25914],[-2.7532,51.25907],[-2.75317,51.25895],[-2.75399,51.25864],[-2.75405,51.25865],[-2.75464,51.25906],[-2.75484,51.25923],[-2.75671,51.26049],[-2.75741,51.26093],[-2.75803,51.26137],[-2.75808,51.26137],[-2.75849,51.26158],[-2.75933,51.26208],[-2.76072,51.26301],[-2.76135,51.26338],[-2.76189,51.26381],[-2.76191,51.26386],[-2.76249,51.26402],[-2.76248,51.26405],[-2.76258,51.26409],[-2.76261,51.26406],[-2.76271,51.26408],[-2.76316,51.26426],[-2.76317,51.2643],[-2.76302,51.26441],[-2.76307,51.26444],[-2.76321,51.26437],[-2.76339,51.26438],[-2.76485,51.26526],[-2.76482,51.26528],[-2.76499,51.26542],[-2.76564,51.26567],[-2.76705,51.26639],[-2.76708,51.26644],[-2.76702,51.26649],[-2.76706,51.26652],[-2.76713,51.26648],[-2.76725,51.26648],[-2.76767,51.26669],[-2.76793,51.26694],[-2.76786,51.26705],[-2.76791,51.26705],[-2.76796,51.26697],[-2.76803,51.26704],[-2.76949,51.26882],[-2.76947,51.26883],[-2.76995,51.26915],[-2.77019,51.26928],[-2.77042,51.26935],[-2.77093,51.26943],[-2.77177,51.26935],[-2.77206,51.26937],[-2.77233,51.26945],[-2.77257,51.26962],[-2.77268,51.26979],[-2.77272,51.27018],[-2.77279,51.27044],[-2.77327,51.27161],[-2.77393,51.27237],[-2.77443,51.27306],[-2.7746,51.27353],[-2.77458,51.27356],[-2.77452,51.27353],[-2.77447,51.27357],[-2.77464,51.27365],[-2.77467,51.27372],[-2.77438,51.27375],[-2.77365,51.27368],[-2.77262,51.27369],[-2.7725,51.27367],[-2.77244,51.2737],[-2.77191,51.27375],[-2.77103,51.27378],[-2.77095,51.27416],[-2.76801,51.27441],[-2.76823,51.27559],[-2.76755,51.27559],[-2.7676,51.27593],[-2.76776,51.27643],[-2.76697,51.27641],[-2.76601,51.27634],[-2.76598,51.27642],[-2.76674,51.27688],[-2.76686,51.27688],[-2.76789,51.2771],[-2.7685,51.27728],[-2.76882,51.27741],[-2.76904,51.27754],[-2.76933,51.27782],[-2.76989,51.27824],[-2.76984,51.27822],[-2.76984,51.27827],[-2.76997,51.27829],[-2.77026,51.27843],[-2.77064,51.27863],[-2.77065,51.27867],[-2.7708,51.2787],[-2.77075,51.27875],[-2.77062,51.27933],[-2.77085,51.27936],[-2.77087,51.2794],[-2.77083,51.27943],[-2.7713,51.27975],[-2.77142,51.2798],[-2.77171,51.27986],[-2.77201,51.27981],[-2.77239,51.27987],[-2.77234,51.27999],[-2.77199,51.28022],[-2.77195,51.28036],[-2.77179,51.28051],[-2.77185,51.28056],[-2.77162,51.28074],[-2.77179,51.2808],[-2.77165,51.28089],[-2.7718,51.28097],[-2.77175,51.28102],[-2.77169,51.28121],[-2.77187,51.2812],[-2.77209,51.28113],[-2.77215,51.28126],[-2.77207,51.28176],[-2.7717,51.28176],[-2.7717,51.28191],[-2.77209,51.28194],[-2.77208,51.28207],[-2.7726,51.28211],[-2.77261,51.28204],[-2.77265,51.28204],[-2.77255,51.28258],[-2.77297,51.28262],[-2.77294,51.28273],[-2.77283,51.28276],[-2.77291,51.28282],[-2.77276,51.2832],[-2.77277,51.28326],[-2.77297,51.28337],[-2.77303,51.28352],[-2.77292,51.28378],[-2.77268,51.28416],[-2.77265,51.28437],[-2.77276,51.28504],[-2.77273,51.28512],[-2.77297,51.28558],[-2.77302,51.28595],[-2.77296,51.28614],[-2.77288,51.28624],[-2.77273,51.28631],[-2.77232,51.28639],[-2.77239,51.28645],[-2.77262,51.28644],[-2.77273,51.28675],[-2.77293,51.28699],[-2.77289,51.28701],[-2.77326,51.28725],[-2.77386,51.28797],[-2.77423,51.28791],[-2.77437,51.28781],[-2.77514,51.28765],[-2.77547,51.28765],[-2.77569,51.28771],[-2.77586,51.2878],[-2.77595,51.28776],[-2.77603,51.28781],[-2.77637,51.28762],[-2.77637,51.28756],[-2.77666,51.28726],[-2.77676,51.28722],[-2.77685,51.28707],[-2.77704,51.28696],[-2.77704,51.28685],[-2.77718,51.28667],[-2.77724,51.28661],[-2.77745,51.28654],[-2.77751,51.28648],[-2.77753,51.28641],[-2.77772,51.28634],[-2.77771,51.28627],[-2.77777,51.28625],[-2.77777,51.28616],[-2.77772,51.28614],[-2.77776,51.28577],[-2.77781,51.28576],[-2.77782,51.2857],[-2.77777,51.2857],[-2.77778,51.28565],[-2.77787,51.28521],[-2.77789,51.28514],[-2.77794,51.28514],[-2.77795,51.28511],[-2.77791,51.28509],[-2.77806,51.28466],[-2.77819,51.28446],[-2.77835,51.28434],[-2.77915,51.28405],[-2.77931,51.28434],[-2.77952,51.28456],[-2.77963,51.28475],[-2.78012,51.28467],[-2.78001,51.28441],[-2.78,51.28426],[-2.78074,51.28433],[-2.78086,51.28401],[-2.78218,51.28424],[-2.78256,51.28435],[-2.78274,51.2845],[-2.78281,51.28464],[-2.78297,51.28485],[-2.78297,51.28491],[-2.78249,51.28571],[-2.78285,51.28577],[-2.7835,51.28548],[-2.78394,51.28559],[-2.78464,51.28594],[-2.78556,51.28609],[-2.78562,51.28615],[-2.786,51.28626],[-2.78605,51.28625],[-2.78639,51.28645],[-2.78711,51.28668],[-2.78861,51.28689],[-2.78951,51.28715],[-2.78956,51.2872],[-2.78963,51.28719],[-2.78977,51.28723],[-2.79,51.28735],[-2.79011,51.28746],[-2.79034,51.2875],[-2.79053,51.28747],[-2.79173,51.28779],[-2.79226,51.28786],[-2.79285,51.28786],[-2.79477,51.28767],[-2.79721,51.28767],[-2.79789,51.28772],[-2.79996,51.288],[-2.80074,51.28806],[-2.80156,51.28807],[-2.803,51.28799],[-2.80359,51.28799],[-2.80426,51.28805],[-2.80683,51.28848],[-2.80688,51.28859],[-2.80693,51.28859],[-2.80689,51.28848],[-2.80866,51.28869],[-2.80868,51.28873],[-2.80996,51.28881],[-2.81101,51.28884],[-2.81204,51.28884],[-2.81296,51.28881],[-2.81305,51.28878],[-2.8131,51.28885],[-2.81336,51.28885],[-2.81916,51.28855],[-2.81966,51.2885],[-2.82074,51.28858],[-2.82113,51.28868],[-2.82132,51.28864],[-2.82134,51.28858],[-2.82187,51.28856],[-2.82276,51.28872],[-2.82306,51.28873],[-2.82342,51.28868],[-2.82353,51.2881],[-2.82457,51.28806],[-2.82527,51.28812],[-2.82735,51.2885],[-2.82817,51.28861],[-2.82907,51.28886],[-2.83095,51.28931],[-2.83171,51.28943],[-2.83306,51.28957],[-2.83314,51.28962],[-2.8332,51.2896],[-2.8334,51.28963],[-2.83353,51.28967],[-2.83351,51.2897],[-2.83358,51.28972],[-2.83362,51.28968],[-2.83399,51.28976],[-2.83428,51.28979],[-2.8347,51.29004],[-2.83499,51.28986],[-2.83505,51.2899],[-2.83565,51.28962],[-2.8357,51.28971],[-2.83568,51.28974],[-2.83636,51.28972],[-2.83641,51.28968],[-2.83629,51.28942],[-2.83717,51.28925],[-2.83795,51.28917],[-2.83809,51.28959],[-2.83936,51.28969],[-2.83926,51.28901],[-2.84005,51.28898],[-2.84017,51.28893],[-2.8405,51.28892],[-2.84049,51.28882],[-2.84121,51.28882],[-2.84121,51.28901],[-2.84174,51.28905],[-2.84189,51.28904],[-2.84231,51.28911],[-2.8423,51.28916],[-2.84313,51.28933],[-2.84313,51.28936],[-2.84461,51.28953],[-2.84462,51.28949],[-2.84531,51.28961],[-2.84522,51.28974],[-2.84574,51.28988],[-2.84551,51.2904],[-2.84538,51.29053],[-2.8457,51.29062],[-2.84712,51.29079],[-2.84718,51.29062],[-2.84735,51.29031],[-2.84749,51.2901],[-2.84757,51.29005],[-2.84778,51.29013],[-2.84793,51.29025],[-2.84813,51.29054],[-2.84817,51.29067],[-2.84837,51.29089],[-2.84867,51.29107],[-2.84878,51.2911],[-2.84877,51.29112],[-2.84903,51.29116],[-2.84911,51.29122],[-2.84935,51.29123],[-2.84952,51.29119],[-2.85185,51.29125],[-2.85294,51.29143],[-2.85298,51.29146],[-2.85296,51.29153],[-2.85305,51.29155],[-2.85307,51.29149],[-2.85424,51.29166],[-2.85481,51.2917],[-2.85642,51.29164],[-2.85754,51.29154],[-2.85773,51.2915],[-2.85772,51.29148],[-2.85777,51.29146],[-2.85841,51.29136],[-2.85843,51.29132],[-2.85865,51.29128],[-2.85975,51.29114],[-2.86023,51.29101],[-2.86123,51.29085],[-2.86319,51.29045],[-2.86337,51.29036],[-2.86341,51.29031],[-2.86388,51.28996],[-2.86422,51.28977],[-2.86462,51.28968],[-2.86478,51.28974],[-2.86487,51.28969],[-2.86505,51.28967],[-2.86598,51.28982],[-2.86879,51.29052],[-2.86877,51.29058],[-2.86883,51.29059],[-2.86886,51.29053],[-2.87287,51.29149],[-2.87496,51.29192],[-2.87662,51.29233],[-2.8771,51.29249],[-2.87711,51.29245],[-2.87718,51.29246],[-2.87837,51.29272],[-2.87843,51.29269],[-2.87944,51.29288],[-2.8807,51.29329],[-2.88076,51.29333],[-2.88068,51.29334],[-2.88066,51.29338],[-2.88086,51.29344],[-2.88088,51.29341],[-2.88083,51.29337],[-2.88086,51.29335],[-2.88204,51.29371],[-2.88238,51.29385],[-2.88236,51.29389],[-2.88302,51.29403],[-2.88301,51.29405],[-2.88334,51.29413],[-2.88331,51.29416],[-2.88337,51.29418],[-2.88342,51.29414],[-2.88422,51.29445],[-2.8848,51.29455],[-2.88489,51.2946],[-2.88493,51.29459],[-2.88492,51.29456],[-2.8852,51.2946],[-2.88669,51.29496],[-2.88721,51.2952],[-2.88761,51.29544],[-2.88834,51.2957],[-2.889,51.29561],[-2.88927,51.29554],[-2.88953,51.29542],[-2.88962,51.29546],[-2.88967,51.29544],[-2.88963,51.29538],[-2.88967,51.29534],[-2.88995,51.29522],[-2.89083,51.295],[-2.89092,51.29502],[-2.89139,51.29545],[-2.89162,51.29554],[-2.89291,51.29556],[-2.89404,51.2955],[-2.89452,51.29543],[-2.89464,51.29534],[-2.89473,51.29536],[-2.89488,51.29533],[-2.89486,51.29536],[-2.89491,51.29536],[-2.89494,51.29531],[-2.89565,51.29513],[-2.89615,51.29517],[-2.8962,51.2952],[-2.89648,51.29515],[-2.89657,51.29522],[-2.89656,51.29527],[-2.89669,51.29533],[-2.89682,51.29526],[-2.89733,51.29514],[-2.8982,51.29502],[-2.89828,51.29504],[-2.89832,51.295],[-2.89902,51.29497],[-2.89945,51.295],[-2.89966,51.29508],[-2.89982,51.2952],[-2.89991,51.29544],[-2.89991,51.29559],[-2.90035,51.29563],[-2.90038,51.2957],[-2.90042,51.29571],[-2.90044,51.29563],[-2.90102,51.29555],[-2.90313,51.2954],[-2.90399,51.29541],[-2.904,51.29549],[-2.90405,51.29549],[-2.90409,51.29542],[-2.90472,51.29542],[-2.9058,51.29538],[-2.90772,51.29548],[-2.9092,51.29576],[-2.90991,51.29598],[-2.90997,51.29602],[-2.90996,51.29611],[-2.90999,51.29613],[-2.91005,51.29613],[-2.91006,51.29605],[-2.91011,51.29602],[-2.91047,51.2961],[-2.91083,51.29622],[-2.91282,51.2971],[-2.91315,51.2972],[-2.91424,51.2975],[-2.91502,51.29753],[-2.91517,51.29757],[-2.91525,51.2976],[-2.91528,51.29771],[-2.91534,51.2977],[-2.91536,51.29766],[-2.91562,51.29784],[-2.91559,51.29791],[-2.91564,51.29793],[-2.91569,51.29789],[-2.91613,51.29821],[-2.91654,51.29842],[-2.91702,51.2986],[-2.91852,51.29907],[-2.91928,51.29935],[-2.9195,51.29946],[-2.91986,51.29967],[-2.91996,51.2998],[-2.92022,51.30079],[-2.92044,51.30132],[-2.9205,51.30154],[-2.92051,51.30184],[-2.92043,51.30227],[-2.92046,51.30251],[-2.92052,51.30262],[-2.92065,51.30269],[-2.92184,51.3029],[-2.92246,51.30313],[-2.92311,51.30329],[-2.92334,51.30339],[-2.92395,51.30372],[-2.92412,51.30377],[-2.92441,51.30381],[-2.9255,51.30386],[-2.92584,51.30391],[-2.92648,51.30408],[-2.92685,51.30411],[-2.92778,51.30429],[-2.92853,51.30451],[-2.92932,51.30482],[-2.92976,51.30514],[-2.93062,51.30564],[-2.93123,51.30588],[-2.93179,51.30602],[-2.93222,51.30611],[-2.9331,51.30619],[-2.93352,51.3064],[-2.93375,51.30642],[-2.93376,51.30646],[-2.93388,51.30643],[-2.93475,51.30641],[-2.93535,51.30628],[-2.93582,51.30614],[-2.93632,51.3061],[-2.93648,51.30616],[-2.93653,51.30614],[-2.93834,51.30635],[-2.93877,51.30645],[-2.93916,51.30664],[-2.93969,51.30695],[-2.94012,51.307],[-2.94012,51.30728],[-2.94017,51.30755],[-2.94036,51.30756],[-2.94036,51.3076],[-2.94062,51.30759],[-2.94108,51.30775],[-2.94157,51.3078],[-2.94154,51.30793],[-2.94358,51.30828],[-2.94366,51.30803],[-2.94423,51.30803],[-2.94424,51.30813],[-2.94478,51.30812],[-2.94484,51.30798],[-2.94507,51.30796],[-2.94507,51.30799],[-2.94539,51.308],[-2.94539,51.30804],[-2.94578,51.30806],[-2.94559,51.30845],[-2.94581,51.30845],[-2.94603,51.30852],[-2.94617,51.3086],[-2.94717,51.30863],[-2.94719,51.30875],[-2.94739,51.30875],[-2.9474,51.30883],[-2.94699,51.30883],[-2.94698,51.30911],[-2.94743,51.30912],[-2.94755,51.30956],[-2.94748,51.30958],[-2.94746,51.30964],[-2.94761,51.30964],[-2.94767,51.30976],[-2.94777,51.31013],[-2.94778,51.3102],[-2.94773,51.31022],[-2.94771,51.31027],[-2.94774,51.31029],[-2.94749,51.31077],[-2.94751,51.31082],[-2.94763,51.31087],[-2.94765,51.31096],[-2.94853,51.31116],[-2.94876,51.31136],[-2.94871,51.31137],[-2.94878,51.3114],[-2.9488,51.31144],[-2.9487,51.31144],[-2.9487,51.31147],[-2.94881,51.31148],[-2.94885,51.3116],[-2.94882,51.31163],[-2.94885,51.31167],[-2.94881,51.31179],[-2.94891,51.31184],[-2.94899,51.31238],[-2.94918,51.31288],[-2.94926,51.31329],[-2.9493,51.3134],[-2.94942,51.31351],[-2.94941,51.31353],[-2.95,51.31379],[-2.95002,51.31383],[-2.94997,51.31384],[-2.94998,51.31386],[-2.95014,51.31386],[-2.95077,51.31415],[-2.95104,51.31437]],[[-2.79818,51.31306],[-2.7982,51.31296],[-2.79817,51.31284],[-2.79771,51.31281],[-2.79745,51.31287],[-2.7973,51.31301],[-2.79729,51.31316],[-2.79708,51.31331],[-2.79678,51.31335],[-2.79649,51.31334],[-2.79636,51.3133],[-2.79634,51.31328],[-2.79646,51.31307],[-2.79636,51.31304],[-2.7961,51.313],[-2.79601,51.31313],[-2.79544,51.31306],[-2.79508,51.31298],[-2.79281,51.31347],[-2.79254,51.31345],[-2.79246,51.31327],[-2.79211,51.31332],[-2.79214,51.31351],[-2.79211,51.31348],[-2.79203,51.31349],[-2.79204,51.31352],[-2.79176,51.31355],[-2.79183,51.3141],[-2.79195,51.31443],[-2.79165,51.31438],[-2.79163,51.31431],[-2.79139,51.31426],[-2.79137,51.31401],[-2.79083,51.31401],[-2.79088,51.31407],[-2.79065,51.31415],[-2.79056,51.31415],[-2.79046,51.31425],[-2.79055,51.31436],[-2.79048,51.3145],[-2.79081,51.31458],[-2.79076,51.31472],[-2.79285,51.31503],[-2.79317,51.31513],[-2.79362,51.31519],[-2.79356,51.31527],[-2.79478,51.31558],[-2.79476,51.31591],[-2.79485,51.31595],[-2.79532,51.31596],[-2.79539,51.31571],[-2.79608,51.31581],[-2.79602,51.31596],[-2.79658,51.31592],[-2.79654,51.31622],[-2.79642,51.31629],[-2.79612,51.31622],[-2.79516,51.31613],[-2.79417,51.31611],[-2.79337,51.31707],[-2.79426,51.31715],[-2.79584,51.31768],[-2.79705,51.31835],[-2.79875,51.31838],[-2.79875,51.31829],[-2.79869,51.31813],[-2.79839,51.31766],[-2.79827,51.31737],[-2.79824,51.31717],[-2.79833,51.31673],[-2.79849,51.3167],[-2.79847,51.31666],[-2.7985,51.31658],[-2.79876,51.31632],[-2.7991,51.31645],[-2.79978,51.3168],[-2.79993,51.31678],[-2.80006,51.31654],[-2.80011,51.31637],[-2.80015,51.31566],[-2.80151,51.31563],[-2.80144,51.3153],[-2.80146,51.31526],[-2.8015,51.31526],[-2.80147,51.31501],[-2.80152,51.31501],[-2.80151,51.3146],[-2.80131,51.3146],[-2.80133,51.31457],[-2.80117,51.31398],[-2.80104,51.31398],[-2.80074,51.3134],[-2.80104,51.31339],[-2.80141,51.31323],[-2.80172,51.31316],[-2.80169,51.31296],[-2.8015,51.31293],[-2.80151,51.31284],[-2.80214,51.31285],[-2.80214,51.31277],[-2.80115,51.31267],[-2.801,51.3124],[-2.80058,51.3124],[-2.8008,51.31189],[-2.80064,51.31194],[-2.80058,51.31207],[-2.80036,51.31204],[-2.80027,51.31217],[-2.80009,51.31224],[-2.79995,51.31266],[-2.79988,51.31263],[-2.79987,51.31265],[-2.79966,51.31267],[-2.79963,51.31279],[-2.79977,51.31281],[-2.79958,51.31316],[-2.79945,51.3132],[-2.79911,51.31318],[-2.79911,51.31309],[-2.79818,51.31306]]]}}]}