{"type":"FeatureCollection","features":[{"type":"Feature","properties":{"Id":0,"Name":"Somerset Coast, Levels and Moors","Label_name":"Somerset Coast, Levels and Moors"},"geometry":{"type":"Polygon","coordinates":[[[-2.82437,51.28516],[-2.82377,51.28518],[-2.82376,51.28513],[-2.82356,51.28512],[-2.82357,51.28524],[-2.82212,51.28555],[-2.82204,51.28556],[-2.82194,51.28551],[-2.82179,51.28551],[-2.8212,51.28565],[-2.82121,51.28514],[-2.81947,51.28505],[-2.81875,51.28497],[-2.81815,51.28483],[-2.81754,51.28477],[-2.81735,51.28463],[-2.81651,51.28454],[-2.81629,51.28435],[-2.81561,51.28414],[-2.81436,51.28394],[-2.81354,51.28375],[-2.81225,51.28378],[-2.81166,51.28376],[-2.81155,51.28378],[-2.81129,51.28395],[-2.81103,51.28397],[-2.81053,51.28382],[-2.81011,51.28374],[-2.80961,51.2837],[-2.80956,51.28353],[-2.80992,51.28291],[-2.81006,51.28253],[-2.81023,51.28067],[-2.81043,51.28068],[-2.81028,51.28016],[-2.81025,51.27881],[-2.85321,51.27881],[-2.85308,51.27888],[-2.85312,51.27894],[-2.85206,51.2793],[-2.85056,51.27991],[-2.85061,51.27993],[-2.85048,51.28],[-2.84818,51.28116],[-2.8481,51.28114],[-2.8367,51.28736],[-2.8357,51.28811],[-2.83518,51.28858],[-2.8348,51.28901],[-2.83433,51.28944],[-2.83423,51.28958],[-2.83406,51.28963],[-2.83395,51.28964],[-2.8335,51.28955],[-2.83133,51.28926],[-2.82985,51.28897],[-2.82829,51.28854],[-2.82744,51.28842],[-2.82601,51.28814],[-2.82602,51.28763],[-2.82614,51.2874],[-2.82617,51.28544],[-2.82514,51.28525],[-2.82443,51.28521],[-2.82437,51.28516]]]}}]}