{"type":"FeatureCollection","features":[{"type":"Feature","properties":{"HYPERLINK":"1460465","REF_CODE":"1460465","NAME":"MENDIP","MEASURE":1410.61,"LABEL":"Mendip (NNR)"},"geometry":{"type":"MultiPolygon","coordinates":[[[[-2.85497,51.2998],[-2.85317,51.29946],[-2.84223,51.30016],[-2.8312,51.30077],[-2.83043,51.30055],[-2.82956,51.30041],[-2.82934,51.30034],[-2.82892,51.29947],[-2.8287,51.29896],[-2.82858,51.29843],[-2.82856,51.29781],[-2.82866,51.29732],[-2.82896,51.29664],[-2.82969,51.29567],[-2.83022,51.29505],[-2.83028,51.29506],[-2.83021,51.29513],[-2.83021,51.29524],[-2.83042,51.29528],[-2.82997,51.29585],[-2.82966,51.29632],[-2.82962,51.29655],[-2.82946,51.29701],[-2.82947,51.29713],[-2.8294,51.2974],[-2.82922,51.29767],[-2.82917,51.29781],[-2.82924,51.29823],[-2.82936,51.2987],[-2.82937,51.29913],[-2.82952,51.29976],[-2.82963,51.29998],[-2.82987,51.30023],[-2.83002,51.30028],[-2.83046,51.30021],[-2.83037,51.30054],[-2.83135,51.30054],[-2.83113,51.29992],[-2.83174,51.29993],[-2.83185,51.29988],[-2.83193,51.29958],[-2.83231,51.29911],[-2.83237,51.29833],[-2.83246,51.29834],[-2.83248,51.29826],[-2.83253,51.29822],[-2.8333,51.29828],[-2.8334,51.29839],[-2.83536,51.29874],[-2.83548,51.29865],[-2.83556,51.29854],[-2.83576,51.29843],[-2.83625,51.29744],[-2.83607,51.29738],[-2.83637,51.29662],[-2.83414,51.2963],[-2.83427,51.29588],[-2.83425,51.29554],[-2.83298,51.29553],[-2.83296,51.29545],[-2.83151,51.29543],[-2.83119,51.2954],[-2.83117,51.29536],[-2.83106,51.29533],[-2.83106,51.29491],[-2.83136,51.2946],[-2.83145,51.29448],[-2.83162,51.29398],[-2.83173,51.29381],[-2.83191,51.29362],[-2.832,51.29346],[-2.8321,51.29315],[-2.83232,51.29272],[-2.83217,51.2927],[-2.83214,51.29218],[-2.8319,51.29228],[-2.832,51.29206],[-2.83257,51.2914],[-2.83266,51.29136],[-2.83313,51.29084],[-2.83465,51.29108],[-2.83476,51.29064],[-2.83503,51.29027],[-2.83518,51.29011],[-2.83551,51.28993],[-2.83567,51.28975],[-2.83634,51.28973],[-2.83649,51.29006],[-2.83785,51.29004],[-2.83808,51.2901],[-2.83831,51.29026],[-2.8385,51.2903],[-2.83865,51.29028],[-2.83932,51.29002],[-2.83943,51.29],[-2.8394,51.2906],[-2.83919,51.29059],[-2.83916,51.29088],[-2.83987,51.29092],[-2.83991,51.29063],[-2.8396,51.29061],[-2.83963,51.29002],[-2.84018,51.29033],[-2.84072,51.29043],[-2.84093,51.29038],[-2.84135,51.29011],[-2.84137,51.29006],[-2.84153,51.29012],[-2.84179,51.29013],[-2.8421,51.2902],[-2.8422,51.29015],[-2.84248,51.29024],[-2.84284,51.29026],[-2.84288,51.29052],[-2.84287,51.29062],[-2.84275,51.29074],[-2.84255,51.29087],[-2.84229,51.29093],[-2.84226,51.29119],[-2.84217,51.29133],[-2.84212,51.29161],[-2.84189,51.29191],[-2.84183,51.29209],[-2.84183,51.29226],[-2.84188,51.29232],[-2.84189,51.29242],[-2.84186,51.29255],[-2.8419,51.29268],[-2.84189,51.29286],[-2.84183,51.29298],[-2.84188,51.29309],[-2.84191,51.29328],[-2.84201,51.29342],[-2.84232,51.29368],[-2.84253,51.29378],[-2.84257,51.29371],[-2.84261,51.2937],[-2.84284,51.29379],[-2.84393,51.29448],[-2.84404,51.29481],[-2.84407,51.29514],[-2.844,51.29531],[-2.84406,51.29548],[-2.84442,51.29567],[-2.84468,51.29605],[-2.84491,51.29614],[-2.8448,51.29629],[-2.84481,51.29632],[-2.8456,51.29655],[-2.84565,51.29652],[-2.84593,51.29654],[-2.8459,51.29642],[-2.84592,51.29635],[-2.84644,51.29638],[-2.84664,51.29588],[-2.8466,51.29574],[-2.84679,51.29486],[-2.84687,51.29411],[-2.8471,51.29412],[-2.84786,51.29384],[-2.84823,51.29363],[-2.84839,51.29345],[-2.84848,51.29343],[-2.84845,51.29323],[-2.84851,51.29316],[-2.84923,51.29292],[-2.84949,51.29293],[-2.84981,51.29285],[-2.85018,51.29285],[-2.85028,51.29288],[-2.85047,51.29301],[-2.85107,51.29295],[-2.85205,51.29293],[-2.85215,51.2929],[-2.85207,51.29313],[-2.85237,51.29344],[-2.85242,51.29354],[-2.85313,51.29408],[-2.85343,51.29424],[-2.85365,51.29449],[-2.85376,51.29454],[-2.85405,51.29455],[-2.85425,51.29462],[-2.85444,51.29462],[-2.85455,51.29458],[-2.85491,51.29468],[-2.85482,51.29482],[-2.85475,51.2948],[-2.85472,51.29486],[-2.85475,51.29491],[-2.85497,51.295],[-2.85497,51.2998]]],[[[-2.76226,51.27986],[-2.76115,51.27974],[-2.75993,51.27943],[-2.75784,51.27905],[-2.75714,51.27887],[-2.75708,51.27881],[-2.7637,51.27881],[-2.76387,51.27902],[-2.76349,51.27956],[-2.76373,51.27967],[-2.76388,51.27982],[-2.76378,51.27985],[-2.76342,51.28005],[-2.76226,51.27986]]],[[[-2.76915,51.28246],[-2.76849,51.28242],[-2.76852,51.28222],[-2.7685,51.28222],[-2.7685,51.28217],[-2.76912,51.28216],[-2.76971,51.28204],[-2.77021,51.28183],[-2.77044,51.28165],[-2.77048,51.28155],[-2.77059,51.28152],[-2.77065,51.28161],[-2.77048,51.28186],[-2.77021,51.28207],[-2.7699,51.28239],[-2.76915,51.28246]]],[[[-2.74421,51.28751],[-2.74404,51.28632],[-2.74404,51.28577],[-2.74421,51.28556],[-2.74441,51.28541],[-2.74519,51.2852],[-2.74541,51.28512],[-2.74563,51.28498],[-2.74606,51.28464],[-2.74639,51.28427],[-2.74645,51.28417],[-2.74664,51.28361],[-2.74647,51.28329],[-2.74644,51.28312],[-2.74639,51.28307],[-2.74575,51.28283],[-2.7444,51.28273],[-2.74415,51.28266],[-2.74375,51.28249],[-2.74355,51.28234],[-2.74307,51.28161],[-2.74286,51.28134],[-2.74238,51.28097],[-2.74061,51.28039],[-2.7401,51.2802],[-2.73973,51.28002],[-2.73938,51.27967],[-2.73897,51.27881],[-2.73418,51.27881],[-2.7333,51.27944],[-2.73303,51.27953],[-2.73271,51.27956],[-2.73255,51.27955],[-2.73233,51.27949],[-2.73214,51.27937],[-2.73208,51.27926],[-2.73194,51.27881],[-2.74708,51.27881],[-2.74715,51.27885],[-2.74608,51.2795],[-2.74524,51.27881],[-2.74347,51.27881],[-2.74549,51.28023],[-2.74904,51.28281],[-2.74939,51.2831],[-2.75038,51.28408],[-2.75194,51.283],[-2.75371,51.28183],[-2.75201,51.28077],[-2.75067,51.28171],[-2.74891,51.28041],[-2.75082,51.27881],[-2.75348,51.27881],[-2.75397,51.27945],[-2.75402,51.27948],[-2.75601,51.27991],[-2.75724,51.28029],[-2.7583,51.28055],[-2.75925,51.28051],[-2.76005,51.28056],[-2.76039,51.2805],[-2.76082,51.28051],[-2.76129,51.28043],[-2.76239,51.28033],[-2.76349,51.28037],[-2.76431,51.28036],[-2.7648,51.28023],[-2.76484,51.28017],[-2.7654,51.28006],[-2.76593,51.27991],[-2.76614,51.27981],[-2.76681,51.27964],[-2.76683,51.27966],[-2.76717,51.27965],[-2.76877,51.27979],[-2.76914,51.27976],[-2.76982,51.27953],[-2.76989,51.28012],[-2.77046,51.27985],[-2.77056,51.27942],[-2.77054,51.27935],[-2.77064,51.27933],[-2.77079,51.27934],[-2.77082,51.27936],[-2.77078,51.2794],[-2.7708,51.27943],[-2.77128,51.27975],[-2.77168,51.27986],[-2.77183,51.28002],[-2.77178,51.28011],[-2.77181,51.28019],[-2.77158,51.28019],[-2.77122,51.28029],[-2.77119,51.28032],[-2.77122,51.28038],[-2.77117,51.28044],[-2.771,51.28051],[-2.77097,51.2806],[-2.77085,51.28064],[-2.77092,51.28072],[-2.77087,51.28079],[-2.77091,51.2811],[-2.77029,51.28119],[-2.76902,51.28174],[-2.76878,51.2818],[-2.76853,51.28181],[-2.76804,51.28174],[-2.76745,51.28173],[-2.76695,51.28168],[-2.76674,51.2817],[-2.76643,51.28165],[-2.76615,51.28169],[-2.76612,51.28166],[-2.76608,51.28169],[-2.76606,51.28179],[-2.76595,51.28185],[-2.76592,51.28193],[-2.76567,51.28201],[-2.76552,51.28216],[-2.76544,51.28233],[-2.76544,51.28267],[-2.76539,51.28273],[-2.76529,51.28276],[-2.76513,51.28275],[-2.76513,51.28272],[-2.76478,51.28257],[-2.76449,51.2826],[-2.76398,51.28269],[-2.76402,51.28282],[-2.76333,51.28305],[-2.76312,51.28317],[-2.76282,51.28345],[-2.76268,51.28347],[-2.76258,51.28367],[-2.76259,51.28378],[-2.76277,51.28388],[-2.76283,51.28401],[-2.76251,51.28413],[-2.76231,51.28446],[-2.7622,51.28449],[-2.76163,51.2845],[-2.76143,51.28453],[-2.76097,51.28472],[-2.76089,51.28484],[-2.76082,51.28489],[-2.76039,51.28503],[-2.76024,51.28504],[-2.76017,51.28499],[-2.75998,51.28497],[-2.75973,51.28488],[-2.75954,51.28489],[-2.75942,51.28496],[-2.75935,51.28509],[-2.75895,51.28519],[-2.75879,51.28562],[-2.75865,51.28583],[-2.75857,51.28587],[-2.75842,51.28587],[-2.75831,51.28583],[-2.75816,51.28573],[-2.75806,51.28554],[-2.75792,51.28546],[-2.7577,51.28538],[-2.75746,51.28543],[-2.75724,51.28556],[-2.75714,51.28595],[-2.75704,51.28607],[-2.75624,51.2864],[-2.75557,51.28694],[-2.75539,51.28682],[-2.75519,51.28692],[-2.75474,51.28704],[-2.75453,51.2872],[-2.75465,51.28731],[-2.75452,51.28735],[-2.75414,51.28739],[-2.75372,51.28732],[-2.75344,51.28732],[-2.7529,51.28747],[-2.75258,51.28764],[-2.75217,51.28779],[-2.75151,51.28788],[-2.75103,51.28787],[-2.75057,51.28794],[-2.74947,51.28788],[-2.74907,51.28794],[-2.7489,51.28793],[-2.74875,51.28789],[-2.74804,51.28753],[-2.74768,51.28744],[-2.74745,51.28745],[-2.74717,51.28755],[-2.74691,51.28775],[-2.74685,51.2879],[-2.74686,51.28808],[-2.74681,51.28821],[-2.74664,51.28841],[-2.74648,51.28854],[-2.74627,51.2886],[-2.74531,51.2887],[-2.74488,51.28862],[-2.74462,51.2885],[-2.74439,51.28834],[-2.74427,51.28819],[-2.7442,51.28805],[-2.74421,51.28751]]],[[[-2.82891,51.29634],[-2.82882,51.29628],[-2.82909,51.29571],[-2.82947,51.2941],[-2.82949,51.29328],[-2.82941,51.29272],[-2.82931,51.29232],[-2.8294,51.29231],[-2.82962,51.2927],[-2.82978,51.29308],[-2.8297,51.29311],[-2.82976,51.29438],[-2.82981,51.29439],[-2.82981,51.29494],[-2.82973,51.29542],[-2.82898,51.29632],[-2.82891,51.29634]]],[[[-2.73705,51.3001],[-2.73701,51.30001],[-2.73702,51.29992],[-2.73735,51.29962],[-2.73744,51.29943],[-2.73738,51.29923],[-2.73716,51.29888],[-2.73784,51.29888],[-2.7379,51.29879],[-2.73845,51.29869],[-2.73848,51.29867],[-2.73847,51.29842],[-2.73836,51.29843],[-2.73816,51.2985],[-2.73792,51.29865],[-2.73762,51.29876],[-2.73738,51.29877],[-2.73719,51.29876],[-2.73712,51.29872],[-2.73711,51.29857],[-2.73742,51.29825],[-2.73753,51.29799],[-2.73774,51.29775],[-2.73781,51.29758],[-2.73812,51.29724],[-2.73812,51.29717],[-2.73804,51.29707],[-2.73745,51.29674],[-2.73665,51.29613],[-2.73622,51.29565],[-2.73586,51.29535],[-2.7355,51.29479],[-2.7352,51.29441],[-2.73511,51.29418],[-2.73501,51.29401],[-2.73493,51.29366],[-2.735,51.2933],[-2.73499,51.29321],[-2.73487,51.29291],[-2.7347,51.29268],[-2.73645,51.2924],[-2.73609,51.29158],[-2.736,51.29124],[-2.73599,51.29111],[-2.73475,51.29074],[-2.73395,51.2907],[-2.73341,51.29075],[-2.73306,51.29086],[-2.73302,51.29123],[-2.73232,51.29173],[-2.73149,51.29218],[-2.7309,51.29245],[-2.73044,51.29262],[-2.72984,51.29276],[-2.72939,51.2928],[-2.72916,51.2928],[-2.72856,51.29273],[-2.72796,51.29255],[-2.72742,51.2923],[-2.72742,51.29161],[-2.7283,51.29187],[-2.72857,51.29184],[-2.72889,51.29172],[-2.72909,51.29174],[-2.72946,51.29188],[-2.73023,51.29181],[-2.7305,51.29172],[-2.73117,51.2913],[-2.73178,51.29098],[-2.73236,51.29034],[-2.73288,51.2901],[-2.73344,51.28995],[-2.73384,51.28993],[-2.73471,51.28997],[-2.73509,51.29001],[-2.73517,51.29024],[-2.73517,51.29034],[-2.73611,51.2908],[-2.7369,51.29062],[-2.73711,51.29054],[-2.73719,51.29047],[-2.73707,51.29016],[-2.73665,51.28996],[-2.73607,51.28977],[-2.73538,51.28941],[-2.73528,51.28933],[-2.73509,51.28904],[-2.73428,51.28854],[-2.73434,51.28841],[-2.73525,51.28807],[-2.7365,51.28744],[-2.7376,51.28668],[-2.73811,51.28609],[-2.73874,51.28572],[-2.74131,51.2859],[-2.74182,51.28514],[-2.74101,51.28434],[-2.73962,51.28356],[-2.73829,51.28289],[-2.7371,51.28218],[-2.73616,51.28178],[-2.735,51.28145],[-2.73445,51.28131],[-2.73421,51.28133],[-2.73404,51.28142],[-2.73336,51.28103],[-2.73326,51.28086],[-2.73288,51.27975],[-2.73269,51.27966],[-2.73305,51.27962],[-2.73334,51.27952],[-2.73433,51.27881],[-2.73884,51.27881],[-2.73923,51.27963],[-2.73933,51.27978],[-2.73954,51.27999],[-2.73983,51.28017],[-2.74005,51.28026],[-2.74237,51.28107],[-2.7426,51.28122],[-2.7428,51.28143],[-2.74339,51.28231],[-2.74368,51.28255],[-2.744,51.28271],[-2.74422,51.28277],[-2.74492,51.28286],[-2.74561,51.28288],[-2.74621,51.28305],[-2.74633,51.28313],[-2.7464,51.28335],[-2.74654,51.28355],[-2.74655,51.28363],[-2.74644,51.2839],[-2.74637,51.28417],[-2.74605,51.28453],[-2.74569,51.28485],[-2.74537,51.28507],[-2.74435,51.28534],[-2.74403,51.28561],[-2.74394,51.28576],[-2.74394,51.28631],[-2.7441,51.28725],[-2.74402,51.28738],[-2.74406,51.28763],[-2.74406,51.28798],[-2.74409,51.28811],[-2.74445,51.28851],[-2.74494,51.28872],[-2.74522,51.28878],[-2.74553,51.28879],[-2.74552,51.28874],[-2.74617,51.28868],[-2.74651,51.28859],[-2.74672,51.28842],[-2.7469,51.28818],[-2.74693,51.28808],[-2.74692,51.28791],[-2.74698,51.28779],[-2.74707,51.28769],[-2.74726,51.28758],[-2.74749,51.2875],[-2.74773,51.28751],[-2.74808,51.28761],[-2.74831,51.28771],[-2.74868,51.28794],[-2.74891,51.28802],[-2.74949,51.28795],[-2.75059,51.28799],[-2.75104,51.28794],[-2.75159,51.28795],[-2.75238,51.28782],[-2.753,51.28749],[-2.7534,51.28738],[-2.75365,51.28736],[-2.7541,51.28745],[-2.75432,51.28745],[-2.75469,51.28737],[-2.75534,51.28713],[-2.75551,51.28716],[-2.75567,51.28715],[-2.75576,51.28706],[-2.75577,51.28699],[-2.75572,51.28693],[-2.75634,51.28643],[-2.75707,51.28613],[-2.75722,51.28613],[-2.75732,51.28609],[-2.75736,51.28598],[-2.75729,51.2858],[-2.75735,51.28559],[-2.75743,51.28552],[-2.75762,51.28547],[-2.75783,51.28549],[-2.75794,51.2856],[-2.75811,51.28585],[-2.75847,51.28602],[-2.75861,51.28603],[-2.75872,51.28598],[-2.75878,51.28589],[-2.75889,51.28582],[-2.7589,51.28577],[-2.75886,51.28573],[-2.75899,51.28531],[-2.75904,51.28525],[-2.75968,51.28514],[-2.76029,51.28511],[-2.76058,51.28507],[-2.76155,51.28469],[-2.76208,51.28462],[-2.76249,51.28452],[-2.76275,51.28436],[-2.76293,51.28403],[-2.76297,51.28389],[-2.76286,51.28373],[-2.76285,51.28361],[-2.76295,51.28342],[-2.76314,51.28325],[-2.76325,51.2832],[-2.76331,51.28323],[-2.76376,51.28303],[-2.76432,51.28288],[-2.76454,51.28284],[-2.76458,51.28292],[-2.76483,51.28289],[-2.76485,51.28287],[-2.76486,51.28276],[-2.76494,51.28279],[-2.76496,51.28288],[-2.765,51.2829],[-2.76537,51.28292],[-2.76557,51.2827],[-2.76552,51.28251],[-2.76565,51.28243],[-2.76562,51.28234],[-2.76564,51.28228],[-2.76559,51.28227],[-2.76584,51.28218],[-2.76641,51.28222],[-2.76648,51.28221],[-2.7665,51.28213],[-2.76656,51.28213],[-2.76653,51.28222],[-2.76698,51.28222],[-2.76705,51.28211],[-2.76713,51.28214],[-2.76715,51.28212],[-2.76781,51.28231],[-2.76791,51.28236],[-2.76788,51.28239],[-2.76797,51.28242],[-2.768,51.28239],[-2.76829,51.28245],[-2.76951,51.28251],[-2.77025,51.28274],[-2.76994,51.28301],[-2.76726,51.28476],[-2.76722,51.28535],[-2.76686,51.28538],[-2.76674,51.28526],[-2.76479,51.28656],[-2.76381,51.28541],[-2.76295,51.2862],[-2.76135,51.28665],[-2.76064,51.28697],[-2.75801,51.28785],[-2.75885,51.28867],[-2.75967,51.28939],[-2.75879,51.28983],[-2.75854,51.28972],[-2.75708,51.29106],[-2.75367,51.29038],[-2.75107,51.29291],[-2.75007,51.29282],[-2.74717,51.29239],[-2.74687,51.29172],[-2.74434,51.29162],[-2.74451,51.29128],[-2.74254,51.29101],[-2.7423,51.29023],[-2.73952,51.29007],[-2.73909,51.2909],[-2.739,51.29101],[-2.73782,51.29175],[-2.738,51.29213],[-2.73868,51.29294],[-2.73916,51.2944],[-2.73908,51.29444],[-2.73905,51.29455],[-2.73912,51.29477],[-2.7394,51.29533],[-2.73945,51.29557],[-2.73954,51.29573],[-2.73955,51.29588],[-2.73966,51.29595],[-2.74048,51.29619],[-2.74093,51.29662],[-2.74103,51.29678],[-2.74102,51.29689],[-2.74088,51.297],[-2.74008,51.29691],[-2.73985,51.29681],[-2.73978,51.29682],[-2.73984,51.29694],[-2.74,51.297],[-2.7407,51.2971],[-2.74162,51.29742],[-2.74128,51.29782],[-2.73962,51.29893],[-2.73934,51.29935],[-2.73918,51.29938],[-2.73847,51.2993],[-2.73843,51.29935],[-2.73829,51.29939],[-2.7382,51.29959],[-2.73831,51.29961],[-2.73818,51.29984],[-2.73809,51.29983],[-2.73802,51.29992],[-2.73796,51.2999],[-2.73787,51.30004],[-2.73786,51.30011],[-2.73767,51.30009],[-2.7373,51.30021],[-2.73705,51.3001]]],[[[-2.83087,51.30084],[-2.82951,51.3007],[-2.82946,51.30054],[-2.82956,51.30046],[-2.83036,51.30058],[-2.83094,51.30074],[-2.83092,51.30079],[-2.83098,51.30081],[-2.83102,51.30077],[-2.83118,51.30084],[-2.83115,51.30088],[-2.83087,51.30084]]],[[[-2.82106,51.30095],[-2.82059,51.30085],[-2.81987,51.30101],[-2.8197,51.30102],[-2.81914,51.30093],[-2.81883,51.30094],[-2.81826,51.30104],[-2.81826,51.30095],[-2.81893,51.29937],[-2.8198,51.29703],[-2.82004,51.29657],[-2.82018,51.29621],[-2.82045,51.29572],[-2.82059,51.29506],[-2.82083,51.29437],[-2.82087,51.29285],[-2.82155,51.29133],[-2.82168,51.29094],[-2.82225,51.28994],[-2.82242,51.28995],[-2.82261,51.28986],[-2.82321,51.28974],[-2.82344,51.28963],[-2.82345,51.28955],[-2.82413,51.28946],[-2.82504,51.28901],[-2.82601,51.28941],[-2.82633,51.28957],[-2.82742,51.2902],[-2.82792,51.29057],[-2.82839,51.29095],[-2.8286,51.2912],[-2.82888,51.29168],[-2.82916,51.29226],[-2.8293,51.29273],[-2.82938,51.29319],[-2.82939,51.29366],[-2.82933,51.29427],[-2.82899,51.29571],[-2.82885,51.29604],[-2.82859,51.29647],[-2.82852,51.29699],[-2.82831,51.29777],[-2.82787,51.29836],[-2.82784,51.29846],[-2.82499,51.29843],[-2.8232,51.2982],[-2.82298,51.29814],[-2.82259,51.2983],[-2.82247,51.29842],[-2.8223,51.29874],[-2.82186,51.29902],[-2.82162,51.29941],[-2.82158,51.29956],[-2.82162,51.29971],[-2.82151,51.29991],[-2.82142,51.30037],[-2.82151,51.30053],[-2.82231,51.30086],[-2.82336,51.30053],[-2.82386,51.30057],[-2.82448,51.30045],[-2.82493,51.3006],[-2.82583,51.30048],[-2.82608,51.30049],[-2.82642,51.30039],[-2.82649,51.30058],[-2.82685,51.30089],[-2.82242,51.30095],[-2.82226,51.30097],[-2.82179,51.30111],[-2.82154,51.30108],[-2.82106,51.30095]]],[[[-2.7507,51.30245],[-2.75089,51.30211],[-2.75101,51.30198],[-2.75129,51.30123],[-2.75182,51.30128],[-2.75233,51.30141],[-2.7529,51.30146],[-2.7544,51.30174],[-2.75437,51.30213],[-2.75433,51.30219],[-2.75407,51.30236],[-2.75361,51.30235],[-2.75342,51.30263],[-2.75298,51.30444],[-2.75173,51.30437],[-2.75009,51.30422],[-2.74974,51.30422],[-2.75021,51.3033],[-2.75033,51.30318],[-2.75055,51.3028],[-2.7507,51.30245]]],[[[-2.734,51.30483],[-2.73259,51.30401],[-2.73245,51.30387],[-2.73249,51.30382],[-2.73242,51.30379],[-2.73243,51.3036],[-2.73234,51.3034],[-2.7324,51.3032],[-2.73298,51.30276],[-2.73346,51.30215],[-2.7337,51.30207],[-2.73381,51.30199],[-2.73383,51.30196],[-2.73371,51.30189],[-2.7337,51.30182],[-2.73376,51.30163],[-2.73397,51.30136],[-2.7346,51.30141],[-2.73483,51.30149],[-2.7357,51.30168],[-2.73609,51.30182],[-2.73632,51.30195],[-2.73655,51.30201],[-2.73749,51.30221],[-2.73812,51.30229],[-2.73922,51.30266],[-2.73971,51.30278],[-2.7419,51.30322],[-2.74298,51.30354],[-2.74307,51.30349],[-2.74416,51.30368],[-2.74476,51.30384],[-2.7452,51.30408],[-2.74547,51.30419],[-2.74547,51.30424],[-2.7456,51.30427],[-2.74563,51.30423],[-2.74646,51.30435],[-2.74756,51.3044],[-2.74889,51.30455],[-2.75029,51.3046],[-2.75206,51.30459],[-2.75208,51.3075],[-2.73629,51.30644],[-2.73486,51.30537],[-2.734,51.30483]]],[[[-2.7807,51.32979],[-2.78038,51.32974],[-2.78011,51.32975],[-2.78003,51.32981],[-2.77976,51.32984],[-2.77918,51.32978],[-2.77906,51.32987],[-2.77891,51.32993],[-2.77844,51.32994],[-2.77789,51.33003],[-2.77699,51.33009],[-2.77658,51.33015],[-2.77555,51.33017],[-2.7744,51.33011],[-2.77352,51.33023],[-2.77294,51.33025],[-2.77239,51.3302],[-2.77228,51.33008],[-2.77175,51.32964],[-2.77143,51.32931],[-2.77075,51.32885],[-2.77012,51.32798],[-2.76928,51.32718],[-2.76924,51.32711],[-2.76922,51.32678],[-2.76925,51.32623],[-2.7692,51.32602],[-2.76903,51.32592],[-2.7687,51.32476],[-2.76853,51.32439],[-2.76826,51.32398],[-2.768,51.32378],[-2.76765,51.32363],[-2.76632,51.32323],[-2.76524,51.323],[-2.76453,51.3228],[-2.76393,51.32271],[-2.76392,51.3226],[-2.76452,51.3227],[-2.76461,51.32257],[-2.76459,51.32254],[-2.76473,51.32254],[-2.76498,51.32243],[-2.76505,51.32234],[-2.76654,51.32275],[-2.76761,51.32318],[-2.76783,51.32323],[-2.7681,51.3236],[-2.76836,51.32382],[-2.76854,51.32377],[-2.77,51.32379],[-2.77095,51.32375],[-2.77286,51.32346],[-2.77659,51.32359],[-2.77839,51.32361],[-2.78139,51.32388],[-2.78184,51.32396],[-2.78282,51.32408],[-2.78499,51.32418],[-2.78533,51.32426],[-2.78622,51.3248],[-2.78668,51.32489],[-2.78854,51.32487],[-2.78973,51.3249],[-2.79084,51.32513],[-2.7916,51.32522],[-2.79238,51.32525],[-2.79444,51.32524],[-2.79492,51.32533],[-2.79598,51.32565],[-2.79618,51.32575],[-2.79642,51.32601],[-2.79658,51.32631],[-2.79654,51.32637],[-2.79637,51.32648],[-2.79639,51.32668],[-2.7963,51.32701],[-2.7961,51.32733],[-2.79585,51.32759],[-2.79575,51.32766],[-2.79558,51.32767],[-2.79517,51.32789],[-2.79493,51.32821],[-2.79464,51.32809],[-2.79429,51.32824],[-2.79331,51.32852],[-2.79157,51.32865],[-2.79099,51.32908],[-2.79061,51.32946],[-2.7895,51.3302],[-2.78927,51.33023],[-2.78902,51.32966],[-2.78616,51.32996],[-2.78622,51.33024],[-2.78556,51.33028],[-2.78571,51.33106],[-2.78577,51.33156],[-2.78583,51.33177],[-2.78556,51.33178],[-2.78557,51.3319],[-2.78506,51.33188],[-2.78463,51.33181],[-2.78407,51.33162],[-2.7832,51.33125],[-2.78277,51.33112],[-2.78151,51.3305],[-2.78138,51.33041],[-2.78085,51.32988],[-2.7807,51.32979]]],[[[-2.78272,51.32977],[-2.78328,51.3284],[-2.78108,51.32834],[-2.77891,51.32837],[-2.77827,51.32838],[-2.7774,51.3285],[-2.77837,51.32843],[-2.78115,51.3288],[-2.7814,51.32879],[-2.78168,51.32886],[-2.78238,51.32888],[-2.78219,51.32953],[-2.78272,51.32977]]],[[[-2.77409,51.3273],[-2.77343,51.32673],[-2.7732,51.32625],[-2.77282,51.32623],[-2.7724,51.32626],[-2.77183,51.32636],[-2.77049,51.32637],[-2.76988,51.32644],[-2.77343,51.32751],[-2.77415,51.32734],[-2.77409,51.3273]]]]}}]}