{"type":"FeatureCollection","features":[{"type":"Feature","properties":{"Descrip":"Access Land - Combined Open Country, Registered Common Land and Section 16 Dedicated Land. MoD Byelaw, Section 28 Exclusions, Racecourses and Aerodromes and ECP Margin have been removed.","OC":"Yes","RCL":"No","S16":"No","Map_Area":3,"Version":"v52"},"geometry":{"type":"MultiPolygon","coordinates":[[[[-2.76303,51.2834],[-2.76304,51.28339],[-2.76299,51.28343],[-2.76303,51.2834]]],[[[-2.7658,51.28222],[-2.76577,51.28239],[-2.76596,51.28245],[-2.76599,51.28255],[-2.76595,51.28264],[-2.76578,51.28272],[-2.76585,51.2828],[-2.76619,51.28271],[-2.76625,51.28288],[-2.76674,51.28273],[-2.76668,51.28257],[-2.76665,51.28222],[-2.76697,51.28223],[-2.76698,51.28246],[-2.7675,51.2828],[-2.76693,51.28356],[-2.76672,51.28371],[-2.76744,51.28466],[-2.76727,51.28477],[-2.76721,51.28536],[-2.76685,51.28538],[-2.76674,51.28527],[-2.76479,51.28656],[-2.76383,51.28542],[-2.76298,51.28621],[-2.76138,51.28665],[-2.76066,51.28696],[-2.75795,51.28782],[-2.75837,51.28827],[-2.75601,51.28884],[-2.75144,51.28978],[-2.74915,51.28972],[-2.74595,51.28973],[-2.74571,51.2892],[-2.74556,51.28871],[-2.74621,51.28865],[-2.74658,51.28853],[-2.74676,51.28839],[-2.74689,51.2882],[-2.74695,51.28805],[-2.74694,51.28788],[-2.747,51.28775],[-2.74713,51.28762],[-2.74744,51.28746],[-2.74764,51.28745],[-2.7479,51.28751],[-2.7483,51.28769],[-2.74853,51.28788],[-2.7489,51.28801],[-2.74939,51.28793],[-2.75064,51.28793],[-2.75162,51.28786],[-2.75228,51.28777],[-2.75304,51.28747],[-2.7535,51.28735],[-2.75369,51.28734],[-2.75428,51.28742],[-2.75451,51.28739],[-2.75486,51.28729],[-2.75541,51.28708],[-2.75572,51.28692],[-2.75639,51.28639],[-2.7572,51.28606],[-2.75728,51.28598],[-2.7574,51.28556],[-2.75757,51.28545],[-2.75773,51.28542],[-2.75789,51.28545],[-2.75797,51.28551],[-2.75824,51.28586],[-2.75847,51.28595],[-2.75863,51.28595],[-2.75875,51.28591],[-2.75887,51.28581],[-2.75905,51.28529],[-2.75923,51.28521],[-2.75988,51.2851],[-2.76009,51.2851],[-2.76036,51.28516],[-2.76058,51.28514],[-2.76086,51.28505],[-2.76126,51.28479],[-2.76155,51.28468],[-2.76187,51.28463],[-2.76221,51.28465],[-2.76237,51.28459],[-2.76261,51.28456],[-2.76278,51.28442],[-2.76283,51.28425],[-2.76298,51.28398],[-2.76299,51.2839],[-2.76289,51.28373],[-2.76287,51.28364],[-2.76295,51.2835],[-2.76324,51.28348],[-2.76373,51.28333],[-2.76428,51.28307],[-2.76473,51.28306],[-2.7649,51.28297],[-2.76492,51.28284],[-2.76496,51.283],[-2.76508,51.28307],[-2.76537,51.28306],[-2.76552,51.283],[-2.76565,51.28293],[-2.7657,51.28287],[-2.76574,51.28255],[-2.76571,51.2825],[-2.76562,51.28249],[-2.76568,51.28243],[-2.76565,51.28234],[-2.76567,51.28228],[-2.76561,51.28227],[-2.7658,51.28222]]],[[[-2.76619,51.28367],[-2.76654,51.28359],[-2.76667,51.28363],[-2.76669,51.2836],[-2.76665,51.28312],[-2.76659,51.28312],[-2.76646,51.28321],[-2.76645,51.28313],[-2.76641,51.2831],[-2.76613,51.28314],[-2.76617,51.28331],[-2.76611,51.28358],[-2.76619,51.28367]]],[[[-2.75569,51.28706],[-2.75568,51.28706],[-2.75569,51.28706],[-2.75569,51.28706]]]]}},{"type":"Feature","properties":{"Descrip":"Access Land - Combined Open Country, Registered Common Land and Section 16 Dedicated Land. MoD Byelaw, Section 28 Exclusions, Racecourses and Aerodromes and ECP Margin have been removed.","OC":"Yes","RCL":"No","S16":"No","Map_Area":3,"Version":"v52"},"geometry":{"type":"Polygon","coordinates":[[[-2.80738,51.29776],[-2.80731,51.29728],[-2.80731,51.29667],[-2.80726,51.29648],[-2.80721,51.29646],[-2.80643,51.29648],[-2.80631,51.29522],[-2.80664,51.29492],[-2.80676,51.29464],[-2.80747,51.2939],[-2.80789,51.2937],[-2.80835,51.29363],[-2.80838,51.29353],[-2.8087,51.29313],[-2.80969,51.29246],[-2.81006,51.2923],[-2.81165,51.29195],[-2.81215,51.2919],[-2.81267,51.29178],[-2.81304,51.29176],[-2.81398,51.2918],[-2.81456,51.2919],[-2.81518,51.29171],[-2.81566,51.29162],[-2.81572,51.29165],[-2.81583,51.29292],[-2.81576,51.29355],[-2.81559,51.29472],[-2.81529,51.29634],[-2.81515,51.29685],[-2.81493,51.2974],[-2.80738,51.29782],[-2.80738,51.29776]],[[-2.81025,51.29765],[-2.81023,51.29748],[-2.80946,51.29754],[-2.80945,51.2976],[-2.80946,51.29769],[-2.81025,51.29765]]]}},{"type":"Feature","properties":{"Descrip":"Access Land - Combined Open Country, Registered Common Land and Section 16 Dedicated Land. MoD Byelaw, Section 28 Exclusions, Racecourses and Aerodromes and ECP Margin have been removed.","OC":"Yes","RCL":"No","S16":"No","Map_Area":3,"Version":"v52"},"geometry":{"type":"Polygon","coordinates":[[[-2.78498,51.30029],[-2.78576,51.30014],[-2.78688,51.30242],[-2.78667,51.30252],[-2.78565,51.30258],[-2.78498,51.30029]]]}},{"type":"Feature","properties":{"Descrip":"Access Land - Combined Open Country, Registered Common Land and Section 16 Dedicated Land. MoD Byelaw, Section 28 Exclusions, Racecourses and Aerodromes and ECP Margin have been removed.","OC":"Yes","RCL":"No","S16":"No","Map_Area":3,"Version":"v52"},"geometry":{"type":"Polygon","coordinates":[[[-2.78412,51.30072],[-2.78409,51.30044],[-2.78498,51.30029],[-2.78565,51.30258],[-2.7843,51.30264],[-2.78412,51.30072]],[[-2.78419,51.30047],[-2.78417,51.30043],[-2.78412,51.30044],[-2.78413,51.30048],[-2.78419,51.30047]]]}},{"type":"Feature","properties":{"Descrip":"Access Land - Combined Open Country, Registered Common Land and Section 16 Dedicated Land. MoD Byelaw, Section 28 Exclusions, Racecourses and Aerodromes and ECP Margin have been removed.","OC":"Yes","RCL":"No","S16":"No","Map_Area":3,"Version":"v52"},"geometry":{"type":"Polygon","coordinates":[[[-2.75961,51.28935],[-2.76274,51.28773],[-2.76385,51.28978],[-2.76356,51.28974],[-2.76325,51.28994],[-2.76308,51.2901],[-2.76236,51.29032],[-2.76201,51.29061],[-2.76188,51.29092],[-2.76171,51.29111],[-2.7588,51.28985],[-2.75967,51.2894],[-2.75961,51.28935]]]}},{"type":"Feature","properties":{"Descrip":"Access Land - Combined Open Country, Registered Common Land and Section 16 Dedicated Land. MoD Byelaw, Section 28 Exclusions, Racecourses and Aerodromes and ECP Margin have been removed.","OC":"Yes","RCL":"No","S16":"No","Map_Area":3,"Version":"v52"},"geometry":{"type":"Polygon","coordinates":[[[-2.76066,51.28696],[-2.76138,51.28665],[-2.76298,51.28621],[-2.76383,51.28542],[-2.76479,51.28656],[-2.76387,51.28721],[-2.7637,51.28724],[-2.76193,51.28816],[-2.76066,51.28696]]]}},{"type":"Feature","properties":{"Descrip":"Access Land - Combined Open Country, Registered Common Land and Section 16 Dedicated Land. MoD Byelaw, Section 28 Exclusions, Racecourses and Aerodromes and ECP Margin have been removed.","OC":"Yes","RCL":"No","S16":"No","Map_Area":3,"Version":"v52"},"geometry":{"type":"Polygon","coordinates":[[[-2.75837,51.28827],[-2.75795,51.28782],[-2.76066,51.28696],[-2.76193,51.28816],[-2.75961,51.28935],[-2.75837,51.28827]]]}},{"type":"Feature","properties":{"Descrip":"Access Land - Combined Open Country, Registered Common Land and Section 16 Dedicated Land. MoD Byelaw, Section 28 Exclusions, Racecourses and Aerodromes and ECP Margin have been removed.","OC":"Yes","RCL":"No","S16":"No","Map_Area":3,"Version":"v52"},"geometry":{"type":"Polygon","coordinates":[[[-2.75473,51.28537],[-2.75067,51.28389],[-2.75369,51.28183],[-2.75551,51.28285],[-2.75832,51.28059],[-2.7583,51.28056],[-2.75925,51.28051],[-2.76019,51.28056],[-2.76039,51.28051],[-2.76081,51.28052],[-2.76129,51.28044],[-2.76266,51.28034],[-2.76336,51.28038],[-2.76426,51.28038],[-2.76468,51.28028],[-2.76416,51.27981],[-2.7643,51.27981],[-2.76441,51.27994],[-2.76478,51.2802],[-2.76541,51.28007],[-2.76595,51.27988],[-2.76668,51.27967],[-2.76683,51.27963],[-2.76686,51.27966],[-2.767,51.28088],[-2.76644,51.28077],[-2.76548,51.28086],[-2.76494,51.28104],[-2.76437,51.28111],[-2.76394,51.28134],[-2.76304,51.28163],[-2.76227,51.28193],[-2.76161,51.28207],[-2.76119,51.2823],[-2.76065,51.2825],[-2.76039,51.28268],[-2.75979,51.28353],[-2.75955,51.28368],[-2.75656,51.28444],[-2.75587,51.28484],[-2.75473,51.28537]],[[-2.76062,51.2811],[-2.75987,51.28093],[-2.75964,51.28115],[-2.7605,51.2814],[-2.76064,51.28112],[-2.76062,51.2811]],[[-2.76354,51.28101],[-2.76365,51.28103],[-2.76414,51.28088],[-2.7641,51.28072],[-2.76367,51.28071],[-2.76334,51.28067],[-2.76329,51.28097],[-2.76354,51.28101]]]}},{"type":"Feature","properties":{"Descrip":"Access Land - Combined Open Country, Registered Common Land and Section 16 Dedicated Land. MoD Byelaw, Section 28 Exclusions, Racecourses and Aerodromes and ECP Margin have been removed.","OC":"Yes","RCL":"No","S16":"No","Map_Area":3,"Version":"v52"},"geometry":{"type":"Polygon","coordinates":[[[-2.76698,51.28349],[-2.76705,51.28353],[-2.76728,51.28334],[-2.76714,51.28328],[-2.76779,51.28246],[-2.76809,51.28251],[-2.76873,51.28251],[-2.76904,51.28255],[-2.76946,51.28253],[-2.76967,51.2826],[-2.77015,51.28286],[-2.76744,51.28466],[-2.76672,51.28371],[-2.76685,51.28364],[-2.76698,51.28349]],[[-2.76759,51.2842],[-2.76793,51.28409],[-2.76784,51.28401],[-2.76752,51.2841],[-2.76759,51.2842]]]}},{"type":"Feature","properties":{"Descrip":"Access Land - Combined Open Country, Registered Common Land and Section 16 Dedicated Land. MoD Byelaw, Section 28 Exclusions, Racecourses and Aerodromes and ECP Margin have been removed.","OC":"Yes","RCL":"No","S16":"No","Map_Area":3,"Version":"v52"},"geometry":{"type":"Polygon","coordinates":[[[-2.7489,51.28041],[-2.75081,51.27882],[-2.74945,51.2774],[-2.75088,51.27703],[-2.75084,51.27696],[-2.7519,51.2767],[-2.75295,51.27814],[-2.75397,51.27946],[-2.75601,51.27992],[-2.75369,51.28183],[-2.75198,51.28077],[-2.75067,51.28171],[-2.7489,51.28041]]]}},{"type":"Feature","properties":{"Descrip":"Access Land - Combined Open Country, Registered Common Land and Section 16 Dedicated Land. MoD Byelaw, Section 28 Exclusions, Racecourses and Aerodromes and ECP Margin have been removed.","OC":"Yes","RCL":"No","S16":"No","Map_Area":3,"Version":"v52"},"geometry":{"type":"Polygon","coordinates":[[[-2.75369,51.28183],[-2.75601,51.27992],[-2.75723,51.28031],[-2.75829,51.28055],[-2.75832,51.28059],[-2.75551,51.28285],[-2.75369,51.28183]]]}},{"type":"Feature","properties":{"Descrip":"Access Land - Combined Open Country, Registered Common Land and Section 16 Dedicated Land. MoD Byelaw, Section 28 Exclusions, Racecourses and Aerodromes and ECP Margin have been removed.","OC":"Yes","RCL":"No","S16":"No","Map_Area":3,"Version":"v52"},"geometry":{"type":"Polygon","coordinates":[[[-2.74788,51.2842],[-2.74903,51.28423],[-2.75034,51.28413],[-2.75067,51.28389],[-2.75473,51.28537],[-2.75473,51.28544],[-2.7544,51.28561],[-2.75358,51.28556],[-2.75317,51.28547],[-2.75248,51.28561],[-2.75203,51.28592],[-2.75174,51.28606],[-2.75074,51.2862],[-2.74981,51.28617],[-2.74939,51.28621],[-2.74898,51.28629],[-2.74874,51.28637],[-2.74756,51.28585],[-2.74785,51.28546],[-2.74797,51.28518],[-2.74797,51.28495],[-2.74788,51.2842]]]}},{"type":"Feature","properties":{"Descrip":"Access Land - Combined Open Country, Registered Common Land and Section 16 Dedicated Land. MoD Byelaw, Section 28 Exclusions, Racecourses and Aerodromes and ECP Margin have been removed.","OC":"Yes","RCL":"No","S16":"No","Map_Area":3,"Version":"v52"},"geometry":{"type":"Polygon","coordinates":[[[-2.73506,51.28903],[-2.73526,51.28933],[-2.7355,51.2895],[-2.73606,51.28977],[-2.7368,51.29003],[-2.73707,51.29019],[-2.73717,51.29047],[-2.73714,51.29051],[-2.73688,51.29062],[-2.73608,51.29081],[-2.73518,51.29035],[-2.73518,51.29025],[-2.7351,51.29002],[-2.7348,51.28998],[-2.73382,51.28994],[-2.7334,51.28996],[-2.73282,51.29012],[-2.73233,51.29035],[-2.73178,51.29098],[-2.73117,51.2913],[-2.73048,51.29173],[-2.7302,51.29182],[-2.72943,51.29189],[-2.72906,51.29175],[-2.72886,51.29173],[-2.72854,51.29185],[-2.72827,51.29188],[-2.7272,51.29157],[-2.72658,51.29147],[-2.72623,51.29154],[-2.72601,51.29167],[-2.72589,51.29181],[-2.72581,51.29181],[-2.72569,51.29175],[-2.72559,51.29178],[-2.72484,51.29277],[-2.72471,51.29289],[-2.72403,51.29314],[-2.72339,51.29343],[-2.72265,51.29273],[-2.72184,51.29208],[-2.72181,51.29209],[-2.72185,51.29205],[-2.72189,51.29205],[-2.72239,51.29149],[-2.72268,51.29114],[-2.72266,51.2911],[-2.72295,51.29078],[-2.73506,51.28903]]]}},{"type":"Feature","properties":{"Descrip":"Access Land - Combined Open Country, Registered Common Land and Section 16 Dedicated Land. MoD Byelaw, Section 28 Exclusions, Racecourses and Aerodromes and ECP Margin have been removed.","OC":"Yes","RCL":"No","S16":"No","Map_Area":3,"Version":"v52"},"geometry":{"type":"Polygon","coordinates":[[[-2.74788,51.2842],[-2.74647,51.28404],[-2.74661,51.28359],[-2.74644,51.2833],[-2.7464,51.28314],[-2.74617,51.28302],[-2.74564,51.28284],[-2.7441,51.28272],[-2.74378,51.28262],[-2.74356,51.28251],[-2.74346,51.28242],[-2.743,51.2817],[-2.7427,51.28129],[-2.74239,51.28103],[-2.7401,51.28021],[-2.73978,51.28006],[-2.73965,51.27997],[-2.7394,51.27974],[-2.73928,51.27957],[-2.73893,51.27878],[-2.73889,51.27845],[-2.7388,51.27828],[-2.73858,51.27813],[-2.73783,51.27791],[-2.73839,51.27805],[-2.73878,51.27822],[-2.7389,51.27834],[-2.73893,51.27841],[-2.73899,51.27883],[-2.7396,51.27849],[-2.74149,51.27755],[-2.74225,51.27802],[-2.74331,51.27872],[-2.74496,51.27987],[-2.74903,51.28282],[-2.74938,51.28311],[-2.75038,51.28409],[-2.75034,51.28413],[-2.74903,51.28423],[-2.74788,51.2842]]]}},{"type":"Feature","properties":{"Descrip":"Access Land - Combined Open Country, Registered Common Land and Section 16 Dedicated Land. MoD Byelaw, Section 28 Exclusions, Racecourses and Aerodromes and ECP Margin have been removed.","OC":"Yes","RCL":"No","S16":"No","Map_Area":3,"Version":"v52"},"geometry":{"type":"Polygon","coordinates":[[[-2.73724,51.2903],[-2.73715,51.2902],[-2.73707,51.29018],[-2.73691,51.29008],[-2.73663,51.28996],[-2.73606,51.28977],[-2.73536,51.28941],[-2.73526,51.28933],[-2.73507,51.28904],[-2.73425,51.28853],[-2.73431,51.2884],[-2.73524,51.28807],[-2.73649,51.28743],[-2.73758,51.28667],[-2.7381,51.28608],[-2.73872,51.28573],[-2.7411,51.2859],[-2.7411,51.28598],[-2.74089,51.286],[-2.7409,51.28613],[-2.74085,51.28635],[-2.74096,51.28671],[-2.7407,51.28674],[-2.74075,51.28699],[-2.74002,51.28705],[-2.73951,51.28675],[-2.73931,51.28682],[-2.73922,51.28694],[-2.73905,51.28707],[-2.73773,51.2876],[-2.73801,51.28794],[-2.73827,51.28836],[-2.73783,51.28847],[-2.73732,51.28864],[-2.73719,51.28873],[-2.73717,51.2888],[-2.7372,51.28889],[-2.73758,51.28938],[-2.7375,51.2894],[-2.73753,51.28945],[-2.73761,51.28943],[-2.7378,51.2897],[-2.73782,51.28978],[-2.73768,51.29013],[-2.73757,51.29027],[-2.73732,51.29041],[-2.73724,51.2903]]]}},{"type":"Feature","properties":{"Descrip":"Access Land - Combined Open Country, Registered Common Land and Section 16 Dedicated Land. MoD Byelaw, Section 28 Exclusions, Racecourses and Aerodromes and ECP Margin have been removed.","OC":"Yes","RCL":"No","S16":"No","Map_Area":3,"Version":"v52"},"geometry":{"type":"Polygon","coordinates":[[[-2.74149,51.27755],[-2.74284,51.27688],[-2.74606,51.27951],[-2.74518,51.28003],[-2.74272,51.27832],[-2.74149,51.27755]]]}},{"type":"Feature","properties":{"Descrip":"Access Land - Combined Open Country, Registered Common Land and Section 16 Dedicated Land. MoD Byelaw, Section 28 Exclusions, Racecourses and Aerodromes and ECP Margin have been removed.","OC":"Yes","RCL":"No","S16":"No","Map_Area":3,"Version":"v52"},"geometry":{"type":"Polygon","coordinates":[[[-2.73783,51.27791],[-2.73756,51.27786],[-2.7371,51.27782],[-2.73648,51.27782],[-2.73625,51.27785],[-2.73648,51.27564],[-2.7361,51.27546],[-2.73579,51.27541],[-2.73553,51.2754],[-2.73483,51.27509],[-2.73694,51.27432],[-2.74199,51.27731],[-2.74021,51.27818],[-2.73899,51.27883],[-2.73893,51.27841],[-2.7389,51.27834],[-2.73878,51.27822],[-2.73839,51.27805],[-2.73783,51.27791]]]}},{"type":"Feature","properties":{"Descrip":"Access Land - Combined Open Country, Registered Common Land and Section 16 Dedicated Land. MoD Byelaw, Section 28 Exclusions, Racecourses and Aerodromes and ECP Margin have been removed.","OC":"Yes","RCL":"No","S16":"No","Map_Area":3,"Version":"v52"},"geometry":{"type":"Polygon","coordinates":[[[-2.73709,51.28218],[-2.73728,51.28204],[-2.73826,51.28087],[-2.73831,51.28052],[-2.73846,51.28039],[-2.73943,51.28097],[-2.74005,51.28129],[-2.74035,51.28156],[-2.74196,51.28278],[-2.74261,51.28318],[-2.74203,51.2842],[-2.74171,51.28505],[-2.74099,51.28434],[-2.73961,51.28356],[-2.73827,51.28289],[-2.73709,51.28218]]]}},{"type":"Feature","properties":{"Descrip":"Access Land - Combined Open Country, Registered Common Land and Section 16 Dedicated Land. MoD Byelaw, Section 28 Exclusions, Racecourses and Aerodromes and ECP Margin have been removed.","OC":"Yes","RCL":"No","S16":"No","Map_Area":3,"Version":"v52"},"geometry":{"type":"Polygon","coordinates":[[[-2.73846,51.28039],[-2.73831,51.28052],[-2.73826,51.28087],[-2.73728,51.28204],[-2.73709,51.28218],[-2.73614,51.28177],[-2.73498,51.28145],[-2.73442,51.28131],[-2.73419,51.28133],[-2.73402,51.28142],[-2.73348,51.28111],[-2.73333,51.28102],[-2.73326,51.28086],[-2.73288,51.27972],[-2.73268,51.27964],[-2.73311,51.27958],[-2.73331,51.27951],[-2.73467,51.27857],[-2.73523,51.27825],[-2.73555,51.27811],[-2.73637,51.27793],[-2.73693,51.27791],[-2.73722,51.27792],[-2.73784,51.27802],[-2.73857,51.27821],[-2.73866,51.27828],[-2.73877,51.27843],[-2.73884,51.27889],[-2.73918,51.27957],[-2.73894,51.27996],[-2.73846,51.28039]]]}},{"type":"Feature","properties":{"Descrip":"Access Land - Combined Open Country, Registered Common Land and Section 16 Dedicated Land. MoD Byelaw, Section 28 Exclusions, Racecourses and Aerodromes and ECP Margin have been removed.","OC":"Yes","RCL":"No","S16":"No","Map_Area":3,"Version":"v52"},"geometry":{"type":"Polygon","coordinates":[[[-2.76274,51.28773],[-2.7637,51.28724],[-2.76387,51.28721],[-2.76478,51.28657],[-2.7648,51.2866],[-2.76482,51.28654],[-2.76567,51.28599],[-2.7666,51.2872],[-2.76792,51.28868],[-2.76793,51.28874],[-2.76699,51.28881],[-2.7666,51.28897],[-2.76656,51.28893],[-2.76561,51.28919],[-2.76463,51.28941],[-2.76379,51.28966],[-2.76274,51.28773]]]}},{"type":"Feature","properties":{"Descrip":"Access Land - Combined Open Country, Registered Common Land and Section 16 Dedicated Land. MoD Byelaw, Section 28 Exclusions, Racecourses and Aerodromes and ECP Margin have been removed.","OC":"Yes","RCL":"No","S16":"No","Map_Area":3,"Version":"v52"},"geometry":{"type":"Polygon","coordinates":[[[-2.72339,51.29343],[-2.72403,51.29314],[-2.72471,51.29289],[-2.72484,51.29277],[-2.72559,51.29178],[-2.72569,51.29175],[-2.72581,51.29181],[-2.72589,51.29181],[-2.72601,51.29167],[-2.72623,51.29154],[-2.72658,51.29147],[-2.7272,51.29157],[-2.72827,51.29188],[-2.72854,51.29185],[-2.72886,51.29173],[-2.72906,51.29175],[-2.72943,51.29189],[-2.7302,51.29182],[-2.73048,51.29173],[-2.73117,51.2913],[-2.73178,51.29098],[-2.73233,51.29035],[-2.73288,51.2901],[-2.7334,51.28996],[-2.7336,51.28995],[-2.7347,51.28997],[-2.7351,51.29002],[-2.73518,51.29025],[-2.73517,51.29036],[-2.73506,51.29054],[-2.73474,51.29076],[-2.73394,51.29072],[-2.73367,51.29073],[-2.73309,51.29087],[-2.73306,51.29089],[-2.73304,51.29122],[-2.73294,51.2913],[-2.73259,51.29154],[-2.73231,51.29147],[-2.73194,51.29169],[-2.73222,51.29179],[-2.73146,51.29219],[-2.73087,51.29246],[-2.73047,51.29261],[-2.72996,51.29274],[-2.72925,51.29282],[-2.72861,51.29275],[-2.72789,51.29254],[-2.72694,51.29208],[-2.72642,51.29215],[-2.72625,51.29225],[-2.72616,51.29236],[-2.72609,51.29272],[-2.72598,51.29293],[-2.72549,51.29338],[-2.72529,51.29351],[-2.72387,51.29412],[-2.72327,51.29426],[-2.72278,51.29448],[-2.72222,51.29483],[-2.72212,51.29494],[-2.71791,51.29576],[-2.71674,51.29596],[-2.71601,51.2962],[-2.71599,51.29625],[-2.716,51.29638],[-2.71532,51.29638],[-2.71528,51.29634],[-2.71504,51.29643],[-2.71478,51.29648],[-2.71467,51.29645],[-2.71441,51.2965],[-2.71395,51.29648],[-2.71364,51.29637],[-2.71339,51.29621],[-2.71332,51.29606],[-2.71336,51.2959],[-2.71345,51.29583],[-2.7155,51.29542],[-2.71679,51.29522],[-2.717,51.29508],[-2.71735,51.29463],[-2.71757,51.29447],[-2.71783,51.29435],[-2.71826,51.29425],[-2.71877,51.29426],[-2.71997,51.2945],[-2.72063,51.2946],[-2.72074,51.29465],[-2.72101,51.29464],[-2.72173,51.29433],[-2.7225,51.29383],[-2.72308,51.29353],[-2.72339,51.29343]],[[-2.72416,51.29376],[-2.72419,51.2938],[-2.72432,51.29376],[-2.72429,51.29371],[-2.72416,51.29376]],[[-2.72364,51.2939],[-2.72369,51.29396],[-2.72382,51.29392],[-2.72376,51.29385],[-2.72364,51.2939]],[[-2.72026,51.29485],[-2.72038,51.2949],[-2.72042,51.29486],[-2.7203,51.29481],[-2.72026,51.29485]],[[-2.72018,51.29498],[-2.72029,51.29502],[-2.72032,51.29498],[-2.72018,51.29493],[-2.72014,51.29497],[-2.72018,51.29498]],[[-2.73261,51.29084],[-2.73241,51.29077],[-2.73236,51.2908],[-2.7328,51.29095],[-2.73281,51.2909],[-2.73261,51.29084]]]}},{"type":"Feature","properties":{"Descrip":"Access Land - Combined Open Country, Registered Common Land and Section 16 Dedicated Land. MoD Byelaw, Section 28 Exclusions, Racecourses and Aerodromes and ECP Margin have been removed.","OC":"Yes","RCL":"No","S16":"No","Map_Area":3,"Version":"v52"},"geometry":{"type":"Polygon","coordinates":[[[-2.73608,51.29081],[-2.73688,51.29062],[-2.73714,51.29051],[-2.73717,51.29047],[-2.73707,51.29018],[-2.73715,51.2902],[-2.73722,51.29028],[-2.73717,51.29029],[-2.73718,51.29031],[-2.73724,51.2903],[-2.73732,51.29041],[-2.73755,51.29029],[-2.73768,51.29013],[-2.73781,51.28984],[-2.73782,51.28974],[-2.73743,51.28916],[-2.7372,51.28889],[-2.73717,51.28879],[-2.7372,51.28871],[-2.73796,51.28843],[-2.73898,51.28819],[-2.73955,51.28793],[-2.74006,51.28758],[-2.74008,51.28785],[-2.74,51.28834],[-2.73833,51.28929],[-2.73955,51.2901],[-2.73912,51.29093],[-2.73902,51.29105],[-2.73786,51.29177],[-2.73646,51.29239],[-2.73604,51.29138],[-2.73599,51.29109],[-2.73608,51.29081]],[[-2.73855,51.2885],[-2.73853,51.28846],[-2.73845,51.28847],[-2.73847,51.28851],[-2.73855,51.2885]]]}},{"type":"Feature","properties":{"Descrip":"Access Land - Combined Open Country, Registered Common Land and Section 16 Dedicated Land. MoD Byelaw, Section 28 Exclusions, Racecourses and Aerodromes and ECP Margin have been removed.","OC":"Yes","RCL":"No","S16":"No","Map_Area":3,"Version":"v52"},"geometry":{"type":"Polygon","coordinates":[[[-2.73184,51.27835],[-2.73367,51.27751],[-2.73227,51.27687],[-2.73439,51.27495],[-2.73481,51.27508],[-2.73553,51.2754],[-2.73579,51.27541],[-2.7361,51.27546],[-2.73648,51.27564],[-2.73625,51.27785],[-2.73544,51.27805],[-2.73473,51.27843],[-2.73469,51.2784],[-2.73458,51.27847],[-2.73462,51.27849],[-2.73405,51.27885],[-2.73328,51.27941],[-2.73306,51.27951],[-2.73276,51.27955],[-2.73257,51.27955],[-2.73239,51.27951],[-2.73225,51.27943],[-2.73215,51.27933],[-2.73184,51.27835]]]}},{"type":"Feature","properties":{"Descrip":"Access Land - Combined Open Country, Registered Common Land and Section 16 Dedicated Land. MoD Byelaw, Section 28 Exclusions, Racecourses and Aerodromes and ECP Margin have been removed.","OC":"Yes","RCL":"No","S16":"No","Map_Area":3,"Version":"v52"},"geometry":{"type":"Polygon","coordinates":[[[-2.74741,51.28164],[-2.7489,51.28041],[-2.75067,51.28171],[-2.75198,51.28077],[-2.75369,51.28183],[-2.75038,51.28409],[-2.74921,51.28296],[-2.74741,51.28164]]]}},{"type":"Feature","properties":{"Descrip":"Access Land - Combined Open Country, Registered Common Land and Section 16 Dedicated Land. MoD Byelaw, Section 28 Exclusions, Racecourses and Aerodromes and ECP Margin have been removed.","OC":"Yes","RCL":"No","S16":"No","Map_Area":3,"Version":"v52"},"geometry":{"type":"Polygon","coordinates":[[[-2.74518,51.28003],[-2.74713,51.27886],[-2.74899,51.28033],[-2.74741,51.28164],[-2.74518,51.28003]],[[-2.74802,51.28089],[-2.7481,51.28093],[-2.74826,51.2808],[-2.74817,51.28076],[-2.74802,51.28089]],[[-2.74828,51.28083],[-2.74832,51.28085],[-2.74835,51.28083],[-2.74831,51.28081],[-2.74828,51.28083]]]}},{"type":"Feature","properties":{"Descrip":"Access Land - Combined Open Country, Registered Common Land and Section 16 Dedicated Land. MoD Byelaw, Section 28 Exclusions, Racecourses and Aerodromes and ECP Margin have been removed.","OC":"Yes","RCL":"No","S16":"No","Map_Area":3,"Version":"v52"},"geometry":{"type":"Polygon","coordinates":[[[-2.74713,51.27886],[-2.74939,51.27735],[-2.75081,51.27882],[-2.74899,51.28033],[-2.74713,51.27886]]]}},{"type":"Feature","properties":{"Descrip":"Access Land - Combined Open Country, Registered Common Land and Section 16 Dedicated Land. MoD Byelaw, Section 28 Exclusions, Racecourses and Aerodromes and ECP Margin have been removed.","OC":"Yes","RCL":"No","S16":"No","Map_Area":3,"Version":"v52"},"geometry":{"type":"Polygon","coordinates":[[[-2.74406,51.27627],[-2.74461,51.276],[-2.74492,51.27606],[-2.74595,51.27604],[-2.74549,51.27556],[-2.74695,51.27494],[-2.74749,51.27551],[-2.7474,51.27554],[-2.74939,51.27735],[-2.74711,51.27885],[-2.74406,51.27627]],[[-2.74672,51.27729],[-2.74673,51.27731],[-2.74677,51.27731],[-2.74676,51.27728],[-2.74672,51.27729]]]}},{"type":"Feature","properties":{"Descrip":"Access Land - Combined Open Country, Registered Common Land and Section 16 Dedicated Land. MoD Byelaw, Section 28 Exclusions, Racecourses and Aerodromes and ECP Margin have been removed.","OC":"Yes","RCL":"No","S16":"No","Map_Area":3,"Version":"v52"},"geometry":{"type":"Polygon","coordinates":[[[-2.76385,51.28978],[-2.76379,51.28966],[-2.76463,51.28941],[-2.76561,51.28919],[-2.76656,51.28893],[-2.7666,51.28897],[-2.76632,51.28911],[-2.76602,51.28942],[-2.76563,51.28933],[-2.76511,51.28993],[-2.76456,51.28983],[-2.76385,51.28978]]]}},{"type":"Feature","properties":{"Descrip":"Access Land - Combined Open Country, Registered Common Land and Section 16 Dedicated Land. MoD Byelaw, Section 28 Exclusions, Racecourses and Aerodromes and ECP Margin have been removed.","OC":"Yes","RCL":"No","S16":"No","Map_Area":3,"Version":"v52"},"geometry":{"type":"Polygon","coordinates":[[[-2.78706,51.3287],[-2.78712,51.32861],[-2.78713,51.32851],[-2.78702,51.32818],[-2.78645,51.32791],[-2.78634,51.3278],[-2.78626,51.32764],[-2.78598,51.32763],[-2.7858,51.32755],[-2.78548,51.32763],[-2.7854,51.3276],[-2.78525,51.32746],[-2.78503,51.32739],[-2.78414,51.32727],[-2.78269,51.32691],[-2.78196,51.32685],[-2.78183,51.32718],[-2.77727,51.32735],[-2.77692,51.32864],[-2.77571,51.32858],[-2.77429,51.32842],[-2.77369,51.32832],[-2.77321,51.32814],[-2.77272,51.32784],[-2.77331,51.3275],[-2.77413,51.32729],[-2.77346,51.32673],[-2.77314,51.3261],[-2.77313,51.32595],[-2.77319,51.32559],[-2.77338,51.32519],[-2.77327,51.3248],[-2.77257,51.32463],[-2.77151,51.3245],[-2.76931,51.32435],[-2.76865,51.32441],[-2.76838,51.32395],[-2.76837,51.32385],[-2.76843,51.32379],[-2.76856,51.32377],[-2.77003,51.32379],[-2.77098,51.32376],[-2.77285,51.32348],[-2.77593,51.32356],[-2.77734,51.32363],[-2.77832,51.32362],[-2.78142,51.32389],[-2.78187,51.32398],[-2.78285,51.32409],[-2.78411,51.32417],[-2.78411,51.32421],[-2.78416,51.32421],[-2.78418,51.32417],[-2.78502,51.3242],[-2.78532,51.32425],[-2.78585,51.32459],[-2.78572,51.32465],[-2.78594,51.32492],[-2.78605,51.32501],[-2.78647,51.32509],[-2.78667,51.3251],[-2.78675,51.32492],[-2.78857,51.32489],[-2.78977,51.32493],[-2.79087,51.32516],[-2.79162,51.32524],[-2.7924,51.32527],[-2.79436,51.32524],[-2.79491,51.32533],[-2.79576,51.32558],[-2.79564,51.32572],[-2.79562,51.32584],[-2.79549,51.32589],[-2.79552,51.32593],[-2.79575,51.32596],[-2.79594,51.32587],[-2.79614,51.32588],[-2.79626,51.32597],[-2.79636,51.32615],[-2.79636,51.32622],[-2.79629,51.32628],[-2.79611,51.3263],[-2.79537,51.32632],[-2.7947,51.32625],[-2.79417,51.32611],[-2.79379,51.32607],[-2.79401,51.32626],[-2.79417,51.32657],[-2.79436,51.32684],[-2.79445,51.32671],[-2.79469,51.32696],[-2.79469,51.32705],[-2.79451,51.32733],[-2.79357,51.32799],[-2.79275,51.32818],[-2.79189,51.32821],[-2.79069,51.32817],[-2.78981,51.32822],[-2.78872,51.32833],[-2.78827,51.32827],[-2.78765,51.32807],[-2.7874,51.32801],[-2.78729,51.32816],[-2.78735,51.32829],[-2.78779,51.32841],[-2.78801,51.32867],[-2.7884,51.32861],[-2.7885,51.32863],[-2.7887,51.32881],[-2.78879,51.32897],[-2.78874,51.32905],[-2.7885,51.3292],[-2.78781,51.32947],[-2.78776,51.3295],[-2.78776,51.3296],[-2.7877,51.32965],[-2.78738,51.32977],[-2.78692,51.32973],[-2.78683,51.32944],[-2.78664,51.32935],[-2.78654,51.32926],[-2.78659,51.32917],[-2.78688,51.32892],[-2.78706,51.3287]],[[-2.78422,51.32612],[-2.78478,51.32596],[-2.78481,51.3257],[-2.78479,51.32539],[-2.7844,51.32502],[-2.78281,51.32506],[-2.78187,51.32492],[-2.78025,51.32484],[-2.78034,51.32517],[-2.78035,51.32576],[-2.78233,51.32604],[-2.78303,51.32607],[-2.7839,51.32601],[-2.78422,51.32612]]]}},{"type":"Feature","properties":{"Descrip":"Access Land - Combined Open Country, Registered Common Land and Section 16 Dedicated Land. MoD Byelaw, Section 28 Exclusions, Racecourses and Aerodromes and ECP Margin have been removed.","OC":"Yes","RCL":"No","S16":"No","Map_Area":3,"Version":"v52"},"geometry":{"type":"Polygon","coordinates":[[[-2.799,51.3041],[-2.80032,51.30406],[-2.80034,51.30422],[-2.80263,51.30431],[-2.80274,51.30493],[-2.80279,51.30503],[-2.80278,51.30514],[-2.80299,51.30639],[-2.80254,51.30643],[-2.80214,51.30641],[-2.7991,51.30607],[-2.799,51.3041]]]}},{"type":"Feature","properties":{"Descrip":"Access Land - Combined Open Country, Registered Common Land and Section 16 Dedicated Land. MoD Byelaw, Section 28 Exclusions, Racecourses and Aerodromes and ECP Margin have been removed.","OC":"Yes","RCL":"No","S16":"No","Map_Area":3,"Version":"v52"},"geometry":{"type":"Polygon","coordinates":[[[-2.80032,51.30406],[-2.79633,51.3042],[-2.79615,51.30349],[-2.80024,51.30315],[-2.80032,51.30406]]]}},{"type":"Feature","properties":{"Descrip":"Access Land - Combined Open Country, Registered Common Land and Section 16 Dedicated Land. MoD Byelaw, Section 28 Exclusions, Racecourses and Aerodromes and ECP Margin have been removed.","OC":"Yes","RCL":"No","S16":"No","Map_Area":3,"Version":"v52"},"geometry":{"type":"Polygon","coordinates":[[[-2.78576,51.30014],[-2.78409,51.30044],[-2.78412,51.30072],[-2.78316,51.30077],[-2.78299,51.30009],[-2.78307,51.30009],[-2.78307,51.30006],[-2.78298,51.30006],[-2.7825,51.29818],[-2.78455,51.29784],[-2.78618,51.3],[-2.78573,51.3001],[-2.78576,51.30014]]]}},{"type":"Feature","properties":{"Descrip":"Access Land - Combined Open Country, Registered Common Land and Section 16 Dedicated Land. MoD Byelaw, Section 28 Exclusions, Racecourses and Aerodromes and ECP Margin have been removed.","OC":"Yes","RCL":"No","S16":"No","Map_Area":3,"Version":"v52"},"geometry":{"type":"MultiPolygon","coordinates":[[[[-2.81891,51.30093],[-2.81892,51.30093],[-2.81891,51.30093],[-2.81889,51.30093],[-2.81891,51.30093]]],[[[-2.82684,51.30088],[-2.82684,51.30088],[-2.82676,51.30088],[-2.82684,51.30088]]],[[[-2.82637,51.30089],[-2.82645,51.30089],[-2.82638,51.30089],[-2.82637,51.30089]]],[[[-2.82939,51.30088],[-2.82938,51.30084],[-2.82938,51.30084],[-2.82939,51.30088]]],[[[-2.82684,51.30088],[-2.8278,51.30086],[-2.82775,51.3009],[-2.82754,51.3009],[-2.82686,51.30102],[-2.82684,51.30088]]],[[[-2.82934,51.30125],[-2.82937,51.30124],[-2.82936,51.30125],[-2.82934,51.30125]]]]}},{"type":"Feature","properties":{"Descrip":"Access Land - Combined Open Country, Registered Common Land and Section 16 Dedicated Land. MoD Byelaw, Section 28 Exclusions, Racecourses and Aerodromes and ECP Margin have been removed.","OC":"Yes","RCL":"No","S16":"No","Map_Area":3,"Version":"v52"},"geometry":{"type":"MultiPolygon","coordinates":[[[[-2.73305,51.30899],[-2.73308,51.30896],[-2.73304,51.30901],[-2.73305,51.30899]]],[[[-2.74313,51.3069],[-2.73683,51.30648],[-2.73676,51.30662],[-2.73683,51.30647],[-2.75167,51.30747],[-2.75568,51.30789],[-2.76414,51.30885],[-2.75208,51.30751],[-2.74313,51.3069]]],[[[-2.7636,51.31337],[-2.76362,51.31332],[-2.76362,51.31332],[-2.76362,51.31333],[-2.7636,51.31337],[-2.7636,51.31337],[-2.7636,51.31337],[-2.7636,51.31337],[-2.7636,51.31337]]],[[[-2.76359,51.31341],[-2.76395,51.31501],[-2.7641,51.31515],[-2.76418,51.31546],[-2.7641,51.31515],[-2.76395,51.31501],[-2.76359,51.31341]]],[[[-2.76435,51.31597],[-2.76437,51.31593],[-2.76437,51.316],[-2.76435,51.31597]]],[[[-2.76447,51.31777],[-2.76447,51.31776],[-2.76446,51.31777],[-2.76447,51.31777]]],[[[-2.73317,51.31841],[-2.73317,51.31839],[-2.73319,51.31844],[-2.73317,51.31841]]],[[[-2.73518,51.31987],[-2.73457,51.31989],[-2.73426,51.31981],[-2.73412,51.31971],[-2.73369,51.31926],[-2.73332,51.31898],[-2.73347,51.31901],[-2.73358,51.31912],[-2.73364,51.3191],[-2.73422,51.31969],[-2.7344,51.3198],[-2.73464,51.31985],[-2.73509,51.31984],[-2.73625,51.31993],[-2.73518,51.31987]]],[[[-2.7679,51.32372],[-2.76634,51.32323],[-2.76523,51.32301],[-2.76451,51.32282],[-2.76383,51.3227],[-2.7626,51.32231],[-2.76178,51.32218],[-2.76162,51.32212],[-2.76145,51.32209],[-2.76177,51.3221],[-2.76269,51.32224],[-2.76358,51.32253],[-2.76391,51.32261],[-2.76457,51.32262],[-2.76461,51.32257],[-2.76453,51.32247],[-2.76454,51.32236],[-2.7644,51.32218],[-2.76434,51.32216],[-2.7644,51.32198],[-2.76445,51.32197],[-2.7645,51.32205],[-2.76458,51.32211],[-2.76506,51.32231],[-2.76504,51.32233],[-2.76657,51.32274],[-2.76785,51.32323],[-2.76813,51.3236],[-2.76853,51.32366],[-2.76896,51.32368],[-2.76896,51.32372],[-2.76832,51.3237],[-2.76822,51.32376],[-2.76827,51.32385],[-2.76815,51.32386],[-2.7679,51.32372]]],[[[-2.75281,51.32821],[-2.75283,51.32795],[-2.75317,51.3273],[-2.75309,51.32726],[-2.75352,51.32725],[-2.75344,51.32747],[-2.75334,51.32757],[-2.75331,51.3277],[-2.75328,51.3277],[-2.75319,51.32784],[-2.75324,51.32785],[-2.75334,51.32778],[-2.75326,51.32797],[-2.75331,51.32804],[-2.75303,51.32821],[-2.75283,51.32824],[-2.75281,51.32821]]]]}},{"type":"Feature","properties":{"Descrip":"Access Land - Combined Open Country, Registered Common Land and Section 16 Dedicated Land. MoD Byelaw, Section 28 Exclusions, Racecourses and Aerodromes and ECP Margin have been removed.","OC":"Yes","RCL":"No","S16":"No","Map_Area":3,"Version":"v52"},"geometry":{"type":"Polygon","coordinates":[[[-2.76485,51.31083],[-2.76516,51.31047],[-2.76563,51.30901],[-2.76591,51.30905],[-2.76591,51.30908],[-2.76578,51.3091],[-2.76571,51.30915],[-2.7655,51.3097],[-2.76551,51.30983],[-2.76566,51.30997],[-2.76567,51.31002],[-2.76533,51.31039],[-2.76535,51.31045],[-2.76525,51.31051],[-2.76512,51.31072],[-2.76492,51.31089],[-2.76433,51.31191],[-2.76424,51.312],[-2.76423,51.31198],[-2.76418,51.31207],[-2.76485,51.31083]]]}},{"type":"Feature","properties":{"Descrip":"Access Land - Combined Open Country, Registered Common Land and Section 16 Dedicated Land. MoD Byelaw, Section 28 Exclusions, Racecourses and Aerodromes and ECP Margin have been removed.","OC":"Yes","RCL":"No","S16":"No","Map_Area":3,"Version":"v52"},"geometry":{"type":"MultiPolygon","coordinates":[[[[-2.73405,51.31987],[-2.73391,51.31974],[-2.73399,51.31975],[-2.73405,51.31987]]],[[[-2.73361,51.32087],[-2.73375,51.32082],[-2.73362,51.32086],[-2.73361,51.32087]]],[[[-2.74129,51.32563],[-2.74129,51.32563],[-2.74151,51.32572],[-2.74129,51.32563]]],[[[-2.75292,51.32632],[-2.75281,51.32608],[-2.75273,51.32609],[-2.75275,51.32598],[-2.75287,51.32598],[-2.75299,51.32631],[-2.75302,51.3266],[-2.75292,51.32632]]],[[[-2.74836,51.32746],[-2.74845,51.32731],[-2.74836,51.32747],[-2.74836,51.32746]]],[[[-2.7523,51.3276],[-2.75248,51.32737],[-2.75238,51.32758],[-2.75224,51.32772],[-2.75219,51.32782],[-2.75213,51.32781],[-2.7523,51.3276]]],[[[-2.74345,51.32845],[-2.74347,51.32845],[-2.74349,51.32844],[-2.74351,51.32844],[-2.74352,51.32844],[-2.74355,51.32844],[-2.74356,51.32845],[-2.74355,51.32845],[-2.74354,51.32845],[-2.74352,51.32845],[-2.74351,51.32845],[-2.74349,51.32846],[-2.74348,51.32846],[-2.74345,51.32846],[-2.74343,51.32847],[-2.7434,51.32848],[-2.74338,51.32848],[-2.74336,51.32848],[-2.74334,51.32848],[-2.74333,51.32849],[-2.74331,51.32848],[-2.74333,51.32848],[-2.74335,51.32848],[-2.74336,51.32848],[-2.74337,51.32847],[-2.74338,51.32847],[-2.74339,51.32847],[-2.7434,51.32847],[-2.74342,51.32846],[-2.74342,51.32846],[-2.74344,51.32845],[-2.74345,51.32845]]]]}},{"type":"Feature","properties":{"Descrip":"Access Land - Combined Open Country, Registered Common Land and Section 16 Dedicated Land. MoD Byelaw, Section 28 Exclusions, Racecourses and Aerodromes and ECP Margin have been removed.","OC":"Yes","RCL":"No","S16":"No","Map_Area":3,"Version":"v52"},"geometry":{"type":"MultiPolygon","coordinates":[[[[-2.83959,51.28997],[-2.83959,51.28997],[-2.83973,51.29005],[-2.83959,51.28997]]],[[[-2.86344,51.29029],[-2.86354,51.29022],[-2.86355,51.29023],[-2.86354,51.29023],[-2.86344,51.2903],[-2.86342,51.29032],[-2.86341,51.29032],[-2.86341,51.29031],[-2.86344,51.29029]]],[[[-2.86804,51.29035],[-2.86805,51.29034],[-2.86824,51.29039],[-2.86815,51.29037],[-2.86804,51.29035]]],[[[-2.83959,51.28997],[-2.83959,51.29012],[-2.83985,51.29012],[-2.83986,51.29066],[-2.83923,51.29063],[-2.83919,51.29012],[-2.83948,51.29012],[-2.83947,51.28999],[-2.83959,51.28997]]],[[[-2.84179,51.29101],[-2.84157,51.29093],[-2.84128,51.291],[-2.84112,51.29097],[-2.84104,51.29091],[-2.84101,51.29082],[-2.84104,51.29058],[-2.84115,51.29053],[-2.84122,51.29041],[-2.84119,51.29032],[-2.84129,51.29018],[-2.84153,51.29008],[-2.84179,51.29009],[-2.8421,51.29016],[-2.8422,51.29012],[-2.84248,51.29021],[-2.84284,51.29022],[-2.84288,51.29053],[-2.84275,51.29071],[-2.84256,51.29084],[-2.84231,51.29089],[-2.84231,51.29097],[-2.84179,51.29101]]],[[[-2.86934,51.29065],[-2.8698,51.29075],[-2.86969,51.29089],[-2.86952,51.29092],[-2.86962,51.29072],[-2.86934,51.29065]]],[[[-2.86464,51.29013],[-2.86459,51.29008],[-2.86464,51.2901],[-2.86521,51.29055],[-2.86537,51.29064],[-2.86557,51.29083],[-2.86626,51.2911],[-2.8666,51.29127],[-2.86719,51.29169],[-2.86753,51.2918],[-2.86794,51.2922],[-2.86809,51.29228],[-2.86801,51.29229],[-2.8675,51.2918],[-2.86718,51.29171],[-2.86657,51.29127],[-2.86614,51.29105],[-2.86556,51.29083],[-2.86534,51.29063],[-2.86517,51.29054],[-2.86464,51.29013]]],[[[-2.87139,51.29449],[-2.87119,51.29442],[-2.87126,51.29444],[-2.87139,51.29449]]],[[[-2.88531,51.29493],[-2.88531,51.29493],[-2.88532,51.29494],[-2.88531,51.29493]]],[[[-2.88639,51.29562],[-2.88639,51.29561],[-2.88638,51.29564],[-2.88638,51.29563],[-2.88639,51.29562]]],[[[-2.83712,51.29314],[-2.83764,51.29313],[-2.83765,51.29356],[-2.83771,51.29396],[-2.83781,51.29424],[-2.83814,51.29473],[-2.83822,51.29504],[-2.83833,51.2953],[-2.8383,51.29557],[-2.83815,51.29609],[-2.83795,51.29634],[-2.8375,51.29591],[-2.83693,51.29581],[-2.83716,51.29527],[-2.8373,51.29465],[-2.83728,51.29439],[-2.83716,51.29411],[-2.83717,51.29369],[-2.83712,51.29314]]],[[[-2.84589,51.29653],[-2.84568,51.2965],[-2.84564,51.29653],[-2.84535,51.29647],[-2.84483,51.29628],[-2.84494,51.29612],[-2.84528,51.29623],[-2.84556,51.29625],[-2.84588,51.29632],[-2.84594,51.29633],[-2.84596,51.29653],[-2.84589,51.29653]]],[[[-2.86918,51.29934],[-2.86899,51.29906],[-2.86902,51.29905],[-2.86921,51.29933],[-2.86959,51.29929],[-2.86941,51.29931],[-2.86934,51.2994],[-2.86931,51.29959],[-2.86933,51.29945],[-2.86918,51.29934]]],[[[-2.83183,51.29996],[-2.83184,51.29995],[-2.83186,51.29997],[-2.83183,51.29996]]],[[[-2.87135,51.30146],[-2.87144,51.30144],[-2.8712,51.30149],[-2.87135,51.30146]]]]}},{"type":"Feature","properties":{"Descrip":"Access Land - Combined Open Country, Registered Common Land and Section 16 Dedicated Land. MoD Byelaw, Section 28 Exclusions, Racecourses and Aerodromes and ECP Margin have been removed.","OC":"No","RCL":"Yes","S16":"No","Map_Area":3,"Version":"v52"},"geometry":{"type":"Polygon","coordinates":[[[-2.83961,51.28349],[-2.83958,51.28346],[-2.83972,51.28338],[-2.83968,51.28334],[-2.84023,51.28306],[-2.84037,51.28293],[-2.8405,51.28256],[-2.84057,51.28247],[-2.84068,51.2822],[-2.84093,51.28193],[-2.84117,51.28146],[-2.84143,51.28105],[-2.84144,51.28099],[-2.84355,51.27952],[-2.84367,51.27945],[-2.84376,51.27949],[-2.84378,51.27952],[-2.8434,51.27981],[-2.84158,51.28104],[-2.84104,51.28192],[-2.84078,51.28222],[-2.84068,51.28249],[-2.84058,51.28267],[-2.84053,51.2828],[-2.84056,51.28281],[-2.84047,51.283],[-2.84031,51.28312],[-2.83961,51.28349]]]}},{"type":"Feature","properties":{"Descrip":"Access Land - Combined Open Country, Registered Common Land and Section 16 Dedicated Land. MoD Byelaw, Section 28 Exclusions, Racecourses and Aerodromes and ECP Margin have been removed.","OC":"No","RCL":"Yes","S16":"No","Map_Area":3,"Version":"v52"},"geometry":{"type":"Polygon","coordinates":[[[-2.84923,51.28096],[-2.84936,51.28099],[-2.84927,51.28121],[-2.84751,51.28356],[-2.84702,51.28435],[-2.84613,51.28559],[-2.84601,51.28566],[-2.84597,51.28561],[-2.84681,51.28446],[-2.84721,51.28377],[-2.84764,51.28288],[-2.84786,51.28253],[-2.84787,51.28248],[-2.84779,51.2824],[-2.84779,51.2823],[-2.84804,51.28227],[-2.84808,51.28224],[-2.84869,51.28152],[-2.84883,51.28141],[-2.84923,51.28096]]]}},{"type":"Feature","properties":{"Descrip":"Access Land - Combined Open Country, Registered Common Land and Section 16 Dedicated Land. MoD Byelaw, Section 28 Exclusions, Racecourses and Aerodromes and ECP Margin have been removed.","OC":"No","RCL":"Yes","S16":"No","Map_Area":3,"Version":"v52"},"geometry":{"type":"Polygon","coordinates":[[[-2.83961,51.28349],[-2.84065,51.28424],[-2.84145,51.28476],[-2.84143,51.28478],[-2.84149,51.28479],[-2.84248,51.28538],[-2.84412,51.28628],[-2.8451,51.28679],[-2.84553,51.28696],[-2.84551,51.287],[-2.84543,51.28708],[-2.84523,51.287],[-2.84163,51.28502],[-2.84088,51.28451],[-2.83921,51.28329],[-2.83838,51.28272],[-2.83828,51.28271],[-2.83813,51.2828],[-2.83669,51.28397],[-2.83663,51.28395],[-2.83664,51.2839],[-2.83833,51.28258],[-2.83961,51.28349]]]}},{"type":"Feature","properties":{"Descrip":"Access Land - Combined Open Country, Registered Common Land and Section 16 Dedicated Land. MoD Byelaw, Section 28 Exclusions, Racecourses and Aerodromes and ECP Margin have been removed.","OC":"No","RCL":"Yes","S16":"No","Map_Area":3,"Version":"v52"},"geometry":{"type":"Polygon","coordinates":[[[-2.83959,51.28997],[-2.83985,51.29011],[-2.83959,51.29012],[-2.83959,51.28997]]]}},{"type":"Feature","properties":{"Descrip":"Access Land - Combined Open Country, Registered Common Land and Section 16 Dedicated Land. MoD Byelaw, Section 28 Exclusions, Racecourses and Aerodromes and ECP Margin have been removed.","OC":"No","RCL":"Yes","S16":"No","Map_Area":3,"Version":"v52"},"geometry":{"type":"Polygon","coordinates":[[[-2.83986,51.29048],[-2.83985,51.29011],[-2.84019,51.29029],[-2.84049,51.29037],[-2.84076,51.2904],[-2.84094,51.29035],[-2.84135,51.29008],[-2.84138,51.29003],[-2.84153,51.29008],[-2.84134,51.29016],[-2.84124,51.29024],[-2.84119,51.29032],[-2.84122,51.29041],[-2.84115,51.29053],[-2.84104,51.29058],[-2.84102,51.29077],[-2.84067,51.29071],[-2.83986,51.29048]]]}},{"type":"Feature","properties":{"Descrip":"Access Land - Combined Open Country, Registered Common Land and Section 16 Dedicated Land. MoD Byelaw, Section 28 Exclusions, Racecourses and Aerodromes and ECP Margin have been removed.","OC":"No","RCL":"Yes","S16":"No","Map_Area":3,"Version":"v52"},"geometry":{"type":"Polygon","coordinates":[[[-2.84226,51.29125],[-2.84231,51.29089],[-2.84256,51.29084],[-2.84284,51.29063],[-2.84296,51.29069],[-2.84261,51.29134],[-2.84226,51.29125]]]}},{"type":"Feature","properties":{"Descrip":"Access Land - Combined Open Country, Registered Common Land and Section 16 Dedicated Land. MoD Byelaw, Section 28 Exclusions, Racecourses and Aerodromes and ECP Margin have been removed.","OC":"No","RCL":"Yes","S16":"No","Map_Area":3,"Version":"v52"},"geometry":{"type":"Polygon","coordinates":[[[-2.83947,51.28999],[-2.83948,51.29012],[-2.83919,51.29012],[-2.83923,51.29053],[-2.83861,51.29054],[-2.83791,51.29047],[-2.83715,51.2906],[-2.837,51.29075],[-2.8369,51.29109],[-2.83666,51.29154],[-2.83667,51.29236],[-2.83602,51.29224],[-2.83586,51.29226],[-2.83612,51.29175],[-2.83625,51.29105],[-2.83628,51.29061],[-2.83652,51.29004],[-2.83786,51.29003],[-2.8381,51.29009],[-2.83835,51.29026],[-2.83858,51.29029],[-2.83933,51.29],[-2.83947,51.28999]]]}},{"type":"Feature","properties":{"Descrip":"Access Land - Combined Open Country, Registered Common Land and Section 16 Dedicated Land. MoD Byelaw, Section 28 Exclusions, Racecourses and Aerodromes and ECP Margin have been removed.","OC":"No","RCL":"Yes","S16":"No","Map_Area":3,"Version":"v52"},"geometry":{"type":"Polygon","coordinates":[[[-2.8298,51.29309],[-2.82963,51.2927],[-2.82939,51.29225],[-2.82924,51.29186],[-2.82876,51.29119],[-2.82829,51.29063],[-2.82801,51.29034],[-2.82808,51.29034],[-2.82894,51.29098],[-2.82948,51.29154],[-2.82993,51.29214],[-2.83024,51.29269],[-2.83049,51.29348],[-2.83063,51.294],[-2.83067,51.29435],[-2.83067,51.29481],[-2.83059,51.2948],[-2.8303,51.29437],[-2.83026,51.29404],[-2.83018,51.29381],[-2.83015,51.29361],[-2.83006,51.2934],[-2.8298,51.29309]]]}},{"type":"Feature","properties":{"Descrip":"Access Land - Combined Open Country, Registered Common Land and Section 16 Dedicated Land. MoD Byelaw, Section 28 Exclusions, Racecourses and Aerodromes and ECP Margin have been removed.","OC":"No","RCL":"Yes","S16":"No","Map_Area":3,"Version":"v52"},"geometry":{"type":"Polygon","coordinates":[[[-2.82298,51.29814],[-2.8234,51.29823],[-2.82514,51.29846],[-2.82708,51.29847],[-2.82713,51.29855],[-2.82708,51.29872],[-2.82721,51.29893],[-2.82719,51.29906],[-2.82734,51.29948],[-2.82734,51.29967],[-2.82722,51.29988],[-2.82696,51.30017],[-2.82683,51.30029],[-2.82664,51.30036],[-2.82641,51.30038],[-2.8261,51.30048],[-2.82584,51.30046],[-2.82494,51.30059],[-2.8245,51.30044],[-2.82387,51.30055],[-2.82337,51.30051],[-2.82285,51.3007],[-2.82231,51.30084],[-2.82151,51.30051],[-2.82143,51.3003],[-2.82151,51.2999],[-2.82163,51.29971],[-2.8216,51.2995],[-2.82188,51.29901],[-2.82231,51.29874],[-2.82248,51.29842],[-2.82259,51.2983],[-2.82298,51.29814]]]}},{"type":"Feature","properties":{"Descrip":"Access Land - Combined Open Country, Registered Common Land and Section 16 Dedicated Land. MoD Byelaw, Section 28 Exclusions, Racecourses and Aerodromes and ECP Margin have been removed.","OC":"No","RCL":"Yes","S16":"No","Map_Area":3,"Version":"v52"},"geometry":{"type":"Polygon","coordinates":[[[-2.81892,51.30093],[-2.81827,51.30103],[-2.81827,51.30094],[-2.81895,51.29934],[-2.81981,51.29704],[-2.82049,51.29561],[-2.82062,51.295],[-2.82083,51.29434],[-2.82087,51.29287],[-2.82156,51.29133],[-2.82169,51.29094],[-2.82222,51.28999],[-2.82225,51.28994],[-2.82243,51.28995],[-2.82262,51.28986],[-2.82321,51.28974],[-2.82344,51.28963],[-2.82345,51.28953],[-2.82413,51.28944],[-2.82504,51.28899],[-2.82527,51.28878],[-2.82569,51.28872],[-2.82574,51.28865],[-2.82583,51.28862],[-2.82602,51.28846],[-2.82641,51.28869],[-2.8268,51.28899],[-2.82726,51.28926],[-2.82785,51.28976],[-2.82792,51.28989],[-2.82801,51.29034],[-2.82829,51.29063],[-2.82876,51.29119],[-2.82924,51.29186],[-2.82939,51.29225],[-2.82963,51.2927],[-2.8298,51.29309],[-2.82972,51.29311],[-2.82982,51.29494],[-2.83012,51.29496],[-2.83024,51.2951],[-2.83021,51.2952],[-2.83023,51.29525],[-2.83044,51.29529],[-2.82998,51.29585],[-2.82968,51.29632],[-2.82948,51.29701],[-2.82949,51.29713],[-2.82941,51.2974],[-2.82919,51.29779],[-2.82921,51.29803],[-2.82938,51.29869],[-2.82939,51.29917],[-2.82958,51.29989],[-2.82982,51.30018],[-2.82993,51.30024],[-2.83003,51.30027],[-2.83047,51.3002],[-2.83038,51.30053],[-2.83136,51.30053],[-2.83144,51.30074],[-2.82959,51.30082],[-2.8296,51.30084],[-2.82243,51.30095],[-2.82227,51.30096],[-2.8218,51.3011],[-2.82155,51.30107],[-2.82082,51.30087],[-2.8206,51.30084],[-2.81999,51.30099],[-2.81976,51.30101],[-2.81917,51.30092],[-2.81892,51.30093]],[[-2.82708,51.29847],[-2.82707,51.29842],[-2.82723,51.2983],[-2.82734,51.29813],[-2.82743,51.29807],[-2.82742,51.29797],[-2.82747,51.29775],[-2.82768,51.29737],[-2.82777,51.29715],[-2.8278,51.29698],[-2.82792,51.29676],[-2.82795,51.2961],[-2.82802,51.29587],[-2.82825,51.29558],[-2.82827,51.29534],[-2.82834,51.29512],[-2.82829,51.29487],[-2.82836,51.29463],[-2.82834,51.29449],[-2.82823,51.29447],[-2.82758,51.2945],[-2.8275,51.29447],[-2.82721,51.29448],[-2.82691,51.29463],[-2.82682,51.29479],[-2.82626,51.29501],[-2.82614,51.29513],[-2.82611,51.29521],[-2.82593,51.29542],[-2.82578,51.29549],[-2.82563,51.2956],[-2.82546,51.29578],[-2.82495,51.29618],[-2.82476,51.29636],[-2.82422,51.29672],[-2.82394,51.29702],[-2.82329,51.29742],[-2.82328,51.29747],[-2.82318,51.2976],[-2.82315,51.29776],[-2.823,51.298],[-2.82298,51.29814],[-2.82259,51.2983],[-2.82248,51.29842],[-2.82231,51.29874],[-2.82188,51.29901],[-2.82177,51.29916],[-2.8216,51.2995],[-2.82163,51.29971],[-2.82151,51.2999],[-2.82143,51.30033],[-2.82151,51.30051],[-2.82232,51.30085],[-2.82337,51.30051],[-2.82387,51.30055],[-2.8245,51.30044],[-2.82494,51.30059],[-2.82584,51.30046],[-2.8261,51.30048],[-2.82641,51.30038],[-2.82669,51.30035],[-2.82686,51.30027],[-2.82709,51.30004],[-2.82735,51.29964],[-2.82731,51.29939],[-2.82719,51.29906],[-2.82721,51.29893],[-2.82708,51.29872],[-2.82713,51.29855],[-2.82708,51.29847]],[[-2.82746,51.30035],[-2.82735,51.30045],[-2.82732,51.30055],[-2.82745,51.30069],[-2.82758,51.30072],[-2.82787,51.3006],[-2.82826,51.30023],[-2.82775,51.30006],[-2.82746,51.30035]]]}},{"type":"Feature","properties":{"Descrip":"Access Land - Combined Open Country, Registered Common Land and Section 16 Dedicated Land. MoD Byelaw, Section 28 Exclusions, Racecourses and Aerodromes and ECP Margin have been removed.","OC":"No","RCL":"Yes","S16":"No","Map_Area":3,"Version":"v52"},"geometry":{"type":"Polygon","coordinates":[[[-2.82775,51.3009],[-2.8278,51.30086],[-2.82938,51.30084],[-2.8294,51.3011],[-2.82937,51.30124],[-2.82923,51.30126],[-2.82861,51.30108],[-2.82826,51.30101],[-2.8281,51.30093],[-2.82775,51.3009]]]}},{"type":"Feature","properties":{"Descrip":"Access Land - Combined Open Country, Registered Common Land and Section 16 Dedicated Land. MoD Byelaw, Section 28 Exclusions, Racecourses and Aerodromes and ECP Margin have been removed.","OC":"No","RCL":"Yes","S16":"No","Map_Area":3,"Version":"v52"},"geometry":{"type":"Polygon","coordinates":[[[-2.87908,51.30296],[-2.87717,51.30011],[-2.87387,51.3009],[-2.86795,51.30223],[-2.86672,51.30167],[-2.86436,51.30016],[-2.86139,51.30011],[-2.85663,51.30011],[-2.85317,51.29946],[-2.84766,51.29983],[-2.83144,51.30074],[-2.83115,51.29991],[-2.83175,51.29993],[-2.83205,51.3001],[-2.83227,51.30013],[-2.83244,51.30008],[-2.83274,51.30011],[-2.83301,51.30008],[-2.83365,51.3001],[-2.83376,51.30015],[-2.83463,51.3002],[-2.83497,51.29997],[-2.83543,51.30004],[-2.83568,51.3],[-2.83588,51.29991],[-2.83615,51.29991],[-2.83661,51.29983],[-2.83675,51.29975],[-2.8368,51.29959],[-2.83703,51.29934],[-2.83721,51.29908],[-2.83727,51.29893],[-2.83738,51.29886],[-2.83753,51.29865],[-2.83757,51.2985],[-2.83774,51.29832],[-2.83781,51.29803],[-2.8378,51.29791],[-2.83787,51.2978],[-2.83795,51.29721],[-2.83836,51.29724],[-2.83848,51.29685],[-2.83794,51.29682],[-2.83801,51.29669],[-2.83804,51.2965],[-2.83795,51.29634],[-2.83815,51.29609],[-2.8383,51.29557],[-2.83833,51.2953],[-2.83822,51.29504],[-2.83814,51.29473],[-2.83781,51.29424],[-2.83771,51.29396],[-2.83765,51.29356],[-2.83764,51.29313],[-2.83712,51.29314],[-2.83714,51.29305],[-2.83731,51.29288],[-2.83736,51.29272],[-2.83737,51.29252],[-2.83731,51.29247],[-2.83667,51.29236],[-2.83666,51.29154],[-2.8369,51.29109],[-2.837,51.29075],[-2.83715,51.2906],[-2.83791,51.29047],[-2.83806,51.29046],[-2.83861,51.29054],[-2.83923,51.29053],[-2.83923,51.29063],[-2.83936,51.29063],[-2.83935,51.29076],[-2.83977,51.29078],[-2.83979,51.29066],[-2.83986,51.29066],[-2.83986,51.29048],[-2.84067,51.29071],[-2.84102,51.29077],[-2.84104,51.29091],[-2.84116,51.29098],[-2.84128,51.291],[-2.84157,51.29093],[-2.84188,51.29101],[-2.84231,51.29097],[-2.84227,51.29124],[-2.84221,51.29131],[-2.84215,51.29159],[-2.84193,51.2919],[-2.84186,51.29208],[-2.84186,51.29225],[-2.84191,51.2923],[-2.84193,51.29241],[-2.84189,51.29253],[-2.84193,51.29266],[-2.84193,51.29285],[-2.84186,51.29297],[-2.84192,51.29307],[-2.84195,51.29328],[-2.8422,51.29355],[-2.84235,51.29366],[-2.84257,51.29377],[-2.8426,51.29369],[-2.84265,51.29369],[-2.84287,51.29378],[-2.84396,51.29446],[-2.84407,51.29479],[-2.8441,51.29513],[-2.84403,51.29529],[-2.8441,51.29547],[-2.84445,51.29565],[-2.84471,51.29604],[-2.84494,51.29612],[-2.84483,51.2963],[-2.84535,51.29647],[-2.84564,51.29653],[-2.84568,51.2965],[-2.84595,51.29653],[-2.84594,51.29633],[-2.84648,51.29636],[-2.84667,51.29586],[-2.84663,51.29573],[-2.84673,51.29509],[-2.84681,51.29483],[-2.84689,51.29406],[-2.84713,51.29407],[-2.84798,51.29374],[-2.84828,51.29357],[-2.84842,51.29341],[-2.84851,51.29339],[-2.84848,51.29319],[-2.84855,51.29311],[-2.84877,51.29306],[-2.84921,51.29289],[-2.84983,51.2928],[-2.85019,51.29282],[-2.85047,51.29299],[-2.85107,51.29293],[-2.85205,51.29291],[-2.85216,51.29288],[-2.85208,51.29311],[-2.85238,51.29342],[-2.85242,51.29352],[-2.85312,51.29405],[-2.85344,51.29422],[-2.85364,51.29446],[-2.85377,51.29452],[-2.85405,51.29453],[-2.85426,51.2946],[-2.85445,51.2946],[-2.85456,51.29456],[-2.85492,51.29466],[-2.85482,51.2948],[-2.85476,51.29478],[-2.85472,51.29484],[-2.85475,51.29489],[-2.8556,51.29526],[-2.85663,51.29531],[-2.85704,51.29541],[-2.8597,51.29567],[-2.85997,51.29571],[-2.85997,51.29581],[-2.86009,51.29593],[-2.86091,51.29604],[-2.86118,51.29604],[-2.86133,51.29596],[-2.86143,51.29585],[-2.86163,51.29584],[-2.86197,51.29587],[-2.86202,51.29594],[-2.86253,51.29606],[-2.86324,51.29611],[-2.86346,51.29619],[-2.86359,51.29642],[-2.86378,51.2966],[-2.86388,51.29665],[-2.8642,51.29672],[-2.86448,51.29675],[-2.86467,51.29673],[-2.86469,51.29676],[-2.86466,51.29689],[-2.86587,51.29721],[-2.86635,51.29728],[-2.86645,51.29723],[-2.86683,51.2974],[-2.86695,51.29749],[-2.86694,51.29753],[-2.86718,51.29773],[-2.8677,51.29799],[-2.86789,51.29802],[-2.86817,51.29798],[-2.86827,51.29781],[-2.8684,51.29778],[-2.8687,51.29821],[-2.86877,51.29846],[-2.86895,51.29877],[-2.86897,51.2989],[-2.86904,51.299],[-2.86895,51.2991],[-2.86887,51.29912],[-2.86864,51.29944],[-2.86874,51.29954],[-2.86884,51.29955],[-2.86897,51.29963],[-2.86931,51.29959],[-2.86934,51.2994],[-2.86941,51.29931],[-2.86963,51.29927],[-2.86961,51.29891],[-2.8698,51.29888],[-2.87025,51.29839],[-2.87003,51.29821],[-2.87044,51.29798],[-2.87069,51.29778],[-2.87073,51.29769],[-2.87071,51.29723],[-2.87098,51.29705],[-2.87137,51.29708],[-2.87154,51.29699],[-2.87222,51.29715],[-2.87322,51.29745],[-2.8734,51.29747],[-2.87357,51.29742],[-2.87385,51.29749],[-2.87431,51.29719],[-2.87431,51.29716],[-2.87418,51.297],[-2.87416,51.29694],[-2.87404,51.29683],[-2.87393,51.29662],[-2.87387,51.29646],[-2.87386,51.29614],[-2.87336,51.2956],[-2.87303,51.29512],[-2.87294,51.29504],[-2.87282,51.29497],[-2.87095,51.29434],[-2.8703,51.29408],[-2.87006,51.29396],[-2.86955,51.29363],[-2.86948,51.29358],[-2.86947,51.29351],[-2.86917,51.29308],[-2.86836,51.29243],[-2.86812,51.29227],[-2.86809,51.29228],[-2.86794,51.2922],[-2.86753,51.2918],[-2.86719,51.29169],[-2.8666,51.29127],[-2.86626,51.2911],[-2.86557,51.29083],[-2.86537,51.29064],[-2.86473,51.29019],[-2.86462,51.29008],[-2.86457,51.28991],[-2.8645,51.28985],[-2.8645,51.2898],[-2.86468,51.28968],[-2.86505,51.28967],[-2.86585,51.28979],[-2.86805,51.29034],[-2.86792,51.29058],[-2.86849,51.29071],[-2.86952,51.29092],[-2.86969,51.29089],[-2.86977,51.29082],[-2.8698,51.29075],[-2.86981,51.29061],[-2.8709,51.2908],[-2.87156,51.29099],[-2.87271,51.29123],[-2.87395,51.29157],[-2.87514,51.29182],[-2.87555,51.29186],[-2.87664,51.29222],[-2.87667,51.29226],[-2.87673,51.29225],[-2.87692,51.29232],[-2.87705,51.29247],[-2.87702,51.2927],[-2.87716,51.29291],[-2.87735,51.29308],[-2.87769,51.29322],[-2.87867,51.2934],[-2.87869,51.29335],[-2.87882,51.29338],[-2.87917,51.29337],[-2.87948,51.2934],[-2.88033,51.29371],[-2.88072,51.29379],[-2.88071,51.29381],[-2.88075,51.29383],[-2.88174,51.29396],[-2.88223,51.29416],[-2.88217,51.29422],[-2.88221,51.29428],[-2.88304,51.29451],[-2.88314,51.29449],[-2.88352,51.29463],[-2.88402,51.29472],[-2.88432,51.29471],[-2.88514,51.29482],[-2.88553,51.29507],[-2.88564,51.29522],[-2.88575,51.2953],[-2.88633,51.29555],[-2.88639,51.29561],[-2.8864,51.29612],[-2.88648,51.29627],[-2.8862,51.29632],[-2.88636,51.29705],[-2.88698,51.29705],[-2.8869,51.29727],[-2.88692,51.29728],[-2.88689,51.2974],[-2.8867,51.2978],[-2.88666,51.29782],[-2.88656,51.29825],[-2.88653,51.29847],[-2.88643,51.29878],[-2.88639,51.29911],[-2.88626,51.2993],[-2.8861,51.29949],[-2.88599,51.2999],[-2.88548,51.30062],[-2.88527,51.30055],[-2.88484,51.30104],[-2.88476,51.30118],[-2.88494,51.3013],[-2.88454,51.30171],[-2.88473,51.30179],[-2.88494,51.30169],[-2.88507,51.30178],[-2.88517,51.30181],[-2.88409,51.30237],[-2.88331,51.30265],[-2.88332,51.30268],[-2.88203,51.30336],[-2.88056,51.30379],[-2.88052,51.30371],[-2.88042,51.30366],[-2.87947,51.30286],[-2.87908,51.30296]]]}},{"type":"Feature","properties":{"Descrip":"Access Land - Combined Open Country, Registered Common Land and Section 16 Dedicated Land. MoD Byelaw, Section 28 Exclusions, Racecourses and Aerodromes and ECP Margin have been removed.","OC":"No","RCL":"Yes","S16":"No","Map_Area":3,"Version":"v52"},"geometry":{"type":"Polygon","coordinates":[[[-2.80049,51.31122],[-2.80042,51.31115],[-2.80037,51.31115],[-2.80078,51.31107],[-2.80084,51.31109],[-2.80091,51.3115],[-2.80086,51.31151],[-2.80083,51.31144],[-2.80062,51.31139],[-2.80065,51.31138],[-2.80049,51.31122]]]}},{"type":"Feature","properties":{"Descrip":"Access Land - Combined Open Country, Registered Common Land and Section 16 Dedicated Land. MoD Byelaw, Section 28 Exclusions, Racecourses and Aerodromes and ECP Margin have been removed.","OC":"No","RCL":"Yes","S16":"No","Map_Area":3,"Version":"v52"},"geometry":{"type":"Polygon","coordinates":[[[-2.80034,51.31208],[-2.80036,51.31204],[-2.80051,51.31208],[-2.80048,51.31221],[-2.80032,51.31254],[-2.80006,51.31285],[-2.80005,51.31281],[-2.80009,51.31268],[-2.79995,51.31266],[-2.80009,51.31224],[-2.80024,51.31219],[-2.80034,51.31208]]]}},{"type":"Feature","properties":{"Descrip":"Access Land - Combined Open Country, Registered Common Land and Section 16 Dedicated Land. MoD Byelaw, Section 28 Exclusions, Racecourses and Aerodromes and ECP Margin have been removed.","OC":"No","RCL":"Yes","S16":"No","Map_Area":3,"Version":"v52"},"geometry":{"type":"Polygon","coordinates":[[[-2.79863,51.31391],[-2.79899,51.31387],[-2.79929,51.31365],[-2.79936,51.31354],[-2.79952,51.3134],[-2.79961,51.31341],[-2.79929,51.3137],[-2.79898,51.31393],[-2.79875,51.31401],[-2.79862,51.31401],[-2.79863,51.31391]]]}},{"type":"Feature","properties":{"Descrip":"Access Land - Combined Open Country, Registered Common Land and Section 16 Dedicated Land. MoD Byelaw, Section 28 Exclusions, Racecourses and Aerodromes and ECP Margin have been removed.","OC":"No","RCL":"Yes","S16":"No","Map_Area":3,"Version":"v52"},"geometry":{"type":"Polygon","coordinates":[[[-2.79904,51.31403],[-2.79988,51.31332],[-2.79994,51.31333],[-2.79978,51.31364],[-2.79982,51.31385],[-2.79946,51.31393],[-2.79949,51.31398],[-2.7993,51.31409],[-2.79909,51.31403],[-2.79893,51.31421],[-2.7989,51.31414],[-2.79904,51.31403]]]}},{"type":"Feature","properties":{"Descrip":"Access Land - Combined Open Country, Registered Common Land and Section 16 Dedicated Land. MoD Byelaw, Section 28 Exclusions, Racecourses and Aerodromes and ECP Margin have been removed.","OC":"No","RCL":"Yes","S16":"No","Map_Area":3,"Version":"v52"},"geometry":{"type":"Polygon","coordinates":[[[-2.7981,51.31432],[-2.798,51.31432],[-2.7986,51.31416],[-2.79868,51.31416],[-2.79871,51.3142],[-2.79865,51.3144],[-2.79852,51.31435],[-2.7981,51.31432]]]}},{"type":"Feature","properties":{"Descrip":"Access Land - Combined Open Country, Registered Common Land and Section 16 Dedicated Land. MoD Byelaw, Section 28 Exclusions, Racecourses and Aerodromes and ECP Margin have been removed.","OC":"No","RCL":"Yes","S16":"No","Map_Area":3,"Version":"v52"},"geometry":{"type":"Polygon","coordinates":[[[-2.76418,51.31546],[-2.7641,51.31515],[-2.76445,51.3156],[-2.76447,51.31575],[-2.76435,51.31597],[-2.76418,51.31546]]]}},{"type":"Feature","properties":{"Descrip":"Access Land - Combined Open Country, Registered Common Land and Section 16 Dedicated Land. MoD Byelaw, Section 28 Exclusions, Racecourses and Aerodromes and ECP Margin have been removed.","OC":"No","RCL":"Yes","S16":"No","Map_Area":3,"Version":"v52"},"geometry":{"type":"Polygon","coordinates":[[[-2.75352,51.32725],[-2.75309,51.32726],[-2.75317,51.32696],[-2.75314,51.32641],[-2.75292,51.32569],[-2.75298,51.32546],[-2.7534,51.32498],[-2.75345,51.32481],[-2.75334,51.32458],[-2.75273,51.32402],[-2.75259,51.3238],[-2.75255,51.32361],[-2.75261,51.32292],[-2.75251,51.32239],[-2.75248,51.32185],[-2.75234,51.3217],[-2.75219,51.32163],[-2.75177,51.32153],[-2.75042,51.32133],[-2.74752,51.32051],[-2.74599,51.32025],[-2.74574,51.32025],[-2.7451,51.32034],[-2.74449,51.32032],[-2.74401,51.32047],[-2.74373,51.3205],[-2.74196,51.32022],[-2.74055,51.3201],[-2.73988,51.32007],[-2.73903,51.3201],[-2.73831,51.32007],[-2.73625,51.31993],[-2.73607,51.3199],[-2.73742,51.31997],[-2.73943,51.3199],[-2.73995,51.31985],[-2.74074,51.31987],[-2.74186,51.31992],[-2.7436,51.32015],[-2.74457,51.31988],[-2.74548,51.31966],[-2.74576,51.31969],[-2.74588,51.31965],[-2.7462,51.3197],[-2.74651,51.31968],[-2.74711,51.31973],[-2.74709,51.31957],[-2.74697,51.31925],[-2.74648,51.31851],[-2.74581,51.31844],[-2.74468,51.31856],[-2.74334,51.31838],[-2.74233,51.3182],[-2.74091,51.31759],[-2.73995,51.31711],[-2.73973,51.31704],[-2.7389,51.31684],[-2.73724,51.31656],[-2.73542,51.31605],[-2.73466,51.31604],[-2.73303,51.3162],[-2.73263,51.3163],[-2.73244,51.3164],[-2.73247,51.31658],[-2.73268,51.31729],[-2.73286,51.31769],[-2.73302,51.31815],[-2.73319,51.31844],[-2.73314,51.31848],[-2.73323,51.31878],[-2.73347,51.31901],[-2.733,51.31889],[-2.73301,51.31851],[-2.73298,51.3184],[-2.73289,51.31825],[-2.73254,51.31792],[-2.73234,51.31752],[-2.73195,51.3163],[-2.73162,51.31547],[-2.73108,51.31448],[-2.73084,51.31427],[-2.73065,51.31423],[-2.73069,51.31415],[-2.73062,51.31396],[-2.73044,51.31368],[-2.73085,51.31219],[-2.73082,51.31213],[-2.73087,51.31212],[-2.73107,51.31146],[-2.73186,51.31016],[-2.73374,51.30831],[-2.73553,51.30665],[-2.73579,51.30666],[-2.73676,51.30662],[-2.73681,51.30648],[-2.75208,51.30751],[-2.76563,51.30901],[-2.76516,51.31047],[-2.76485,51.31083],[-2.7646,51.31125],[-2.76422,51.31196],[-2.76359,51.31338],[-2.76359,51.31346],[-2.76395,51.31501],[-2.7641,51.31515],[-2.76434,51.31595],[-2.76442,51.31606],[-2.76445,51.31623],[-2.76453,51.31628],[-2.76451,51.31635],[-2.76476,51.31659],[-2.76477,51.31666],[-2.76484,51.31672],[-2.76485,51.31701],[-2.76481,51.31719],[-2.76467,51.31737],[-2.76451,51.31751],[-2.76447,51.31758],[-2.76448,51.31774],[-2.76438,51.31785],[-2.76435,51.31807],[-2.76424,51.31828],[-2.76416,51.31836],[-2.76418,51.31852],[-2.76407,51.31861],[-2.76407,51.3187],[-2.76399,51.3188],[-2.76391,51.31903],[-2.76365,51.31919],[-2.76354,51.31935],[-2.76352,51.31949],[-2.76354,51.31962],[-2.76352,51.31971],[-2.7634,51.31978],[-2.76337,51.31988],[-2.76353,51.32013],[-2.76367,51.32027],[-2.76364,51.32035],[-2.76368,51.32052],[-2.76361,51.32068],[-2.76371,51.32078],[-2.76373,51.32085],[-2.76366,51.32096],[-2.76368,51.32105],[-2.76359,51.3211],[-2.76355,51.32119],[-2.7636,51.32125],[-2.76364,51.32141],[-2.76361,51.32159],[-2.76385,51.32178],[-2.7641,51.32191],[-2.76426,51.32211],[-2.7644,51.32218],[-2.76454,51.32236],[-2.76453,51.32247],[-2.76461,51.32257],[-2.76457,51.32262],[-2.76391,51.32261],[-2.76358,51.32253],[-2.76269,51.32224],[-2.76164,51.32208],[-2.76129,51.32208],[-2.75998,51.32248],[-2.75884,51.32287],[-2.75734,51.32322],[-2.75703,51.32337],[-2.7563,51.32386],[-2.75544,51.3247],[-2.75532,51.32493],[-2.75514,51.32548],[-2.75503,51.32598],[-2.75505,51.32629],[-2.75494,51.32641],[-2.75487,51.3264],[-2.75488,51.32637],[-2.75456,51.32636],[-2.75448,51.32658],[-2.7545,51.32667],[-2.75456,51.32672],[-2.75452,51.32683],[-2.75453,51.32689],[-2.75439,51.32707],[-2.75407,51.32727],[-2.75394,51.32743],[-2.7538,51.32743],[-2.75382,51.32739],[-2.75378,51.32735],[-2.7537,51.32735],[-2.75369,51.32725],[-2.75352,51.32725]],[[-2.75422,51.32637],[-2.75408,51.32637],[-2.75402,51.32659],[-2.754,51.32689],[-2.75417,51.32693],[-2.75442,51.32657],[-2.75441,51.32654],[-2.75422,51.32652],[-2.75419,51.32642],[-2.75422,51.32637]]]}},{"type":"Feature","properties":{"Descrip":"Access Land - Combined Open Country, Registered Common Land and Section 16 Dedicated Land. MoD Byelaw, Section 28 Exclusions, Racecourses and Aerodromes and ECP Margin have been removed.","OC":"No","RCL":"Yes","S16":"No","Map_Area":3,"Version":"v52"},"geometry":{"type":"Polygon","coordinates":[[[-2.73361,51.32087],[-2.73375,51.32082],[-2.73369,51.3202],[-2.73372,51.32012],[-2.73382,51.3201],[-2.73391,51.31974],[-2.73405,51.31987],[-2.73413,51.31999],[-2.73429,51.32004],[-2.73486,51.31994],[-2.73522,51.31993],[-2.73843,51.32014],[-2.74041,51.32014],[-2.74192,51.32026],[-2.74376,51.32056],[-2.74402,51.32053],[-2.74449,51.32038],[-2.74512,51.32039],[-2.74588,51.3203],[-2.74736,51.32053],[-2.75013,51.32132],[-2.75197,51.32162],[-2.75216,51.32168],[-2.75233,51.32178],[-2.75241,51.32187],[-2.75244,51.32242],[-2.75253,51.32296],[-2.75246,51.32359],[-2.7525,51.32379],[-2.75256,51.32393],[-2.75266,51.32406],[-2.75326,51.32461],[-2.75335,51.32488],[-2.75332,51.32495],[-2.753,51.3253],[-2.75285,51.32553],[-2.75283,51.32574],[-2.7529,51.32598],[-2.75275,51.32598],[-2.75273,51.32609],[-2.75283,51.32654],[-2.75284,51.32673],[-2.75281,51.32683],[-2.75276,51.32683],[-2.75251,51.32738],[-2.75248,51.32737],[-2.75213,51.32781],[-2.75183,51.32777],[-2.75163,51.32797],[-2.75138,51.32798],[-2.75116,51.32804],[-2.75075,51.32803],[-2.75071,51.32799],[-2.75023,51.3279],[-2.75022,51.32779],[-2.75005,51.32771],[-2.74975,51.32764],[-2.74955,51.32753],[-2.74931,51.32733],[-2.74911,51.32724],[-2.74836,51.32707],[-2.74805,51.32706],[-2.74798,51.32707],[-2.74795,51.32723],[-2.74834,51.32727],[-2.74845,51.32731],[-2.74836,51.32747],[-2.74748,51.32747],[-2.74748,51.32784],[-2.74744,51.32796],[-2.7474,51.32795],[-2.74736,51.32799],[-2.74728,51.32802],[-2.74657,51.32783],[-2.74608,51.32774],[-2.7454,51.32785],[-2.74536,51.32789],[-2.74537,51.32792],[-2.74533,51.32796],[-2.74524,51.32798],[-2.74474,51.32827],[-2.74422,51.32846],[-2.74362,51.32848],[-2.74355,51.32844],[-2.74357,51.32838],[-2.74279,51.32828],[-2.74277,51.32798],[-2.74281,51.32787],[-2.74301,51.32787],[-2.74326,51.3275],[-2.74331,51.3275],[-2.74333,51.32737],[-2.74327,51.32731],[-2.74344,51.32687],[-2.74412,51.32688],[-2.74417,51.32698],[-2.74461,51.32701],[-2.74449,51.32648],[-2.7444,51.32635],[-2.74427,51.32603],[-2.74425,51.32595],[-2.74429,51.32593],[-2.74424,51.32559],[-2.74406,51.32521],[-2.74391,51.32506],[-2.74374,51.32495],[-2.743,51.32467],[-2.74229,51.32503],[-2.74173,51.32526],[-2.74113,51.32544],[-2.74112,51.3255],[-2.74132,51.32551],[-2.74129,51.32563],[-2.74151,51.32572],[-2.74136,51.32587],[-2.74196,51.32625],[-2.74188,51.32652],[-2.7414,51.32731],[-2.74116,51.32767],[-2.74099,51.32814],[-2.74073,51.32859],[-2.73988,51.32926],[-2.73978,51.32949],[-2.73961,51.32953],[-2.7396,51.32964],[-2.73944,51.32967],[-2.73929,51.32978],[-2.73893,51.32991],[-2.73881,51.32976],[-2.73884,51.32971],[-2.73858,51.32956],[-2.73861,51.32951],[-2.73815,51.32931],[-2.73776,51.32901],[-2.73792,51.32882],[-2.73803,51.3284],[-2.73809,51.3284],[-2.73812,51.32823],[-2.73739,51.3282],[-2.73729,51.32719],[-2.73676,51.32541],[-2.73648,51.32477],[-2.73633,51.32428],[-2.73635,51.32382],[-2.73384,51.32121],[-2.73361,51.32087]],[[-2.73736,51.32731],[-2.73742,51.32735],[-2.73734,51.32731],[-2.73736,51.32731]]]}},{"type":"Feature","properties":{"Descrip":"Access Land - Combined Open Country, Registered Common Land and Section 16 Dedicated Land. MoD Byelaw, Section 28 Exclusions, Racecourses and Aerodromes and ECP Margin have been removed.","OC":"No","RCL":"Yes","S16":"No","Map_Area":3,"Version":"v52"},"geometry":{"type":"Polygon","coordinates":[[[-2.79831,51.32697],[-2.79839,51.32692],[-2.79852,51.32694],[-2.79896,51.32688],[-2.79884,51.32711],[-2.79875,51.32737],[-2.79877,51.32767],[-2.79913,51.3285],[-2.79943,51.32894],[-2.79947,51.32913],[-2.79889,51.33008],[-2.79874,51.3302],[-2.7982,51.33039],[-2.79798,51.33052],[-2.79786,51.33068],[-2.79776,51.33096],[-2.79767,51.33108],[-2.79756,51.33134],[-2.79749,51.33135],[-2.79735,51.33072],[-2.79738,51.33022],[-2.79727,51.33009],[-2.79704,51.32991],[-2.79675,51.32962],[-2.79698,51.32953],[-2.79716,51.32942],[-2.7972,51.32936],[-2.79774,51.32935],[-2.79772,51.32922],[-2.79752,51.32914],[-2.79806,51.32865],[-2.79829,51.3283],[-2.79837,51.32803],[-2.79841,51.32782],[-2.7984,51.32712],[-2.79831,51.32697]]]}},{"type":"Feature","properties":{"Descrip":"Access Land - Combined Open Country, Registered Common Land and Section 16 Dedicated Land. MoD Byelaw, Section 28 Exclusions, Racecourses and Aerodromes and ECP Margin have been removed.","OC":"No","RCL":"Yes","S16":"No","Map_Area":3,"Version":"v52"},"geometry":{"type":"Polygon","coordinates":[[[-2.75811,51.33195],[-2.75825,51.33193],[-2.7582,51.33196],[-2.75827,51.33218],[-2.75826,51.33246],[-2.75804,51.3325],[-2.75778,51.33244],[-2.75779,51.33238],[-2.75772,51.33213],[-2.75755,51.33206],[-2.75811,51.33195]]]}},{"type":"Feature","properties":{"Descrip":"Access Land - Combined Open Country, Registered Common Land and Section 16 Dedicated Land. MoD Byelaw, Section 28 Exclusions, Racecourses and Aerodromes and ECP Margin have been removed.","OC":"No","RCL":"Yes","S16":"No","Map_Area":3,"Version":"v52"},"geometry":{"type":"Polygon","coordinates":[[[-2.75277,51.34363],[-2.75229,51.34372],[-2.75216,51.34365],[-2.75183,51.34396],[-2.75163,51.34389],[-2.75155,51.34396],[-2.75142,51.34389],[-2.75133,51.34388],[-2.75154,51.34364],[-2.75168,51.34343],[-2.75191,51.34279],[-2.75234,51.34289],[-2.75245,51.3427],[-2.75286,51.34245],[-2.75295,51.34217],[-2.75294,51.342],[-2.75288,51.34188],[-2.75307,51.34176],[-2.75329,51.34169],[-2.75361,51.34169],[-2.75372,51.34165],[-2.75386,51.34175],[-2.75396,51.34196],[-2.75428,51.34202],[-2.75433,51.34206],[-2.75471,51.34217],[-2.75541,51.34242],[-2.75553,51.34242],[-2.7559,51.34224],[-2.75597,51.34225],[-2.7556,51.3426],[-2.75489,51.34339],[-2.754,51.34415],[-2.75396,51.34414],[-2.75396,51.34409],[-2.75363,51.34395],[-2.7531,51.34379],[-2.75303,51.34373],[-2.75277,51.34363]]]}},{"type":"Feature","properties":{"Descrip":"Access Land - Combined Open Country, Registered Common Land and Section 16 Dedicated Land. MoD Byelaw, Section 28 Exclusions, Racecourses and Aerodromes and ECP Margin have been removed.","OC":"No","RCL":"Yes","S16":"No","Map_Area":3,"Version":"v52"},"geometry":{"type":"Polygon","coordinates":[[[-2.75446,51.3461],[-2.75432,51.34607],[-2.75429,51.34592],[-2.75393,51.34539],[-2.75385,51.3452],[-2.75343,51.34471],[-2.75345,51.34468],[-2.75412,51.3442],[-2.75456,51.34384],[-2.755,51.34342],[-2.75561,51.34276],[-2.75583,51.34284],[-2.75662,51.34325],[-2.75707,51.34331],[-2.75741,51.34378],[-2.75778,51.3444],[-2.75768,51.34458],[-2.75737,51.3445],[-2.75717,51.34475],[-2.75683,51.34502],[-2.75661,51.34511],[-2.75595,51.3453],[-2.75565,51.34545],[-2.75505,51.34582],[-2.75479,51.34604],[-2.75467,51.34619],[-2.75446,51.3461]]]}}]}