{"type":"FeatureCollection","features":[{"type":"Feature","properties":{"Incid":"NSOM0057","Prihabtxt":"Traditional Orchard","Habdefver":"v2.6","PriDet":"Priority Traditional Orchard habitat may be present but evidence is either insufficient to determine presence confidently or is in the oldest allowable category","InterQual":"3 (Medium)","S1GroundSv":"Not done","S2OrchQues":"Not done","S3API_date":1149811200000,"S3Boundary":"Primary","S3Habid":"Primary","S3Status":"Active management","S3Planting":"Young trees in gaps","S3Metadata":"0609_1104, Geoperspectives","S4Non_TOP":"None","S5OSMM":"Boundary used","S5Captdate":1098316800000,"S5Boundary":"Secondary","Created_On":1235692800000,"Last_edit":1235692800000,"NonTOcode":"-","Over_50y":"Y","Additional":"Scattered orchard trees in a large garden","Easting":346558.34199863,"Northing":159388.64473027,"Area_Ha":0.42359268271102},"geometry":{"type":"Polygon","coordinates":[[[-2.76911,51.33127],[-2.76887,51.33131],[-2.7686,51.3313],[-2.76861,51.33115],[-2.76849,51.33115],[-2.76849,51.33138],[-2.7681,51.33137],[-2.76811,51.33139],[-2.76781,51.3314],[-2.76785,51.331],[-2.76858,51.33095],[-2.76858,51.33074],[-2.76897,51.33075],[-2.76904,51.33078],[-2.76911,51.33127]]]}},{"type":"Feature","properties":{"Incid":"NSOM0058","Prihabtxt":"Traditional Orchard","Habdefver":"v2.6","PriDet":"Priority Traditional Orchard habitat may be present but evidence is either insufficient to determine presence confidently or is in the oldest allowable category","InterQual":"1 (High)","HabCon":"Poor","S1GroundSv":"Not done","S2OrchQues":"Done","S2Captdate":1273536000000,"S2Habid":"Primary","S2Status":"Active management","S2Planting":"No young trees","S3API_date":1149811200000,"S3Boundary":"Primary","S3Habid":"Secondary","S3Status":"Active management","S3Planting":"Young orchard","S3Metadata":"0609_1104, Geoperspectives","S4Non_TOP":"None","S5OSMM":"Boundary used","S5Captdate":1098316800000,"S5Boundary":"Secondary","Created_On":1235692800000,"Last_edit":1273536000000,"NonTOcode":"-","Over_50y":"Y","Additional":"Variety info at PTES. Sometimes apples sent for cider","Apple":"Y","Vet_31_100":"Y","Grazed":"Y","Sheep":"Y","Easting":347944.00696728,"Northing":159569.11307175,"Area_Ha":0.79644127757897},"geometry":{"type":"Polygon","coordinates":[[[-2.74902,51.33228],[-2.7494,51.33297],[-2.74823,51.33335],[-2.74799,51.33303],[-2.74779,51.33263],[-2.74902,51.33228]]]}},{"type":"Feature","properties":{"Incid":"NSOM0059","Prihabtxt":"Traditional Orchard","Habdefver":"v2.6","PriDet":"Priority Traditional Orchard habitat may be present but evidence is either insufficient to determine presence confidently or is in the oldest allowable category","InterQual":"1 (High)","S1GroundSv":"Not done","S2OrchQues":"Not done","S3API_date":1149811200000,"S3Boundary":"Primary","S3Habid":"Primary","S3Status":"Unmanaged","S3Planting":"No young trees","S3Metadata":"0609_1104, Geoperspectives","S4Non_TOP":"None","S5OSMM":"Boundary used","S5Captdate":1141862400000,"S5Boundary":"Secondary","Created_On":1235692800000,"Last_edit":1235692800000,"NonTOcode":"-","Over_50y":"Y","Additional":"Old garden orchard?","Easting":348514.04575663,"Northing":159495.68409057,"Area_Ha":0.11938347475018},"geometry":{"type":"Polygon","coordinates":[[[-2.7407,51.33217],[-2.74038,51.33247],[-2.7401,51.3322],[-2.7402,51.33212],[-2.74021,51.332],[-2.74026,51.33194],[-2.7407,51.33217]]]}},{"type":"Feature","properties":{"Incid":"NSOM0060","Prihabtxt":"Traditional Orchard","Habdefver":"v2.6","PriDet":"Priority Traditional Orchard habitat may be present but evidence is either insufficient to determine presence confidently or is in the oldest allowable category","InterQual":"3 (Medium)","S1GroundSv":"Not done","S2OrchQues":"Not done","S3API_date":1149811200000,"S3Boundary":"Primary","S3Habid":"Primary","S3Status":"Unmanaged","S3Planting":"No young trees","S3Metadata":"0609_1104, Geoperspectives","S4Non_TOP":"None","S5OSMM":"Boundary used","S5Captdate":1141862400000,"S5Boundary":"Secondary","Created_On":1235692800000,"Last_edit":1235692800000,"NonTOcode":"-","Over_50y":"Y","Additional":"Old garden orchard?","Easting":348585.57990674,"Northing":159436.13113743,"Area_Ha":0.39743277750406},"geometry":{"type":"Polygon","coordinates":[[[-2.73953,51.33214],[-2.73946,51.33206],[-2.73941,51.33208],[-2.73929,51.33189],[-2.73915,51.33177],[-2.73893,51.33184],[-2.73883,51.33175],[-2.73884,51.33167],[-2.73904,51.33166],[-2.73901,51.33122],[-2.7397,51.33131],[-2.73983,51.33156],[-2.73962,51.33156],[-2.73958,51.33158],[-2.73958,51.33166],[-2.73979,51.33169],[-2.7399,51.33167],[-2.73973,51.33195],[-2.73953,51.33214]],[[-2.73944,51.33203],[-2.73949,51.33201],[-2.73939,51.3319],[-2.73934,51.33191],[-2.73944,51.33203]]]}},{"type":"Feature","properties":{"Incid":"NSOM0061","Prihabtxt":"Traditional Orchard","Habdefver":"v2.6","PriDet":"Priority Traditional Orchard habitat may be present but evidence is either insufficient to determine presence confidently or is in the oldest allowable category","InterQual":"3 (Medium)","S1GroundSv":"Not done","S2OrchQues":"Not done","S3API_date":1149811200000,"S3Boundary":"Primary","S3Habid":"Primary","S3Status":"Part-managed","S3Planting":"Young trees in gaps","S3Metadata":"0609_1104, Geoperspectives","S4Non_TOP":"None","S5OSMM":"Boundary used","S5Captdate":1141862400000,"S5Boundary":"Secondary","Created_On":1235692800000,"Last_edit":1235692800000,"NonTOcode":"-","Over_50y":"Y","Additional":"Young scattered trees","Easting":348531.73141269,"Northing":159552.03795945,"Area_Ha":0.4701544346224},"geometry":{"type":"Polygon","coordinates":[[[-2.7401,51.3322],[-2.74076,51.33284],[-2.7408,51.333],[-2.74078,51.33317],[-2.74062,51.33317],[-2.74051,51.33323],[-2.74051,51.33318],[-2.74046,51.33311],[-2.74018,51.33304],[-2.74009,51.33297],[-2.74001,51.33283],[-2.73987,51.33273],[-2.73963,51.33265],[-2.7395,51.33256],[-2.7401,51.3322]]]}},{"type":"Feature","properties":{"Incid":"NSOM0087","Prihabtxt":"Traditional Orchard","Habdefver":"v2.6","PriDet":"Priority Traditional Orchard habitat may be present but evidence is either insufficient to determine presence confidently or is in the oldest allowable category","InterQual":"1 (High)","S1GroundSv":"Not done","S2OrchQues":"Not done","S3API_date":1149811200000,"S3Boundary":"Primary","S3Habid":"Primary","S3Status":"Active management","S3Planting":"No young trees","S3Metadata":"0609_1046, Geoperspectives","S4Non_TOP":"None","S5OSMM":"Boundary used","S5Captdate":1134345600000,"S5Boundary":"Secondary","Created_On":1235692800000,"Last_edit":1235692800000,"NonTOcode":"-","Over_50y":"N","Additional":"Mature cherry?","Easting":345663.81882965,"Northing":159678.42178245,"Area_Ha":0.47929082540138},"geometry":{"type":"Polygon","coordinates":[[[-2.78122,51.33318],[-2.78167,51.33371],[-2.78182,51.33398],[-2.78177,51.33405],[-2.78105,51.3341],[-2.7809,51.33366],[-2.78086,51.33327],[-2.78093,51.33308],[-2.78111,51.33309],[-2.78122,51.33318]]]}},{"type":"Feature","properties":{"Incid":"NSOM0131","Prihabtxt":"Traditional Orchard","Habdefver":"v2.6","PriDet":"Priority Traditional Orchard habitat may be present but evidence is either insufficient to determine presence confidently or is in the oldest allowable category","InterQual":"3 (Medium)","S1GroundSv":"Not done","S2OrchQues":"Not done","S3API_date":1149811200000,"S3Boundary":"Primary","S3Habid":"Primary","S3Status":"Unmanaged","S3Planting":"Young trees in gaps","S3Metadata":"0609_1104, Geoperspectives","S4Non_TOP":"None","S5OSMM":"Boundary used","S5Captdate":1141862400000,"S5Boundary":"Secondary","Created_On":1235692800000,"Last_edit":1235692800000,"NonTOcode":"-","Over_50y":"N","Additional":"Could be a small orchard","Easting":348087.36384464,"Northing":159055.15019209,"Area_Ha":0.084195834110392},"geometry":{"type":"Polygon","coordinates":[[[-2.74669,51.3283],[-2.74654,51.3283],[-2.74655,51.32839],[-2.74633,51.32839],[-2.74623,51.32818],[-2.74629,51.32814],[-2.74628,51.3281],[-2.74648,51.32806],[-2.74646,51.32803],[-2.74653,51.32801],[-2.74669,51.3283]]]}},{"type":"Feature","properties":{"Incid":"NSOM0132","Prihabtxt":"Traditional Orchard","Habdefver":"v2.6","PriDet":"Priority Traditional Orchard habitat may be present but evidence is either insufficient to determine presence confidently or is in the oldest allowable category","InterQual":"3 (Medium)","S1GroundSv":"Not done","S2OrchQues":"Not done","S3API_date":1149811200000,"S3Boundary":"Primary","S3Habid":"Primary","S3Status":"Part-managed","S3Planting":"No young trees","S3Metadata":"0609_1104, Geoperspectives","S4Non_TOP":"None","S5OSMM":"Boundary used","S5Captdate":1098316800000,"S5Boundary":"Secondary","Created_On":1235692800000,"Last_edit":1235692800000,"NonTOcode":"-","Over_50y":"Y","Additional":"OS marked as orchard but looks like secondary scrub","Easting":347927.31071855,"Northing":158992.64808313,"Area_Ha":0.39412472381369},"geometry":{"type":"Polygon","coordinates":[[[-2.74956,51.3275],[-2.74929,51.32767],[-2.74923,51.32767],[-2.74923,51.32771],[-2.74854,51.32784],[-2.74797,51.32783],[-2.74793,51.32741],[-2.74834,51.3274],[-2.74845,51.32727],[-2.74856,51.32727],[-2.74858,51.32732],[-2.74851,51.32739],[-2.74854,51.32745],[-2.74853,51.32753],[-2.74833,51.32762],[-2.74834,51.32766],[-2.74842,51.32769],[-2.74865,51.32761],[-2.74872,51.32763],[-2.74904,51.32757],[-2.74907,51.32753],[-2.74905,51.32748],[-2.74894,51.32749],[-2.7489,51.32742],[-2.74893,51.32739],[-2.74913,51.32735],[-2.74921,51.32724],[-2.74935,51.32732],[-2.74956,51.3275]]]}},{"type":"Feature","properties":{"Incid":"NSOM0133","Prihabtxt":"Traditional Orchard","Habdefver":"v2.6","PriDet":"Priority Traditional Orchard habitat may be present but evidence is either insufficient to determine presence confidently or is in the oldest allowable category","InterQual":"3 (Medium)","S1GroundSv":"Not done","S2OrchQues":"Not done","S3API_date":1149811200000,"S3Boundary":"Primary","S3Habid":"Primary","S3Status":"Part-managed","S3Planting":"No young trees","S3Metadata":"0609_1046, Geoperspectives","S4Non_TOP":"None","S5OSMM":"Boundary used","S5Captdate":1134345600000,"S5Boundary":"Secondary","Created_On":1235692800000,"Last_edit":1235692800000,"NonTOcode":"-","Over_50y":"Y","Additional":"Remnant","Easting":345916.58766782,"Northing":159307.04808707,"Area_Ha":0.078038597393236},"geometry":{"type":"MultiPolygon","coordinates":[[[[-2.77789,51.33022],[-2.77777,51.33034],[-2.77745,51.33037],[-2.77741,51.33034],[-2.77747,51.33029],[-2.77764,51.33027],[-2.77769,51.33021],[-2.77784,51.33017],[-2.77789,51.33022]]],[[[-2.7773,51.33027],[-2.77716,51.3302],[-2.7773,51.33015],[-2.77737,51.33022],[-2.7773,51.33027]]],[[[-2.77678,51.3304],[-2.77657,51.33039],[-2.77657,51.33032],[-2.77678,51.33021],[-2.77692,51.33025],[-2.77678,51.3304]]]]}},{"type":"Feature","properties":{"Incid":"NSOM0153","Prihabtxt":"Traditional Orchard","Habdefver":"v2.6","PriDet":"Priority Traditional Orchard habitat may be present but evidence is either insufficient to determine presence confidently or is in the oldest allowable category","InterQual":"3 (Medium)","S1GroundSv":"Not done","S2OrchQues":"Not done","S3API_date":1117152000000,"S3Boundary":"Primary","S3Habid":"Primary","S3Status":"Part-managed","S3Planting":"No young trees","S3Metadata":"AF/05C/575, OSGB/UKPerspectives","S4Non_TOP":"None","S5OSMM":"Boundary used","S5Captdate":1121731200000,"S5Boundary":"Secondary","Created_On":1235952000000,"Last_edit":1235952000000,"NonTOcode":"-","Over_50y":"Y","Additional":"Remnant?","Easting":346400.84484147,"Northing":161431.46997763,"Area_Ha":0.25241096360908},"geometry":{"type":"Polygon","coordinates":[[[-2.77075,51.34967],[-2.7705,51.34964],[-2.77054,51.34952],[-2.77066,51.34937],[-2.7709,51.3493],[-2.77103,51.34919],[-2.77122,51.34921],[-2.77134,51.34936],[-2.77148,51.3494],[-2.77155,51.34954],[-2.77142,51.34962],[-2.77075,51.34967]]]}},{"type":"Feature","properties":{"Incid":"NSOM0156","Prihabtxt":"Traditional Orchard","Habdefver":"v2.6","PriDet":"Priority Traditional Orchard habitat may be present but evidence is either insufficient to determine presence confidently or is in the oldest allowable category","InterQual":"1 (High)","S1GroundSv":"Not done","S2OrchQues":"Not done","S3API_date":1149811200000,"S3Boundary":"Primary","S3Habid":"Primary","S3Status":"Active management","S3Planting":"Young trees in gaps","S3Metadata":"0609_1046, Geoperspectives","S4Non_TOP":"None","S5OSMM":"Boundary used","S5Captdate":1134259200000,"S5Boundary":"Secondary","Created_On":1235952000000,"Last_edit":1235952000000,"NonTOcode":"-","Over_50y":"Y","Additional":"Small orchard","Easting":346327.75237481,"Northing":160762.81137916,"Area_Ha":0.078447780680143},"geometry":{"type":"Polygon","coordinates":[[[-2.7718,51.34339],[-2.77179,51.34326],[-2.77196,51.34326],[-2.77195,51.34324],[-2.77208,51.34322],[-2.77215,51.34355],[-2.77181,51.34358],[-2.7718,51.34339]]]}},{"type":"Feature","properties":{"Incid":"NSOM0157","Prihabtxt":"Traditional Orchard","Habdefver":"v2.6","PriDet":"Priority Traditional Orchard habitat may be present but evidence is either insufficient to determine presence confidently or is in the oldest allowable category","InterQual":"3 (Medium)","S1GroundSv":"Not done","S2OrchQues":"Not done","S3API_date":1149811200000,"S3Boundary":"Primary","S3Habid":"Primary","S3Status":"Part-managed","S3Planting":"Young trees in gaps","S3Metadata":"0609_1046, Geoperspectives","S4Non_TOP":"None","S5OSMM":"Boundary used","S5Captdate":1134259200000,"S5Boundary":"Secondary","Created_On":1235952000000,"Last_edit":1235952000000,"NonTOcode":"-","Over_50y":"N","Additional":"Orchard?","Easting":346782.36855381,"Northing":160578.88402782,"Area_Ha":0.096772031867374},"geometry":{"type":"Polygon","coordinates":[[[-2.76542,51.34164],[-2.76567,51.34163],[-2.76571,51.34194],[-2.76513,51.34185],[-2.76528,51.34165],[-2.76542,51.34164]]]}},{"type":"Feature","properties":{"Incid":"NSOM0158","Prihabtxt":"Traditional Orchard","Habdefver":"v2.6","PriDet":"Priority Traditional Orchard habitat may be present but evidence is either insufficient to determine presence confidently or is in the oldest allowable category","InterQual":"3 (Medium)","S1GroundSv":"Not done","S2OrchQues":"Not done","S3API_date":1149811200000,"S3Boundary":"Primary","S3Habid":"Primary","S3Status":"Part-managed","S3Planting":"Young orchard","S3Metadata":"0609_1046, Geoperspectives","S4Non_TOP":"None","S5OSMM":"Boundary used","S5Captdate":1134259200000,"S5Boundary":"Secondary","Created_On":1235952000000,"Last_edit":1235952000000,"NonTOcode":"-","Over_50y":"N","Additional":"Orchard?","Easting":346632.16003067,"Northing":160456.98891993,"Area_Ha":0.22032838110301},"geometry":{"type":"Polygon","coordinates":[[[-2.76814,51.34055],[-2.76793,51.34062],[-2.7677,51.34062],[-2.76762,51.34076],[-2.76768,51.34104],[-2.76755,51.34105],[-2.76737,51.34034],[-2.76741,51.34034],[-2.76741,51.34031],[-2.76808,51.34031],[-2.76814,51.34055]]]}},{"type":"Feature","properties":{"Incid":"NSOM0159","Prihabtxt":"Traditional Orchard","Habdefver":"v2.6","PriDet":"Priority Traditional Orchard habitat may be present but evidence is either insufficient to determine presence confidently or is in the oldest allowable category","InterQual":"3 (Medium)","S1GroundSv":"Not done","S2OrchQues":"Not done","S3API_date":1149811200000,"S3Boundary":"Primary","S3Habid":"Primary","S3Status":"Part-managed","S3Planting":"No young trees","S3Metadata":"0609_1046, Geoperspectives","S4Non_TOP":"None","S5OSMM":"Boundary used","S5Captdate":1121731200000,"S5Boundary":"Secondary","Created_On":1235952000000,"Last_edit":1235952000000,"NonTOcode":"-","Over_50y":"Y","Additional":"Gappy orchard?","Easting":345424.22559911,"Northing":160603.49698243,"Area_Ha":0.33875506469512},"geometry":{"type":"Polygon","coordinates":[[[-2.78518,51.34176],[-2.78542,51.34225],[-2.78483,51.34234],[-2.78441,51.34147],[-2.78477,51.34142],[-2.78481,51.34154],[-2.78477,51.34154],[-2.78479,51.34159],[-2.78483,51.34158],[-2.78486,51.34167],[-2.78481,51.34168],[-2.78483,51.34171],[-2.78487,51.34171],[-2.78492,51.3418],[-2.78495,51.34179],[-2.78497,51.34183],[-2.78502,51.34184],[-2.78508,51.34183],[-2.78506,51.34179],[-2.78518,51.34176]],[[-2.78472,51.34144],[-2.78468,51.34144],[-2.7847,51.34148],[-2.78473,51.34147],[-2.78472,51.34144]]]}},{"type":"Feature","properties":{"Incid":"NSOM0160","Prihabtxt":"Traditional Orchard","Habdefver":"v2.6","PriDet":"Priority Traditional Orchard habitat may be present but evidence is either insufficient to determine presence confidently or is in the oldest allowable category","InterQual":"1 (High)","S1GroundSv":"Not done","S2OrchQues":"Not done","S3API_date":1149811200000,"S3Boundary":"Primary","S3Habid":"Primary","S3Status":"Part-managed","S3Planting":"No young trees","S3Metadata":"0609_1046, Geoperspectives","S4Non_TOP":"None","S5OSMM":"Boundary used","S5Captdate":1134345600000,"S5Boundary":"Secondary","Created_On":1235952000000,"Last_edit":1235952000000,"NonTOcode":"-","Over_50y":"Y","Additional":"Gappy orchard","Easting":345382.83539238,"Northing":160048.39587847,"Area_Ha":0.45071178782469},"geometry":{"type":"Polygon","coordinates":[[[-2.78628,51.33669],[-2.78616,51.33673],[-2.78611,51.33682],[-2.786,51.33686],[-2.78547,51.33701],[-2.78535,51.33696],[-2.78525,51.33698],[-2.78501,51.33716],[-2.7847,51.33727],[-2.78451,51.33712],[-2.78411,51.33721],[-2.78404,51.33713],[-2.78591,51.33653],[-2.78611,51.33656],[-2.78628,51.33669]]]}},{"type":"Feature","properties":{"Incid":"NSOM0202","Prihabtxt":"Traditional Orchard","Habdefver":"v2.6","PriDet":"Priority Traditional Orchard habitat may be present but evidence is either insufficient to determine presence confidently or is in the oldest allowable category","InterQual":"3 (Medium)","S1GroundSv":"Not done","S2OrchQues":"Not done","S3API_date":1149811200000,"S3Boundary":"Primary","S3Habid":"Primary","S3Status":"Unmanaged","S3Planting":"No young trees","S3Metadata":"0609_1029, Geoperspectives","S4Non_TOP":"None","S5OSMM":"Boundary used","S5Captdate":1121644800000,"S5Boundary":"Secondary","Created_On":1235952000000,"Last_edit":1235952000000,"NonTOcode":"-","Over_50y":"Y","Additional":"Orchard?","Easting":343268.9418921,"Northing":161307.47547069,"Area_Ha":0.18567198099226},"geometry":{"type":"Polygon","coordinates":[[[-2.81605,51.34778],[-2.81649,51.3479],[-2.81653,51.348],[-2.8158,51.34821],[-2.8156,51.34822],[-2.81541,51.34818],[-2.81605,51.34778]]]}},{"type":"Feature","properties":{"Incid":"NSOM0203","Prihabtxt":"Traditional Orchard","Habdefver":"v2.6","PriDet":"Priority Traditional Orchard habitat may be present but evidence is either insufficient to determine presence confidently or is in the oldest allowable category","InterQual":"3 (Medium)","S1GroundSv":"Not done","S2OrchQues":"Not done","S3API_date":1117152000000,"S3Boundary":"Primary","S3Habid":"Primary","S3Status":"Unmanaged","S3Planting":"No young trees","S3Metadata":"AF/05C/575, OSGB/UKPerspectives","S4Non_TOP":"None","S5OSMM":"Boundary used","S5Captdate":1121644800000,"S5Boundary":"Secondary","Created_On":1235952000000,"Last_edit":1235952000000,"NonTOcode":"-","Over_50y":"Y","Additional":"Overgrown orchard?","Easting":344173.10353751,"Northing":161101.75435774,"Area_Ha":0.090621351227172},"geometry":{"type":"Polygon","coordinates":[[[-2.80309,51.34652],[-2.80294,51.34653],[-2.80288,51.34649],[-2.80282,51.34595],[-2.803,51.34597],[-2.80309,51.34652]]]}},{"type":"Feature","properties":{"Incid":"NSOM0204","Prihabtxt":"Traditional Orchard","Habdefver":"v2.6","PriDet":"Priority Traditional Orchard habitat may be present but evidence is either insufficient to determine presence confidently or is in the oldest allowable category","InterQual":"1 (High)","S1GroundSv":"Not done","S2OrchQues":"Not done","S3API_date":1149811200000,"S3Boundary":"Primary","S3Habid":"Primary","S3Status":"Unmanaged","S3Planting":"No young trees","S3Metadata":"0609_1029, Geoperspectives","S4Non_TOP":"None","S5OSMM":"Boundary used","S5Captdate":1121644800000,"S5Boundary":"Secondary","Created_On":1235952000000,"Last_edit":1235952000000,"NonTOcode":"-","Over_50y":"N","Additional":"Overgrown orchard","Easting":342602.50184836,"Northing":160395.35656201,"Area_Ha":0.51749059463906},"geometry":{"type":"Polygon","coordinates":[[[-2.82595,51.33931],[-2.8262,51.33973],[-2.82549,51.34],[-2.82501,51.34015],[-2.82457,51.33981],[-2.82546,51.33946],[-2.82595,51.33931]]]}},{"type":"Feature","properties":{"Incid":"NSOM0205","Prihabtxt":"Traditional Orchard","Habdefver":"v2.6","PriDet":"Priority Traditional Orchard habitat may be present but evidence is either insufficient to determine presence confidently or is in the oldest allowable category","InterQual":"3 (Medium)","S1GroundSv":"Not done","S2OrchQues":"Not done","S3API_date":1149811200000,"S3Boundary":"Primary","S3Habid":"Primary","S3Status":"Part-managed","S3Planting":"No young trees","S3Metadata":"0609_1029, Geoperspectives","S4Non_TOP":"None","S5OSMM":"Boundary used","S5Captdate":1121644800000,"S5Boundary":"Secondary","Created_On":1235952000000,"Last_edit":1235952000000,"NonTOcode":"-","Over_50y":"Y","Additional":"Grazed orchard","Easting":343626.69509328,"Northing":160237.66170169,"Area_Ha":0.44361427606049},"geometry":{"type":"Polygon","coordinates":[[[-2.81099,51.33877],[-2.81063,51.33875],[-2.80999,51.3386],[-2.81018,51.3383],[-2.81036,51.33833],[-2.8105,51.33827],[-2.81058,51.33821],[-2.81057,51.33812],[-2.81061,51.33806],[-2.81103,51.33814],[-2.81134,51.33858],[-2.81099,51.33877]]]}},{"type":"Feature","properties":{"Incid":"NSOM0206","Prihabtxt":"Traditional Orchard","Habdefver":"v2.6","PriDet":"Priority Traditional Orchard habitat may be present but evidence is either insufficient to determine presence confidently or is in the oldest allowable category","InterQual":"3 (Medium)","S1GroundSv":"Not done","S2OrchQues":"Not done","S3API_date":1149811200000,"S3Boundary":"Primary","S3Habid":"Primary","S3Status":"Part-managed","S3Planting":"No young trees","S3Metadata":"0609_1029, Geoperspectives","S4Non_TOP":"None","S5OSMM":"Boundary used","S5Captdate":1121644800000,"S5Boundary":"Secondary","Created_On":1235952000000,"Last_edit":1235952000000,"NonTOcode":"-","Over_50y":"Y","Additional":"Grazed orchard","Easting":343721.87607863,"Northing":160132.111915,"Area_Ha":0.47329290739037},"geometry":{"type":"Polygon","coordinates":[[[-2.80866,51.33772],[-2.80876,51.33749],[-2.80892,51.33744],[-2.8089,51.33739],[-2.8088,51.33737],[-2.80879,51.33731],[-2.80881,51.33724],[-2.80897,51.33727],[-2.80892,51.33732],[-2.80907,51.33734],[-2.80921,51.33721],[-2.80932,51.33723],[-2.80948,51.33711],[-2.81005,51.33725],[-2.80968,51.33768],[-2.80948,51.3378],[-2.80925,51.33784],[-2.80866,51.33772]]]}},{"type":"Feature","properties":{"Incid":"NSOM0207","Prihabtxt":"Traditional Orchard","Habdefver":"v2.6","PriDet":"Priority Traditional Orchard habitat may be present but evidence is either insufficient to determine presence confidently or is in the oldest allowable category","InterQual":"1 (High)","S1GroundSv":"Not done","S2OrchQues":"Not done","S3API_date":1149811200000,"S3Boundary":"Primary","S3Habid":"Primary","S3Status":"Unmanaged","S3Planting":"No young trees","S3Metadata":"0609_1029, Geoperspectives","S4Non_TOP":"None","S5OSMM":"Boundary used","S5Captdate":1121644800000,"S5Boundary":"Secondary","Created_On":1235952000000,"Last_edit":1235952000000,"NonTOcode":"-","Over_50y":"Y","Additional":"Orchard or scrub?","Easting":342088.02652577,"Northing":160144.3384152,"Area_Ha":2.3995017461574},"geometry":{"type":"Polygon","coordinates":[[[-2.83224,51.33796],[-2.83208,51.33792],[-2.83206,51.33801],[-2.8312,51.33822],[-2.83086,51.33826],[-2.83085,51.33801],[-2.83069,51.33749],[-2.83278,51.33701],[-2.83436,51.33659],[-2.83458,51.33689],[-2.83462,51.33696],[-2.83456,51.33697],[-2.83459,51.33702],[-2.83464,51.33701],[-2.83477,51.33731],[-2.83224,51.33796]]]}},{"type":"Feature","properties":{"Incid":"NSOM0208","Prihabtxt":"Traditional Orchard","Habdefver":"v2.6","PriDet":"Priority Traditional Orchard habitat may be present but evidence is either insufficient to determine presence confidently or is in the oldest allowable category","InterQual":"1 (High)","S1GroundSv":"Not done","S2OrchQues":"Not done","S3API_date":1149811200000,"S3Boundary":"Primary","S3Habid":"Primary","S3Status":"Unmanaged","S3Planting":"No young trees","S3Metadata":"0609_1029, Geoperspectives","S4Non_TOP":"None","S5OSMM":"Boundary used","S5Captdate":1121644800000,"S5Boundary":"Secondary","Created_On":1235952000000,"Last_edit":1235952000000,"NonTOcode":"-","Over_50y":"N","Additional":"Orchard?","Easting":341913.19000512,"Northing":160004.65839819,"Area_Ha":0.40685853275864},"geometry":{"type":"Polygon","coordinates":[[[-2.83458,51.33647],[-2.83441,51.33612],[-2.83591,51.33582],[-2.83603,51.3361],[-2.83601,51.33616],[-2.83458,51.33647]],[[-2.83473,51.33644],[-2.83471,51.33639],[-2.8346,51.33641],[-2.83462,51.33646],[-2.83473,51.33644]],[[-2.83517,51.33633],[-2.83514,51.33627],[-2.83499,51.33631],[-2.83502,51.33637],[-2.83517,51.33633]],[[-2.83494,51.33632],[-2.83485,51.33635],[-2.83487,51.33638],[-2.83496,51.33636],[-2.83494,51.33632]],[[-2.83499,51.33631],[-2.83495,51.33632],[-2.83499,51.33638],[-2.83502,51.33637],[-2.83499,51.33631]]]}},{"type":"Feature","properties":{"Incid":"NSOM0209","Prihabtxt":"Traditional Orchard","Habdefver":"v2.6","PriDet":"Priority Traditional Orchard habitat may be present but evidence is either insufficient to determine presence confidently or is in the oldest allowable category","InterQual":"1 (High)","S1GroundSv":"Not done","S2OrchQues":"Not done","S3API_date":1149811200000,"S3Boundary":"Primary","S3Habid":"Primary","S3Status":"Active management","S3Planting":"Young trees in gaps","S3Metadata":"0609_1029, Geoperspectives","S4Non_TOP":"None","S5OSMM":"Boundary used","S5Captdate":1098316800000,"S5Boundary":"Secondary","Created_On":1235692800000,"Last_edit":1235692800000,"NonTOcode":"-","Over_50y":"Y","Additional":"Grazed orchard with recent planting","Easting":341563.24487681,"Northing":159780.94243622,"Area_Ha":0.31515490597124},"geometry":{"type":"Polygon","coordinates":[[[-2.84044,51.33411],[-2.84062,51.33426],[-2.8398,51.33462],[-2.83982,51.33359],[-2.84044,51.33411]]]}},{"type":"Feature","properties":{"Incid":"NSOM0210","Prihabtxt":"Traditional Orchard","Habdefver":"v2.6","PriDet":"Priority Traditional Orchard habitat may be present but evidence is either insufficient to determine presence confidently or is in the oldest allowable category","InterQual":"1 (High)","S1GroundSv":"Not done","S2OrchQues":"Not done","S3API_date":1149811200000,"S3Boundary":"Primary","S3Habid":"Primary","S3Status":"Active management","S3Planting":"Young orchard","S3Metadata":"0609_1029, Geoperspectives","S4Non_TOP":"None","S5OSMM":"Boundary used","S5Captdate":1098316800000,"S5Boundary":"Secondary","Created_On":1235692800000,"Last_edit":1235692800000,"NonTOcode":"-","Over_50y":"N","Additional":"Small garden orchard?","Easting":341742.607936,"Northing":159643.90166373,"Area_Ha":0.054671247324247},"geometry":{"type":"Polygon","coordinates":[[[-2.83752,51.33299],[-2.83737,51.3328],[-2.83764,51.33276],[-2.83785,51.33301],[-2.83752,51.33299]]]}},{"type":"Feature","properties":{"Incid":"NSOM0211","Prihabtxt":"Traditional Orchard","Habdefver":"v2.6","PriDet":"Priority Traditional Orchard habitat may be present but evidence is either insufficient to determine presence confidently or is in the oldest allowable category","InterQual":"3 (Medium)","S1GroundSv":"Not done","S2OrchQues":"Not done","S3API_date":1149811200000,"S3Boundary":"Primary","S3Habid":"Primary","S3Status":"Unmanaged","S3Planting":"No young trees","S3Metadata":"0609_1029, Geoperspectives","S4Non_TOP":"None","S5OSMM":"Boundary used","S5Captdate":1098316800000,"S5Boundary":"Secondary","Created_On":1235692800000,"Last_edit":1235692800000,"NonTOcode":"-","Over_50y":"Y","Additional":"Small orchard","Easting":341903.58450894,"Northing":159497.15366991,"Area_Ha":0.18187986575298},"geometry":{"type":"Polygon","coordinates":[[[-2.83511,51.33182],[-2.83486,51.33148],[-2.8355,51.33135],[-2.83569,51.33167],[-2.83511,51.33182]]]}},{"type":"Feature","properties":{"Incid":"NSOM0212","Prihabtxt":"Traditional Orchard","Habdefver":"v2.6","PriDet":"Priority Traditional Orchard habitat may be present but evidence is either insufficient to determine presence confidently or is in the oldest allowable category","InterQual":"3 (Medium)","S1GroundSv":"Not done","S2OrchQues":"Not done","S3API_date":1149811200000,"S3Boundary":"Primary","S3Habid":"Primary","S3Status":"Part-managed","S3Planting":"No young trees","S3Metadata":"0609_1029, Geoperspectives","S4Non_TOP":"None","S5OSMM":"Boundary used","S5Captdate":1098316800000,"S5Boundary":"Secondary","Created_On":1235692800000,"Last_edit":1235692800000,"NonTOcode":"-","Over_50y":"Y","Additional":"Grazed orchard, remnant","Easting":341960.6320867,"Northing":159475.82977381,"Area_Ha":0.50395150629863},"geometry":{"type":"Polygon","coordinates":[[[-2.83511,51.33182],[-2.83463,51.33198],[-2.8338,51.33103],[-2.83428,51.33082],[-2.83468,51.33125],[-2.83511,51.33182]]]}},{"type":"Feature","properties":{"Incid":"NSOM0213","Prihabtxt":"Traditional Orchard","Habdefver":"v2.6","PriDet":"Priority Traditional Orchard habitat may be present but evidence is either insufficient to determine presence confidently or is in the oldest allowable category","InterQual":"3 (Medium)","S1GroundSv":"Not done","S2OrchQues":"Not done","S3API_date":1149811200000,"S3Boundary":"Primary","S3Habid":"Primary","S3Status":"Part-managed","S3Planting":"No young trees","S3Metadata":"0609_1029, Geoperspectives","S4Non_TOP":"None","S5OSMM":"Boundary used","S5Captdate":1098316800000,"S5Boundary":"Secondary","Created_On":1235692800000,"Last_edit":1235692800000,"NonTOcode":"-","Over_50y":"N","Additional":"Orchard?","Easting":341881.59493098,"Northing":159561.93512641,"Area_Ha":0.15709724561558},"geometry":{"type":"Polygon","coordinates":[[[-2.83587,51.3322],[-2.8358,51.33228],[-2.8357,51.33231],[-2.83573,51.33244],[-2.83551,51.33246],[-2.83546,51.3322],[-2.83535,51.33215],[-2.83529,51.33207],[-2.83549,51.33191],[-2.83561,51.33187],[-2.83575,51.33192],[-2.8358,51.33206],[-2.8359,51.33212],[-2.83587,51.3322]]]}},{"type":"Feature","properties":{"Incid":"NSOM0214","Prihabtxt":"Traditional Orchard","Habdefver":"v2.6","PriDet":"Priority Traditional Orchard habitat may be present but evidence is either insufficient to determine presence confidently or is in the oldest allowable category","InterQual":"1 (High)","S1GroundSv":"Not done","S2OrchQues":"Not done","S3API_date":1149811200000,"S3Boundary":"Primary","S3Habid":"Primary","S3Status":"Part-managed","S3Planting":"No young trees","S3Metadata":"0609_1046, Geoperspectives","S4Non_TOP":"None","S5OSMM":"Boundary used","S5Captdate":1098316800000,"S5Boundary":"Secondary","Created_On":1235692800000,"Last_edit":1235692800000,"NonTOcode":"-","Over_50y":"Y","Additional":"Grazed orchard remnant","Easting":342587.77616923,"Northing":159898.06890912,"Area_Ha":0.24201943596121},"geometry":{"type":"Polygon","coordinates":[[[-2.82591,51.33553],[-2.82573,51.33564],[-2.82556,51.33566],[-2.82544,51.3356],[-2.82545,51.3355],[-2.8255,51.33545],[-2.82517,51.33533],[-2.82513,51.33518],[-2.82539,51.33513],[-2.82536,51.33491],[-2.82538,51.33485],[-2.82573,51.33488],[-2.82573,51.33505],[-2.82555,51.33509],[-2.82548,51.33517],[-2.82584,51.33529],[-2.82579,51.33538],[-2.82571,51.33543],[-2.82587,51.33546],[-2.82591,51.33553]]]}},{"type":"Feature","properties":{"Incid":"NSOM0215","Prihabtxt":"Traditional Orchard","Habdefver":"v2.6","PriDet":"Priority Traditional Orchard habitat may be present but evidence is either insufficient to determine presence confidently or is in the oldest allowable category","InterQual":"1 (High)","S1GroundSv":"Not done","S2OrchQues":"Not done","S3API_date":1149811200000,"S3Boundary":"Primary","S3Habid":"Primary","S3Status":"Part-managed","S3Planting":"No young trees","S3Metadata":"0609_1046, Geoperspectives","S4Non_TOP":"None","S5OSMM":"Boundary used","S5Captdate":1098316800000,"S5Boundary":"Secondary","Created_On":1235692800000,"Last_edit":1235692800000,"NonTOcode":"-","Over_50y":"Y","Additional":"Garden Orchard","Easting":342983.25052495,"Northing":159743.71309301,"Area_Ha":0.1342579885592},"geometry":{"type":"Polygon","coordinates":[[[-2.82009,51.33391],[-2.81984,51.33396],[-2.81984,51.33411],[-2.81953,51.33411],[-2.81955,51.33371],[-2.8201,51.33372],[-2.82009,51.33391]]]}},{"type":"Feature","properties":{"Incid":"NSOM0216","Prihabtxt":"Traditional Orchard","Habdefver":"v2.6","PriDet":"Priority Traditional Orchard habitat may be present but evidence is either insufficient to determine presence confidently or is in the oldest allowable category","InterQual":"3 (Medium)","S1GroundSv":"Not done","S2OrchQues":"Not done","S3API_date":1149811200000,"S3Boundary":"Primary","S3Habid":"Primary","S3Status":"Active management","S3Planting":"Young orchard","S3Metadata":"0609_1046, Geoperspectives","S4Non_TOP":"None","S5OSMM":"Boundary used","S5Captdate":1121644800000,"S5Boundary":"Secondary","Created_On":1235692800000,"Last_edit":1235692800000,"NonTOcode":"-","Over_50y":"Y","Additional":"New plantation?","Easting":344047.8363242,"Northing":159981.20511163,"Area_Ha":0.15426666104051},"geometry":{"type":"Polygon","coordinates":[[[-2.80484,51.33635],[-2.80458,51.3363],[-2.80457,51.33634],[-2.8042,51.33625],[-2.80427,51.33607],[-2.8043,51.33608],[-2.80433,51.33595],[-2.80496,51.33606],[-2.80484,51.33635]]]}},{"type":"Feature","properties":{"Incid":"NSOM0217","Prihabtxt":"Traditional Orchard","Habdefver":"v2.6","PriDet":"Priority Traditional Orchard habitat may be present but evidence is either insufficient to determine presence confidently or is in the oldest allowable category","InterQual":"3 (Medium)","S1GroundSv":"Not done","S2OrchQues":"Not done","S3API_date":1149811200000,"S3Boundary":"Primary","S3Habid":"Primary","S3Status":"Part-managed","S3Planting":"No young trees","S3Metadata":"0609_1046, Geoperspectives","S4Non_TOP":"None","S5OSMM":"Boundary used","S5Captdate":1098316800000,"S5Boundary":"Secondary","Created_On":1235692800000,"Last_edit":1235692800000,"NonTOcode":"-","Over_50y":"Y","Additional":"Remnant orchard in hay meadow?","Easting":344184.26735024,"Northing":159913.09460806,"Area_Ha":0.10306880091646},"geometry":{"type":"Polygon","coordinates":[[[-2.80277,51.3358],[-2.80265,51.33578],[-2.80264,51.33566],[-2.80248,51.33561],[-2.80245,51.33558],[-2.80248,51.33547],[-2.80245,51.33544],[-2.80246,51.3354],[-2.80272,51.33536],[-2.80294,51.3354],[-2.80277,51.3358]]]}},{"type":"Feature","properties":{"Incid":"NSOM0218","Prihabtxt":"Traditional Orchard","Habdefver":"v2.6","PriDet":"Priority Traditional Orchard habitat may be present but evidence is either insufficient to determine presence confidently or is in the oldest allowable category","InterQual":"1 (High)","S1GroundSv":"Not done","S2OrchQues":"Not done","S3API_date":1149811200000,"S3Boundary":"Primary","S3Habid":"Primary","S3Status":"Unmanaged","S3Planting":"No young trees","S3Metadata":"0609_1046, Geoperspectives","S4Non_TOP":"None","S5OSMM":"Boundary used","S5Captdate":1098316800000,"S5Boundary":"Secondary","Created_On":1235692800000,"Last_edit":1235692800000,"NonTOcode":"-","Over_50y":"Y","Additional":"Neglected orchard","Easting":344665.3419303,"Northing":159658.78740274,"Area_Ha":0.29899448729873},"geometry":{"type":"Polygon","coordinates":[[[-2.79571,51.33356],[-2.79553,51.33338],[-2.79522,51.3335],[-2.79498,51.33328],[-2.79525,51.33317],[-2.7953,51.33323],[-2.79536,51.3332],[-2.7953,51.33315],[-2.79541,51.3331],[-2.79578,51.33307],[-2.79591,51.33316],[-2.79607,51.3331],[-2.79634,51.33331],[-2.79571,51.33356]]]}},{"type":"Feature","properties":{"Incid":"NSOM0219","Prihabtxt":"Traditional Orchard","Habdefver":"v2.6","PriDet":"Priority Traditional Orchard habitat may be present but evidence is either insufficient to determine presence confidently or is in the oldest allowable category","InterQual":"1 (High)","S1GroundSv":"Not done","S2OrchQues":"Not done","S3API_date":1149811200000,"S3Boundary":"Primary","S3Habid":"Primary","S3Status":"Unmanaged","S3Planting":"No young trees","S3Metadata":"0609_1046, Geoperspectives","S4Non_TOP":"None","S5OSMM":"Boundary used","S5Captdate":1098316800000,"S5Boundary":"Secondary","Created_On":1235692800000,"Last_edit":1235692800000,"NonTOcode":"-","Over_50y":"Y","Additional":"Neglected orchard","Easting":344661.4420164,"Northing":159564.6943366,"Area_Ha":0.27057957296174},"geometry":{"type":"Polygon","coordinates":[[[-2.79627,51.33263],[-2.79596,51.3328],[-2.79591,51.33276],[-2.79577,51.33276],[-2.79556,51.33266],[-2.79545,51.33264],[-2.79535,51.33268],[-2.79522,51.3325],[-2.79514,51.33233],[-2.7952,51.33229],[-2.79516,51.33226],[-2.7953,51.33219],[-2.79533,51.33221],[-2.79545,51.33213],[-2.7958,51.33242],[-2.79627,51.33263]]]}},{"type":"Feature","properties":{"Incid":"NSOM0220","Prihabtxt":"Traditional Orchard","Habdefver":"v2.6","PriDet":"Priority Traditional Orchard habitat may be present but evidence is either insufficient to determine presence confidently or is in the oldest allowable category","InterQual":"3 (Medium)","S1GroundSv":"Not done","S2OrchQues":"Not done","S3API_date":1149811200000,"S3Boundary":"Primary","S3Habid":"Primary","S3Status":"Unmanaged","S3Planting":"No young trees","S3Metadata":"0609_1046, Geoperspectives","S4Non_TOP":"None","S5OSMM":"Boundary used","S5Captdate":1098316800000,"S5Boundary":"Secondary","Created_On":1235692800000,"Last_edit":1235692800000,"NonTOcode":"-","Over_50y":"Y","Additional":"Overgrown orchard or scrub? Mistletoe moth record from 1988.","Easting":344691.59420485,"Northing":159583.39898245,"Area_Ha":0.11685343951668},"geometry":{"type":"Polygon","coordinates":[[[-2.79514,51.33233],[-2.7953,51.33263],[-2.79556,51.33284],[-2.79506,51.33295],[-2.79506,51.33291],[-2.795,51.33286],[-2.79511,51.33244],[-2.79509,51.33233],[-2.79514,51.33233]]]}},{"type":"Feature","properties":{"Incid":"NSOM0221","Prihabtxt":"Traditional Orchard","Habdefver":"v2.6","PriDet":"Priority Traditional Orchard habitat may be present but evidence is either insufficient to determine presence confidently or is in the oldest allowable category","InterQual":"3 (Medium)","S1GroundSv":"Not done","S2OrchQues":"Not done","S3API_date":1149811200000,"S3Boundary":"Primary","S3Habid":"Primary","S3Status":"Active management","S3Planting":"Young orchard","S3Metadata":"0609_1046, Geoperspectives","S4Non_TOP":"None","S5OSMM":"Boundary used","S5Captdate":1098316800000,"S5Boundary":"Secondary","Created_On":1235692800000,"Last_edit":1235692800000,"NonTOcode":"-","Over_50y":"N","Additional":"New plantation?","Easting":344025.34379751,"Northing":159461.2539461,"Area_Ha":0.26818469647138},"geometry":{"type":"Polygon","coordinates":[[[-2.80518,51.3318],[-2.80466,51.33178],[-2.80445,51.33119],[-2.80502,51.33115],[-2.80518,51.3318]]]}},{"type":"Feature","properties":{"Incid":"NSOM0222","Prihabtxt":"Traditional Orchard","Habdefver":"v2.6","PriDet":"Priority Traditional Orchard habitat may be present but evidence is either insufficient to determine presence confidently or is in the oldest allowable category","InterQual":"3 (Medium)","S1GroundSv":"Not done","S2OrchQues":"Not done","S3API_date":1149811200000,"S3Boundary":"Primary","S3Habid":"Primary","S3Status":"Active management","S3Planting":"No young trees","S3Metadata":"0609_1029, Geoperspectives","S4Non_TOP":"None","S5OSMM":"Boundary used","S5Captdate":1098316800000,"S5Boundary":"Secondary","Created_On":1235692800000,"Last_edit":1235692800000,"NonTOcode":"-","Over_50y":"Y","Additional":"Orchard?","Easting":341486.19478082,"Northing":159534.81289007,"Area_Ha":0.30769415594865},"geometry":{"type":"Polygon","coordinates":[[[-2.84173,51.3316],[-2.84153,51.33172],[-2.84158,51.33191],[-2.84169,51.33208],[-2.84168,51.33215],[-2.84125,51.33228],[-2.84081,51.33182],[-2.84156,51.33147],[-2.84173,51.3316]]]}},{"type":"Feature","properties":{"Incid":"NSOM0223","Prihabtxt":"Traditional Orchard","Habdefver":"v2.6","PriDet":"Priority Traditional Orchard habitat may be present but evidence is either insufficient to determine presence confidently or is in the oldest allowable category","InterQual":"3 (Medium)","S1GroundSv":"Not done","S2OrchQues":"Not done","S3API_date":1149811200000,"S3Boundary":"Primary","S3Habid":"Primary","S3Status":"Unmanaged","S3Planting":"No young trees","S3Metadata":"0609_1104, Geoperspectives","S4Non_TOP":"None","S5OSMM":"Boundary used","S5Captdate":1098316800000,"S5Boundary":"Secondary","Created_On":1235692800000,"Last_edit":1235692800000,"NonTOcode":"-","Over_50y":"N","Additional":"Overgrown orchard?","Easting":344077.60923983,"Northing":158973.04369483,"Area_Ha":0.15378946789955},"geometry":{"type":"Polygon","coordinates":[[[-2.80421,51.32707],[-2.80434,51.32726],[-2.80397,51.32736],[-2.80364,51.32694],[-2.80404,51.32682],[-2.80421,51.32707]]]}},{"type":"Feature","properties":{"Incid":"NSOM0224","Prihabtxt":"Traditional Orchard","Habdefver":"v2.6","PriDet":"Priority Traditional Orchard habitat may be present but evidence is either insufficient to determine presence confidently or is in the oldest allowable category","InterQual":"3 (Medium)","S1GroundSv":"Not done","S2OrchQues":"Not done","S3API_date":1149811200000,"S3Boundary":"Primary","S3Habid":"Primary","S3Status":"Unmanaged","S3Planting":"No young trees","S3Metadata":"0609_1046, Geoperspectives","S4Non_TOP":"None","S5OSMM":"Boundary used","S5Captdate":1132876800000,"S5Boundary":"Secondary","Created_On":1235692800000,"Last_edit":1235692800000,"NonTOcode":"-","Over_50y":"N","Additional":"Possible remnant","Easting":342767.88952899,"Northing":157706.36627747,"Area_Ha":0.10173357673004},"geometry":{"type":"Polygon","coordinates":[[[-2.82241,51.31525],[-2.82262,51.31527],[-2.82275,51.31588],[-2.82255,51.3159],[-2.82241,51.31525]]]}},{"type":"Feature","properties":{"Incid":"NSOM0225","Prihabtxt":"Traditional Orchard","Habdefver":"v2.6","PriDet":"Priority Traditional Orchard habitat may be present but evidence is either insufficient to determine presence confidently or is in the oldest allowable category","InterQual":"3 (Medium)","S1GroundSv":"Not done","S2OrchQues":"Not done","S3API_date":1149811200000,"S3Boundary":"Primary","S3Habid":"Primary","S3Status":"Unmanaged","S3Planting":"No young trees","S3Metadata":"0609_1046, Geoperspectives","S4Non_TOP":"None","S5OSMM":"Boundary used","S5Captdate":1125878400000,"S5Boundary":"Secondary","Created_On":1235692800000,"Last_edit":1235692800000,"NonTOcode":"-","Over_50y":"Y","Additional":"Possible remnant","Easting":341527.38710608,"Northing":157869.68952668,"Area_Ha":0.1310737214833},"geometry":{"type":"Polygon","coordinates":[[[-2.8406,51.31711],[-2.84009,51.31716],[-2.84006,51.31702],[-2.84058,51.31667],[-2.84075,51.31669],[-2.84074,51.31672],[-2.84066,51.31672],[-2.8406,51.31711]]]}},{"type":"Feature","properties":{"Incid":"NSOM0226","Prihabtxt":"Traditional Orchard","Habdefver":"v2.6","PriDet":"Priority Traditional Orchard habitat may be present but evidence is either insufficient to determine presence confidently or is in the oldest allowable category","InterQual":"3 (Medium)","S1GroundSv":"Not done","S2OrchQues":"Not done","S3API_date":1149811200000,"S3Boundary":"Primary","S3Habid":"Primary","S3Status":"Unmanaged","S3Planting":"No young trees","S3Metadata":"0609_1046, Geoperspectives","S4Non_TOP":"None","S5OSMM":"Boundary used","S5Captdate":1125878400000,"S5Boundary":"Secondary","Created_On":1235692800000,"Last_edit":1235692800000,"NonTOcode":"-","Over_50y":"Y","Additional":"Possible orchard?","Easting":341607.90012773,"Northing":157168.66019423,"Area_Ha":0.36893070470092},"geometry":{"type":"Polygon","coordinates":[[[-2.83977,51.31073],[-2.83849,51.31085],[-2.83844,51.31049],[-2.83981,51.31038],[-2.83983,51.31065],[-2.83976,51.31066],[-2.83977,51.31073]]]}},{"type":"Feature","properties":{"Incid":"NSOM0227","Prihabtxt":"Traditional Orchard","Habdefver":"v2.6","PriDet":"Priority Traditional Orchard habitat may be present but evidence is either insufficient to determine presence confidently or is in the oldest allowable category","InterQual":"3 (Medium)","S1GroundSv":"Not done","S2OrchQues":"Not done","S3API_date":1149811200000,"S3Boundary":"Primary","S3Habid":"Primary","S3Status":"Part-managed","S3Planting":"No young trees","S3Metadata":"0609_1046, Geoperspectives","S4Non_TOP":"None","S5OSMM":"Boundary used","S5Captdate":1132876800000,"S5Boundary":"Secondary","Created_On":1235692800000,"Last_edit":1235692800000,"NonTOcode":"-","Over_50y":"N","Additional":"Possible small orchard?","Easting":342362.88388264,"Northing":157064.42003267,"Area_Ha":0.1341838650937},"geometry":{"type":"Polygon","coordinates":[[[-2.82882,51.30981],[-2.82778,51.30989],[-2.82775,51.30972],[-2.82832,51.30969],[-2.8288,51.30962],[-2.82882,51.30981]]]}},{"type":"Feature","properties":{"Incid":"NSOM0229","Prihabtxt":"Traditional Orchard","Habdefver":"v2.6","PriDet":"Priority Traditional Orchard habitat may be present but evidence is either insufficient to determine presence confidently or is in the oldest allowable category","InterQual":"3 (Medium)","S1GroundSv":"Not done","S2OrchQues":"Not done","S3API_date":1149811200000,"S3Boundary":"Primary","S3Habid":"Primary","S3Status":"Part-managed","S3Planting":"No young trees","S3Metadata":"0609_1104, Geoperspectives","S4Non_TOP":"None","S5OSMM":"Boundary used","S5Captdate":1098316800000,"S5Boundary":"Secondary","Created_On":1235692800000,"Last_edit":1235692800000,"NonTOcode":"-","Over_50y":"N","Additional":"Small garden orchard? May not be 5 trees","Easting":343784.88483556,"Northing":157421.88770861,"Area_Ha":0.08265507445219},"geometry":{"type":"Polygon","coordinates":[[[-2.80814,51.31325],[-2.80775,51.31329],[-2.80779,51.31297],[-2.80807,51.31294],[-2.80814,51.31325]]]}},{"type":"Feature","properties":{"Incid":"NSOM0230","Prihabtxt":"Traditional Orchard","Habdefver":"v2.6","PriDet":"Priority Traditional Orchard habitat may be present but evidence is either insufficient to determine presence confidently or is in the oldest allowable category","InterQual":"3 (Medium)","S1GroundSv":"Not done","S2OrchQues":"Not done","S3API_date":1149811200000,"S3Boundary":"Primary","S3Habid":"Primary","S3Status":"Part-managed","S3Planting":"No young trees","S3Metadata":"0609_1104, Geoperspectives","S4Non_TOP":"None","S5OSMM":"Boundary used","S5Captdate":1098316800000,"S5Boundary":"Secondary","Created_On":1235692800000,"Last_edit":1235692800000,"NonTOcode":"-","Over_50y":"N","Additional":"Possible orchard - probably scrub","Easting":343465.65255985,"Northing":156956.31097857,"Area_Ha":1.0077597996447},"geometry":{"type":"Polygon","coordinates":[[[-2.81283,51.30992],[-2.81244,51.31],[-2.81243,51.30928],[-2.81239,51.30903],[-2.81201,51.30828],[-2.81171,51.30792],[-2.812,51.30779],[-2.81235,51.30803],[-2.81266,51.30838],[-2.81311,51.30898],[-2.81318,51.30928],[-2.81311,51.30962],[-2.81299,51.30963],[-2.81289,51.30968],[-2.81283,51.30992]]]}},{"type":"Feature","properties":{"Incid":"NSOM0231","Prihabtxt":"Traditional Orchard","Habdefver":"v2.6","PriDet":"Priority Traditional Orchard habitat may be present but evidence is either insufficient to determine presence confidently or is in the oldest allowable category","InterQual":"1 (High)","S1GroundSv":"Not done","S2OrchQues":"Not done","S3API_date":1149811200000,"S3Boundary":"Primary","S3Habid":"Primary","S3Status":"Part-managed","S3Planting":"No young trees","S3Metadata":"0609_1104, Geoperspectives","S4Non_TOP":"None","S5OSMM":"Boundary used","S5Captdate":1098316800000,"S5Boundary":"Secondary","Created_On":1235692800000,"Last_edit":1235692800000,"NonTOcode":"-","Over_50y":"N","Additional":"Small orchard in NE corner of field","Easting":342122.63104721,"Northing":156887.71061522,"Area_Ha":0.036930847566184},"geometry":{"type":"Polygon","coordinates":[[[-2.83149,51.30808],[-2.83193,51.30811],[-2.83192,51.30821],[-2.83154,51.30821],[-2.83149,51.30808]]]}},{"type":"Feature","properties":{"Incid":"NSOM0232","Prihabtxt":"Traditional Orchard","Habdefver":"v2.6","PriDet":"Priority Traditional Orchard habitat may be present but evidence is either insufficient to determine presence confidently or is in the oldest allowable category","InterQual":"3 (Medium)","S1GroundSv":"Not done","S2OrchQues":"Not done","S3API_date":1149811200000,"S3Boundary":"Primary","S3Habid":"Primary","S3Status":"Part-managed","S3Planting":"No young trees","S3Metadata":"0609_1104, Geoperspectives","S4Non_TOP":"None","S5OSMM":"Boundary used","S5Captdate":1098316800000,"S5Boundary":"Secondary","Created_On":1235692800000,"Last_edit":1235692800000,"NonTOcode":"-","Over_50y":"Y","Additional":"Small orchard in forest clearing?","Easting":342816.32926295,"Northing":156792.01800694,"Area_Ha":0.20951871878021},"geometry":{"type":"Polygon","coordinates":[[[-2.82157,51.30724],[-2.82171,51.30715],[-2.822,51.30703],[-2.82206,51.30755],[-2.82151,51.30768],[-2.82143,51.30753],[-2.82143,51.3074],[-2.82145,51.30735],[-2.82157,51.30724]]]}},{"type":"Feature","properties":{"Incid":"SOME0102","Prihabtxt":"Traditional Orchard","Habdefver":"v2.6","PriDet":"Priority Traditional Orchard habitat may be present but evidence is either insufficient to determine presence confidently or is in the oldest allowable category","InterQual":"1 (High)","S1GroundSv":"Not done","S2OrchQues":"Not done","S3API_date":1149811200000,"S3Boundary":"Primary","S3Habid":"Primary","S3Status":"Management unknown","S3Planting":"No young trees","S3Metadata":"0609_1122, Geoperspectives","S4Non_TOP":"None","S5OSMM":"Boundary used","S5Captdate":1098316800000,"S5Boundary":"Secondary","Created_On":1231891200000,"Last_edit":1231891200000,"NonTOcode":"-","Over_50y":"Y","Additional":"Remnant","Easting":340632.98761302,"Northing":153828.08642353,"Area_Ha":0.22228214563972},"geometry":{"type":"Polygon","coordinates":[[[-2.85239,51.28082],[-2.85225,51.28072],[-2.85252,51.28049],[-2.85223,51.28038],[-2.85214,51.28029],[-2.85216,51.28025],[-2.85245,51.28022],[-2.8527,51.28015],[-2.85296,51.28037],[-2.85298,51.28045],[-2.85264,51.28068],[-2.85239,51.28082]]]}},{"type":"Feature","properties":{"Incid":"SOME0103","Prihabtxt":"Traditional Orchard","Habdefver":"v2.6","PriDet":"Priority Traditional Orchard habitat may be present but evidence is either insufficient to determine presence confidently or is in the oldest allowable category","InterQual":"1 (High)","S1GroundSv":"Not done","S2OrchQues":"Not done","S3API_date":1149811200000,"S3Boundary":"Primary","S3Habid":"Primary","S3Status":"Management unknown","S3Planting":"No young trees","S3Metadata":"0609_1122, Geoperspectives","S4Non_TOP":"None","S5OSMM":"Boundary used","S5Captdate":1098316800000,"S5Boundary":"Secondary","Created_On":1231891200000,"Last_edit":1231891200000,"NonTOcode":"-","Over_50y":"Y","Additional":"Remnant","Easting":340769.72370632,"Northing":153886.16979734,"Area_Ha":0.16834327700635},"geometry":{"type":"Polygon","coordinates":[[[-2.85129,51.2813],[-2.85043,51.28109],[-2.85056,51.28105],[-2.85055,51.28098],[-2.85065,51.28096],[-2.85068,51.28104],[-2.85089,51.28105],[-2.85116,51.28098],[-2.85147,51.28097],[-2.8516,51.28104],[-2.85129,51.2813]]]}},{"type":"Feature","properties":{"Incid":"SOME0105","Prihabtxt":"Traditional Orchard","Habdefver":"v2.6","PriDet":"Priority Traditional Orchard habitat may be present but evidence is either insufficient to determine presence confidently or is in the oldest allowable category","InterQual":"1 (High)","S1GroundSv":"Not done","S2OrchQues":"Not done","S3API_date":1149811200000,"S3Boundary":"Primary","S3Habid":"Primary","S3Status":"Management unknown","S3Planting":"No young trees","S3Metadata":"0609_1122, Geoperspectives","S4Non_TOP":"None","S5OSMM":"Boundary used","S5Captdate":1098316800000,"S5Boundary":"Secondary","Created_On":1231891200000,"Last_edit":1231891200000,"NonTOcode":"-","Over_50y":"Y","Additional":"Remnant","Easting":340557.08358052,"Northing":153696.75401704,"Area_Ha":0.21766280446503},"geometry":{"type":"Polygon","coordinates":[[[-2.85385,51.27962],[-2.85361,51.27951],[-2.85349,51.27943],[-2.85334,51.27919],[-2.8532,51.27906],[-2.85361,51.27897],[-2.85404,51.27944],[-2.85406,51.27957],[-2.85385,51.27962]]]}},{"type":"Feature","properties":{"Incid":"SOME0110","Prihabtxt":"Traditional Orchard","Habdefver":"v2.6","PriDet":"Priority Traditional Orchard habitat may be present but evidence is either insufficient to determine presence confidently or is in the oldest allowable category","InterQual":"1 (High)","S1GroundSv":"Not done","S2OrchQues":"Not done","S3API_date":1149811200000,"S3Boundary":"Primary","S3Habid":"Primary","S3Status":"Active management","S3Planting":"Young trees in gaps","S3Metadata":"0609_1440, Geoperspectives","S4Non_TOP":"None","S5OSMM":"Boundary used","S5Captdate":1098316800000,"S5Boundary":"Secondary","Created_On":1231891200000,"Last_edit":1231891200000,"NonTOcode":"-","Over_50y":"N","Additional":"Large, mixed age, replanting, sheep or pigs grazing","Easting":343251.00063914,"Northing":153702.50237159,"Area_Ha":2.2852614942129},"geometry":{"type":"Polygon","coordinates":[[[-2.81404,51.28025],[-2.81395,51.28025],[-2.81392,51.28012],[-2.8138,51.27946],[-2.8138,51.27925],[-2.81383,51.27924],[-2.8138,51.27923],[-2.81378,51.279],[-2.81622,51.279],[-2.81623,51.28022],[-2.81404,51.28025]]]}},{"type":"Feature","properties":{"Incid":"SOME0111","Prihabtxt":"Traditional Orchard","Habdefver":"v2.6","PriDet":"Priority Traditional Orchard habitat may be present but evidence is either insufficient to determine presence confidently or is in the oldest allowable category","InterQual":"1 (High)","S1GroundSv":"Not done","S2OrchQues":"Not done","S3API_date":1149811200000,"S3Boundary":"Primary","S3Habid":"Primary","S3Status":"Active management","S3Planting":"Young trees in gaps","S3Metadata":"0609_1440, Geoperspectives","S4Non_TOP":"None","S5OSMM":"Boundary used","S5Captdate":1098316800000,"S5Boundary":"Secondary","Created_On":1231891200000,"Last_edit":1231891200000,"NonTOcode":"-","Over_50y":"N","Additional":"Large, mixed age, replanting, sheep or pigs grazing","Easting":343269.90656425,"Northing":153610.51870164,"Area_Ha":0.54396163240073},"geometry":{"type":"Polygon","coordinates":[[[-2.81573,51.27881],[-2.81573,51.27897],[-2.81417,51.27898],[-2.81378,51.27897],[-2.81375,51.27881],[-2.81573,51.27881]]]}},{"type":"Feature","properties":{"Incid":"SOME0132","Prihabtxt":"Traditional Orchard","Habdefver":"v2.6","PriDet":"Priority Traditional Orchard habitat may be present but evidence is either insufficient to determine presence confidently or is in the oldest allowable category","InterQual":"1 (High)","S1GroundSv":"Not done","S2OrchQues":"Not done","S3API_date":1149811200000,"S3Boundary":"Primary","S3Habid":"Primary","S3Status":"Unmanaged","S3Planting":"No young trees","S3Metadata":"0609_1440, Geoperspectives","S4Non_TOP":"None","S5OSMM":"Boundary used","S5Captdate":1098316800000,"S5Boundary":"Secondary","Created_On":1231891200000,"Last_edit":1231891200000,"NonTOcode":"-","Over_50y":"Y","Additional":"If still orchard, sparse","Easting":346141.83449204,"Northing":154092.0008788,"Area_Ha":0.3100660173828},"geometry":{"type":"Polygon","coordinates":[[[-2.77421,51.28329],[-2.77388,51.28334],[-2.77387,51.28338],[-2.77395,51.28365],[-2.77317,51.28376],[-2.77305,51.28361],[-2.77307,51.28353],[-2.77313,51.28351],[-2.77307,51.28349],[-2.77321,51.28348],[-2.77322,51.28351],[-2.7733,51.28352],[-2.77353,51.2835],[-2.77347,51.28339],[-2.77335,51.28338],[-2.77334,51.28333],[-2.77356,51.28331],[-2.77365,51.28307],[-2.77416,51.28305],[-2.77421,51.28329]]]}},{"type":"Feature","properties":{"Incid":"SOME0133","Prihabtxt":"Traditional Orchard","Habdefver":"v2.6","PriDet":"Priority Traditional Orchard habitat may be present but evidence is either insufficient to determine presence confidently or is in the oldest allowable category","InterQual":"1 (High)","S1GroundSv":"Not done","S2OrchQues":"Not done","S3API_date":1149811200000,"S3Boundary":"Primary","S3Habid":"Primary","S3Status":"Active management","S3Planting":"No young trees","S3Metadata":"0609_1440, Geoperspectives","S4Non_TOP":"None","S5OSMM":"Boundary used","S5Captdate":1098316800000,"S5Boundary":"Secondary","Created_On":1231891200000,"Last_edit":1231891200000,"NonTOcode":"-","Over_50y":"Y","Additional":"50% gappy","Easting":346144.11837397,"Northing":154159.8314625,"Area_Ha":0.39401914333138},"geometry":{"type":"Polygon","coordinates":[[[-2.77406,51.28415],[-2.77382,51.28418],[-2.77384,51.28427],[-2.77315,51.28437],[-2.77312,51.28426],[-2.77317,51.28426],[-2.77315,51.28416],[-2.7731,51.28416],[-2.77309,51.28409],[-2.77317,51.28408],[-2.77319,51.28404],[-2.77316,51.28376],[-2.77395,51.28366],[-2.77412,51.28411],[-2.77404,51.28412],[-2.77406,51.28415]]]}},{"type":"Feature","properties":{"Incid":"SOME2413","Prihabtxt":"Traditional Orchard","Habdefver":"v2.6","PriDet":"Priority Traditional Orchard habitat may be present but evidence is either insufficient to determine presence confidently or is in the oldest allowable category","InterQual":"1 (High)","S1GroundSv":"Not done","S2OrchQues":"Not done","S3API_date":1149811200000,"S3Boundary":"Primary","S3Habid":"Primary","S3Status":"Management unknown","S3Planting":"No young trees","S3Metadata":"0609_1104, Geoperspectives","S4Non_TOP":"None","S5OSMM":"Boundary used","S5Captdate":1098316800000,"S5Boundary":"Secondary","Created_On":1231891200000,"Last_edit":1231891200000,"NonTOcode":"-","Over_50y":"Y","Additional":"Neglected trees","Easting":344980.47641065,"Northing":158567.2998378,"Area_Ha":0.18190894791531},"geometry":{"type":"Polygon","coordinates":[[[-2.79092,51.32384],[-2.79083,51.32384],[-2.79079,51.32374],[-2.79081,51.32364],[-2.79075,51.32353],[-2.7908,51.32352],[-2.79077,51.32347],[-2.79073,51.32348],[-2.79066,51.32331],[-2.7911,51.32322],[-2.79128,51.32349],[-2.79111,51.32353],[-2.79123,51.32368],[-2.7912,51.32371],[-2.79101,51.32373],[-2.79103,51.32383],[-2.79092,51.32384]]]}},{"type":"Feature","properties":{"Incid":"SOME2414","Prihabtxt":"Traditional Orchard","Habdefver":"v2.6","PriDet":"Priority Traditional Orchard habitat may be present but evidence is either insufficient to determine presence confidently or is in the oldest allowable category","InterQual":"1 (High)","S1GroundSv":"Not done","S2OrchQues":"Not done","S3API_date":1149811200000,"S3Boundary":"Primary","S3Habid":"Primary","S3Status":"Active management","S3Planting":"Young orchard","S3Metadata":"0609_1104, Geoperspectives","S4Non_TOP":"None","S5OSMM":"Boundary used","S5Captdate":1098316800000,"S5Boundary":"Secondary","Created_On":1231891200000,"Last_edit":1231891200000,"NonTOcode":"-","Over_50y":"N","Additional":"Small orchard?","Easting":343739.52050938,"Northing":157923.20420826,"Area_Ha":0.066399351854721},"geometry":{"type":"Polygon","coordinates":[[[-2.80861,51.31782],[-2.80853,51.31742],[-2.80875,51.31741],[-2.80882,51.3178],[-2.80861,51.31782]]]}},{"type":"Feature","properties":{"Incid":"SOME2415","Prihabtxt":"Traditional Orchard","Habdefver":"v2.6","PriDet":"Priority Traditional Orchard habitat may be present but evidence is either insufficient to determine presence confidently or is in the oldest allowable category","InterQual":"1 (High)","S1GroundSv":"Not done","S2OrchQues":"Not done","S3API_date":1149811200000,"S3Boundary":"Primary","S3Habid":"Primary","S3Status":"Active management","S3Planting":"Young trees in gaps","S3Metadata":"0609_1104, Geoperspectives","S4Non_TOP":"None","S5OSMM":"Boundary used","S5Captdate":1098316800000,"S5Boundary":"Secondary","Created_On":1231891200000,"Last_edit":1231891200000,"NonTOcode":"-","Over_50y":"N","Additional":"Small orchard?","Easting":343521.9168568,"Northing":157923.10423687,"Area_Ha":0.099834623913503},"geometry":{"type":"Polygon","coordinates":[[[-2.8121,51.31766],[-2.81174,51.31777],[-2.8115,51.31742],[-2.81202,51.31743],[-2.81204,51.3176],[-2.8121,51.31766]]]}},{"type":"Feature","properties":{"Incid":"SOME2416","Prihabtxt":"Traditional Orchard","Habdefver":"v2.6","PriDet":"Priority Traditional Orchard habitat may be present but evidence is either insufficient to determine presence confidently or is in the oldest allowable category","InterQual":"1 (High)","S1GroundSv":"Not done","S2OrchQues":"Not done","S3API_date":1149811200000,"S3Boundary":"Primary","S3Habid":"Primary","S3Status":"Active management","S3Planting":"No young trees","S3Metadata":"0609_1122, Geoperspectives","S4Non_TOP":"None","S5OSMM":"Boundary used","S5Captdate":1098316800000,"S5Boundary":"Secondary","Created_On":1231891200000,"Last_edit":1231891200000,"NonTOcode":"-","Over_50y":"N","Additional":"Very small garden orchard","Easting":344395.50581565,"Northing":156874.78431533,"Area_Ha":0.047166344277899},"geometry":{"type":"Polygon","coordinates":[[[-2.79933,51.30831],[-2.79897,51.30837],[-2.79888,51.30824],[-2.7992,51.30814],[-2.79933,51.30831]]]}},{"type":"Feature","properties":{"Incid":"SOME2417","Prihabtxt":"Traditional Orchard","Habdefver":"v2.6","PriDet":"Priority Traditional Orchard habitat may be present but evidence is either insufficient to determine presence confidently or is in the oldest allowable category","InterQual":"3 (Medium)","S1GroundSv":"Not done","S2OrchQues":"Not done","S3API_date":1149811200000,"S3Boundary":"Primary","S3Habid":"Primary","S3Status":"Active management","S3Planting":"No young trees","S3Metadata":"0609_1104, Geoperspectives","S4Non_TOP":"None","S5OSMM":"Boundary used","S5Captdate":1098316800000,"S5Boundary":"Secondary","Created_On":1231891200000,"Last_edit":1231891200000,"NonTOcode":"-","Over_50y":"Y","Additional":"Possibly a grazed orchard, though trees large and unmanaged, sparse","Easting":341113.43556844,"Northing":155291.44754077,"Area_Ha":0.36406442694607},"geometry":{"type":"Polygon","coordinates":[[[-2.84674,51.29378],[-2.84672,51.294],[-2.84656,51.29401],[-2.84649,51.29395],[-2.84625,51.29393],[-2.84618,51.29385],[-2.84585,51.29371],[-2.84566,51.2938],[-2.84565,51.29397],[-2.84552,51.29394],[-2.84556,51.2939],[-2.84552,51.29389],[-2.84551,51.2938],[-2.84523,51.29361],[-2.84523,51.29342],[-2.84559,51.29328],[-2.84566,51.29328],[-2.84571,51.29338],[-2.84612,51.29366],[-2.84627,51.29373],[-2.84635,51.29373],[-2.8466,51.29364],[-2.84667,51.29368],[-2.84674,51.29378]]]}},{"type":"Feature","properties":{"Incid":"SOME2485","Prihabtxt":"Traditional Orchard","Habdefver":"v2.6","PriDet":"Priority Traditional Orchard habitat may be present but evidence is either insufficient to determine presence confidently or is in the oldest allowable category","InterQual":"3 (Medium)","S1GroundSv":"Not done","S2OrchQues":"Not done","S3API_date":1149811200000,"S3Boundary":"Primary","S3Habid":"Primary","S3Status":"Management unknown","S3Planting":"Young orchard","S3Metadata":"0609_1046, Geoperspectives","S4Non_TOP":"None","S5OSMM":"Boundary used","S5Captdate":1098316800000,"S5Boundary":"Secondary","Created_On":1231891200000,"Last_edit":1231891200000,"NonTOcode":"-","Over_50y":"N","Additional":"Small trees planted in rows, not certain if orchard","Easting":343817.09828928,"Northing":158112.10013736,"Area_Ha":0.1507655613022},"geometry":{"type":"Polygon","coordinates":[[[-2.80787,51.31922],[-2.80779,51.31949],[-2.80785,51.31952],[-2.80782,51.31964],[-2.80735,51.31951],[-2.80749,51.31905],[-2.80787,51.31922]]]}},{"type":"Feature","properties":{"Incid":"SOME2486","Prihabtxt":"Traditional Orchard","Habdefver":"v2.6","PriDet":"Priority Traditional Orchard habitat may be present but evidence is either insufficient to determine presence confidently or is in the oldest allowable category","InterQual":"3 (Medium)","S1GroundSv":"Not done","S2OrchQues":"Not done","S3API_date":1149811200000,"S3Boundary":"Primary","S3Habid":"Primary","S3Status":"Management unknown","S3Planting":"No young trees","S3Metadata":"0609_1122, Geoperspectives","S4Non_TOP":"None","S5OSMM":"Boundary used","S5Captdate":1098316800000,"S5Boundary":"Secondary","Created_On":1231891200000,"Last_edit":1231891200000,"NonTOcode":"-","Over_50y":"N","Additional":"Patchy distribution of trees","Easting":341542.53328332,"Northing":154796.48922111,"Area_Ha":0.19348587347615},"geometry":{"type":"MultiPolygon","coordinates":[[[[-2.83976,51.28975],[-2.83936,51.28971],[-2.83927,51.28909],[-2.83935,51.28912],[-2.83938,51.28916],[-2.8395,51.28914],[-2.83955,51.28919],[-2.83969,51.28919],[-2.8397,51.28929],[-2.83952,51.28934],[-2.83951,51.28943],[-2.83952,51.28949],[-2.8396,51.2895],[-2.83968,51.28943],[-2.83974,51.28943],[-2.8398,51.28964],[-2.83976,51.28975]]],[[[-2.84012,51.28951],[-2.84001,51.28957],[-2.83995,51.28957],[-2.83992,51.28953],[-2.83996,51.2895],[-2.83994,51.28934],[-2.83989,51.28931],[-2.84009,51.2893],[-2.84012,51.28951]]]]}},{"type":"Feature","properties":{"Incid":"SOME2487","Prihabtxt":"Traditional Orchard","Habdefver":"v2.6","PriDet":"Priority Traditional Orchard habitat may be present but evidence is either insufficient to determine presence confidently or is in the oldest allowable category","InterQual":"3 (Medium)","S1GroundSv":"Not done","S2OrchQues":"Not done","S3API_date":1149811200000,"S3Boundary":"Primary","S3Habid":"Primary","S3Status":"Active management","S3Planting":"Young orchard","S3Metadata":"0609_1122, Geoperspectives","S4Non_TOP":"None","S5OSMM":"Boundary used","S5Captdate":1098316800000,"S5Boundary":"Secondary","Created_On":1231891200000,"Last_edit":1231891200000,"NonTOcode":"-","Over_50y":"Y","Additional":"Small orchard?","Easting":341599.91066353,"Northing":154809.03562974,"Area_Ha":0.019036288681894},"geometry":{"type":"Polygon","coordinates":[[[-2.83882,51.2895],[-2.83878,51.28932],[-2.83891,51.28931],[-2.83895,51.28946],[-2.83891,51.2895],[-2.83882,51.2895]]]}},{"type":"Feature","properties":{"Incid":"SOME2488","Prihabtxt":"Traditional Orchard","Habdefver":"v2.6","PriDet":"Priority Traditional Orchard habitat may be present but evidence is either insufficient to determine presence confidently or is in the oldest allowable category","InterQual":"1 (High)","S1GroundSv":"Not done","S2OrchQues":"Not done","S3API_date":1149811200000,"S3Boundary":"Primary","S3Habid":"Primary","S3Status":"Active management","S3Planting":"Young orchard","S3Metadata":"0609_1122, Geoperspectives","S4Non_TOP":"None","S5OSMM":"Boundary used","S5Captdate":1147219200000,"S5Boundary":"Secondary","Created_On":1231891200000,"Last_edit":1231891200000,"NonTOcode":"-","Over_50y":"N","Additional":"Young orchard plantation","Easting":341202.55643388,"Northing":154408.88017305,"Area_Ha":0.27522366450004},"geometry":{"type":"Polygon","coordinates":[[[-2.84441,51.28605],[-2.84434,51.28596],[-2.8442,51.28588],[-2.84364,51.28564],[-2.84378,51.2855],[-2.8449,51.28586],[-2.84496,51.28604],[-2.84482,51.28616],[-2.84462,51.28618],[-2.84441,51.28605]]]}},{"type":"Feature","properties":{"Incid":"SOME2489","Prihabtxt":"Traditional Orchard","Habdefver":"v2.6","PriDet":"Probably Traditional Orchard priority habitat but some uncertainty due to age of data source","InterQual":"1 (High)","HabCon":"Good","S1GroundSv":"Not done","S2OrchQues":"Done","S2Captdate":1497484800000,"S2Habid":"Primary","S2Status":"Active management","S2Planting":"Young orchard","S3API_date":1149811200000,"S3Boundary":"Primary","S3Habid":"Secondary","S3Status":"Active management","S3Planting":"No young trees","S3Metadata":"0609_1122, Geoperspectives","S4Non_TOP":"None","S5OSMM":"Boundary used","S5Captdate":1142812800000,"S5Boundary":"Secondary","Created_On":1231891200000,"Last_edit":1497484800000,"NonTOcode":"-","Over_50y":"N","Additional":"Young orchard","Apple":"Y","YFT_31_100":"Y","Mown":"Y","Easting":343720.98561203,"Northing":154463.25460853,"Area_Ha":0.12587934198435},"geometry":{"type":"Polygon","coordinates":[[[-2.80825,51.28663],[-2.80806,51.28609],[-2.80808,51.28604],[-2.80833,51.28604],[-2.80851,51.28659],[-2.80825,51.28663]]]}},{"type":"Feature","properties":{"Incid":"SOME2490","Prihabtxt":"Traditional Orchard","Habdefver":"v2.6","PriDet":"Priority Traditional Orchard habitat may be present but evidence is either insufficient to determine presence confidently or is in the oldest allowable category","InterQual":"3 (Medium)","S1GroundSv":"Not done","S2OrchQues":"Not done","S3API_date":1149811200000,"S3Boundary":"Primary","S3Habid":"Primary","S3Status":"Active management","S3Planting":"Young orchard","S3Metadata":"0609_1122, Geoperspectives","S4Non_TOP":"None","S5OSMM":"Boundary used","S5Captdate":1142812800000,"S5Boundary":"Secondary","Created_On":1231891200000,"Last_edit":1231891200000,"NonTOcode":"-","Over_50y":"N","Additional":"Tiny garden orchard - 6 trees?","Easting":343891.2378787,"Northing":154481.42940605,"Area_Ha":0.02154095776827},"geometry":{"type":"Polygon","coordinates":[[[-2.80612,51.2867],[-2.80584,51.28676],[-2.80579,51.28666],[-2.80608,51.28662],[-2.80612,51.2867]]]}},{"type":"Feature","properties":{"Incid":"SOME2491","Prihabtxt":"Traditional Orchard","Habdefver":"v2.6","PriDet":"Priority Traditional Orchard habitat may be present but evidence is either insufficient to determine presence confidently or is in the oldest allowable category","InterQual":"3 (Medium)","S1GroundSv":"Not done","S2OrchQues":"Not done","S3API_date":1149811200000,"S3Boundary":"Primary","S3Habid":"Primary","S3Status":"Active management","S3Planting":"Young orchard","S3Metadata":"0609_1122, Geoperspectives","S4Non_TOP":"None","S5OSMM":"Boundary used","S5Captdate":1142812800000,"S5Boundary":"Secondary","Created_On":1231891200000,"Last_edit":1231891200000,"NonTOcode":"-","Over_50y":"N","Additional":"Small garden orchard?","Easting":343954.05699923,"Northing":154487.24774057,"Area_Ha":0.021767954212662},"geometry":{"type":"Polygon","coordinates":[[[-2.80508,51.28664],[-2.80518,51.28682],[-2.80505,51.28685],[-2.80493,51.28668],[-2.80508,51.28664]]]}},{"type":"Feature","properties":{"Incid":"SOME2493","Prihabtxt":"Traditional Orchard","Habdefver":"v2.6","PriDet":"Priority Traditional Orchard habitat may be present but evidence is either insufficient to determine presence confidently or is in the oldest allowable category","InterQual":"1 (High)","S1GroundSv":"Not done","S2OrchQues":"Not done","S3API_date":1149811200000,"S3Boundary":"Primary","S3Habid":"Primary","S3Status":"Active management","S3Planting":"Young trees in gaps","S3Metadata":"0609_1122, Geoperspectives","S4Non_TOP":"None","S5OSMM":"Boundary used","S5Captdate":1098316800000,"S5Boundary":"Secondary","Created_On":1231891200000,"Last_edit":1231891200000,"NonTOcode":"-","Over_50y":"Y","Additional":"Possibly young trees present","Easting":340700.53115356,"Northing":153716.89825081,"Area_Ha":0.098224074759693},"geometry":{"type":"Polygon","coordinates":[[[-2.85107,51.27945],[-2.85208,51.27931],[-2.85114,51.27968],[-2.85107,51.27945]]]}},{"type":"Feature","properties":{"Incid":"SOME2755","Prihabtxt":"Traditional Orchard","Habdefver":"v2.6","PriDet":"Priority Traditional Orchard habitat may be present but evidence is either insufficient to determine presence confidently or is in the oldest allowable category","InterQual":"3 (Medium)","S1GroundSv":"Not done","S2OrchQues":"Not done","S3API_date":1149811200000,"S3Boundary":"Primary","S3Habid":"Primary","S3Status":"Active management","S3Planting":"No young trees","S3Metadata":"ST4557","S4Non_TOP":"None","S5OSMM":"Boundary used","S5Captdate":1098316800000,"S5Boundary":"Secondary","Created_On":1297382400000,"Last_edit":1297382400000,"NonTOcode":"-","Over_50y":"N","Additional":"Possible orchard. Small","Easting":345352.00710893,"Northing":157394.23562394,"Area_Ha":0.045057806844044},"geometry":{"type":"Polygon","coordinates":[[[-2.78558,51.31317],[-2.78532,51.31313],[-2.78543,51.31304],[-2.78533,51.31289],[-2.78559,51.31288],[-2.78558,51.31317]]]}}]}