{"type":"FeatureCollection","features":[{"type":"Feature","properties":{"name":"Churchill Surgery","highway":"bus_stop"},"geometry":{"type":"Point","coordinates":[-2.79259,51.33662]}},{"type":"Feature","properties":{"name":"Thatchers Railway Inn","highway":"bus_stop","bus":"yes"},"geometry":{"type":"Point","coordinates":[-2.8353,51.33294]}},{"type":"Feature","properties":{"name":"Thatchers Railway Inn","highway":"bus_stop","bus":"yes"},"geometry":{"type":"Point","coordinates":[-2.83514,51.33285]}},{"type":"Feature","properties":{"name":"Bridgwater Road","highway":"bus_stop","bus":"yes"},"geometry":{"type":"Point","coordinates":[-2.82793,51.30357]}},{"type":"Feature","properties":{"name":"Bridgwater Road","highway":"bus_stop"},"geometry":{"type":"Point","coordinates":[-2.8282,51.30359]}},{"type":"Feature","properties":{"name":"Fullers Lane","highway":"bus_stop","bus":"yes"},"geometry":{"type":"Point","coordinates":[-2.8257,51.30716]}},{"type":"Feature","properties":{"name":"Fullers Lane","highway":"bus_stop","bus":"yes"},"geometry":{"type":"Point","coordinates":[-2.82603,51.30815]}},{"type":"Feature","properties":{"name":"Sandford (Old) Station","highway":"bus_stop","bus":"yes"},"geometry":{"type":"Point","coordinates":[-2.83966,51.33291]}},{"type":"Feature","properties":{"name":"Burrington Turn","highway":"bus_stop","shelter":"no","bench":"no"},"geometry":{"type":"Point","coordinates":[-2.75079,51.33252]}},{"type":"Feature","properties":{"name":"Towerhead Farm","highway":"bus_stop","bus":"yes"},"geometry":{"type":"Point","coordinates":[-2.84742,51.33087]}},{"type":"Feature","properties":{"name":"Towerhead Farm","highway":"bus_stop","bus":"yes"},"geometry":{"type":"Point","coordinates":[-2.8461,51.33121]}},{"type":"Feature","properties":{"name":"Sandford (Old) Station","highway":"bus_stop","bus":"yes"},"geometry":{"type":"Point","coordinates":[-2.83901,51.33313]}},{"type":"Feature","properties":{"name":"Sandford Church","highway":"bus_stop","bus":"yes"},"geometry":{"type":"Point","coordinates":[-2.83137,51.33189]}},{"type":"Feature","properties":{"name":"Sandford Church","highway":"bus_stop","bus":"yes"},"geometry":{"type":"Point","coordinates":[-2.83148,51.33188]}},{"type":"Feature","properties":{"name":"Quarry Road","highway":"bus_stop","bus":"yes"},"geometry":{"type":"Point","coordinates":[-2.8344,51.3268]}},{"type":"Feature","properties":{"name":"Quarry Road","highway":"bus_stop","bus":"yes"},"geometry":{"type":"Point","coordinates":[-2.8346,51.32695]}},{"type":"Feature","properties":{"name":"Wimblestone Road","highway":"bus_stop"},"geometry":{"type":"Point","coordinates":[-2.83549,51.32515]}},{"type":"Feature","properties":{"name":"Wimblestone Road","highway":"bus_stop"},"geometry":{"type":"Point","coordinates":[-2.83521,51.32517]}},{"type":"Feature","properties":{"name":"The Grove","highway":"bus_stop","bus":"yes"},"geometry":{"type":"Point","coordinates":[-2.83572,51.32229]}},{"type":"Feature","properties":{"name":"Shipham Lane","highway":"bus_stop","bus":"yes"},"geometry":{"type":"Point","coordinates":[-2.83562,51.3222]}},{"type":"Feature","properties":{"name":"Moorham Road","highway":"bus_stop"},"geometry":{"type":"Point","coordinates":[-2.83439,51.31868]}},{"type":"Feature","properties":{"name":"Moorham Road","highway":"bus_stop"},"geometry":{"type":"Point","coordinates":[-2.83463,51.31867]}},{"type":"Feature","properties":{"name":"Woodborough Drive","highway":"bus_stop","bus":"yes","shelter":"yes","bench":"yes"},"geometry":{"type":"Point","coordinates":[-2.83303,51.31506]}},{"type":"Feature","properties":{"name":"Woodborough Drive","highway":"bus_stop","bus":"yes","shelter":"yes","bench":"yes"},"geometry":{"type":"Point","coordinates":[-2.83319,51.31522]}},{"type":"Feature","properties":{"name":"Belmont Road","highway":"bus_stop","shelter":"no"},"geometry":{"type":"Point","coordinates":[-2.8277,51.31311]}},{"type":"Feature","properties":{"name":"Belmont Road","highway":"bus_stop","shelter":"no"},"geometry":{"type":"Point","coordinates":[-2.82774,51.31295]}},{"type":"Feature","properties":{"name":"Sidcot Playing Fields","highway":"bus_stop","shelter":"no","bench":"no"},"geometry":{"type":"Point","coordinates":[-2.82473,51.31099]}},{"type":"Feature","properties":{"name":"Sidcot Playing Fields","highway":"bus_stop","shelter":"yes","bench":"yes"},"geometry":{"type":"Point","coordinates":[-2.82493,51.31158]}},{"type":"Feature","properties":{"name":"Hillyfields","highway":"bus_stop"},"geometry":{"type":"Point","coordinates":[-2.82195,51.31439]}},{"type":"Feature","properties":{"name":"Hillyfields","highway":"bus_stop"},"geometry":{"type":"Point","coordinates":[-2.82048,51.31447]}},{"type":"Feature","properties":{"name":"Queensmead Court","highway":"bus_stop","bus":"yes"},"geometry":{"type":"Point","coordinates":[-2.81492,51.31763]}},{"type":"Feature","properties":{"name":"Nelson's Arms","highway":"bus_stop","bus":"yes","shelter":"no","bench":"no"},"geometry":{"type":"Point","coordinates":[-2.79873,51.33408]}},{"type":"Feature","properties":{"name":"Nelson's Arms","highway":"bus_stop","bus":"yes","shelter":"no","bench":"no"},"geometry":{"type":"Point","coordinates":[-2.79841,51.33415]}},{"type":"Feature","properties":{"name":"Hilliers Lane","highway":"bus_stop","shelter":"yes","bench":"no"},"geometry":{"type":"Point","coordinates":[-2.80863,51.33299]}},{"type":"Feature","properties":{"name":"Hilliers Lane","highway":"bus_stop","shelter":"no","bench":"no"},"geometry":{"type":"Point","coordinates":[-2.80796,51.33319]}},{"type":"Feature","properties":{"name":"Ski Centre","highway":"bus_stop","bus":"yes"},"geometry":{"type":"Point","coordinates":[-2.81301,51.33307]}},{"type":"Feature","properties":{"name":"Ski Centre","highway":"bus_stop","bus":"yes"},"geometry":{"type":"Point","coordinates":[-2.81481,51.33333]}},{"type":"Feature","properties":{"name":"Sandford School","highway":"bus_stop","bus":"yes"},"geometry":{"type":"Point","coordinates":[-2.82499,51.33337]}},{"type":"Feature","properties":{"name":"Sandford School","highway":"bus_stop","bus":"yes"},"geometry":{"type":"Point","coordinates":[-2.82522,51.3332]}},{"type":"Feature","properties":{"name":"The Triangle","highway":"bus_stop","bus":"yes"},"geometry":{"type":"Point","coordinates":[-2.83927,51.31405]}},{"type":"Feature","properties":{"name":"The Churchill Inn","highway":"bus_stop","bus":"yes","shelter":"no","bench":"yes"},"geometry":{"type":"Point","coordinates":[-2.78896,51.3372]}},{"type":"Feature","properties":{"name":"The Churchill Inn","highway":"bus_stop","bus":"yes","shelter":"no","bench":"yes"},"geometry":{"type":"Point","coordinates":[-2.78914,51.33725]}},{"type":"Feature","properties":{"name":"Churchill Gate","highway":"bus_stop","bus":"yes","shelter":"yes","bench":"yes"},"geometry":{"type":"Point","coordinates":[-2.79239,51.3355]}},{"type":"Feature","properties":{"name":"Churchill Gate","highway":"bus_stop","bus":"yes","shelter":"no","bench":"no"},"geometry":{"type":"Point","coordinates":[-2.79347,51.33498]}},{"type":"Feature","properties":{"name":"Churchill Gate","highway":"bus_stop","shelter":"no","bench":"no"},"geometry":{"type":"Point","coordinates":[-2.79246,51.33489]}},{"type":"Feature","properties":{"name":"Churchill Gate","highway":"bus_stop","bus":"yes","shelter":"no","bench":"no"},"geometry":{"type":"Point","coordinates":[-2.79277,51.33461]}},{"type":"Feature","properties":{"name":"Blagdon Water Gardens","highway":"bus_stop"},"geometry":{"type":"Point","coordinates":[-2.76987,51.33176]}},{"type":"Feature","properties":{"name":"Blagdon Water Gardens","highway":"bus_stop"},"geometry":{"type":"Point","coordinates":[-2.76987,51.33199]}},{"type":"Feature","properties":{"name":"Station House","highway":"bus_stop","shelter":"no","bench":"no"},"geometry":{"type":"Point","coordinates":[-2.74493,51.33413]}},{"type":"Feature","properties":{"name":"Station House","highway":"bus_stop","shelter":"no","bench":"no"},"geometry":{"type":"Point","coordinates":[-2.74467,51.33414]}},{"type":"Feature","properties":{"name":"The Batch","highway":"bus_stop","bus":"yes","shelter":"no","bench":"no"},"geometry":{"type":"Point","coordinates":[-2.74053,51.33164]}},{"type":"Feature","properties":{"name":"The Batch","highway":"bus_stop","bus":"yes","shelter":"no","bench":"no"},"geometry":{"type":"Point","coordinates":[-2.74061,51.33156]}},{"type":"Feature","properties":{"name":"Burrington Turn","highway":"bus_stop"},"geometry":{"type":"Point","coordinates":[-2.7491,51.3309]}},{"type":"Feature","properties":{"name":"Rock of Ages","highway":"bus_stop"},"geometry":{"type":"Point","coordinates":[-2.75278,51.32591]}},{"type":"Feature","properties":{"name":"St Marys Gdns","highway":"bus_stop","bus":"yes","shelter":"yes","bench":"yes"},"geometry":{"type":"Point","coordinates":[-2.7823,51.34]}},{"type":"Feature","properties":{"name":"St Marys Gdns","highway":"bus_stop","bus":"yes","shelter":"no"},"geometry":{"type":"Point","coordinates":[-2.7821,51.33995]}},{"type":"Feature","properties":{"name":"Langford House","highway":"bus_stop","shelter":"no","bench":"no"},"geometry":{"type":"Point","coordinates":[-2.77585,51.34238]}},{"type":"Feature","properties":{"name":"Langford House","highway":"bus_stop","shelter":"no","bench":"no"},"geometry":{"type":"Point","coordinates":[-2.7758,51.34218]}},{"type":"Feature","properties":{"name":"Langford Post Office","highway":"bus_stop","bus":"yes","shelter":"no","bench":"no"},"geometry":{"type":"Point","coordinates":[-2.7718,51.34262]}},{"type":"Feature","properties":{"name":"Langford Post Office","highway":"bus_stop","shelter":"no","bench":"no"},"geometry":{"type":"Point","coordinates":[-2.77238,51.34261]}},{"type":"Feature","properties":{"name":"Greenwell Lane","highway":"bus_stop","shelter":"no","bench":"no"},"geometry":{"type":"Point","coordinates":[-2.77166,51.3461]}},{"type":"Feature","properties":{"name":"Greenwell Lane","highway":"bus_stop","shelter":"no","bench":"no"},"geometry":{"type":"Point","coordinates":[-2.77196,51.34608]}},{"type":"Feature","properties":{"name":"Churchill Sports Centre","highway":"bus_stop","bus":"yes","shelter":"no","bench":"no"},"geometry":{"type":"Point","coordinates":[-2.81208,51.33694]}},{"type":"Feature","properties":{"name":"Burrington School","highway":"bus_stop"},"geometry":{"type":"Point","coordinates":[-2.74885,51.33085]}},{"type":"Feature","properties":{"name":"The Triangle","highway":"bus_stop","bus":"yes"},"geometry":{"type":"Point","coordinates":[-2.83888,51.31408]}},{"type":"Feature","properties":{"name":"Rock of Ages","highway":"bus_stop"},"geometry":{"type":"Point","coordinates":[-2.75308,51.32596]}},{"type":"Feature","properties":{"name":"Garden Centre","highway":"bus_stop"},"geometry":{"type":"Point","coordinates":[-2.75271,51.32773]}},{"type":"Feature","properties":{"name":"Garden Centre","highway":"bus_stop"},"geometry":{"type":"Point","coordinates":[-2.75301,51.32767]}},{"type":"Feature","properties":{"name":"Car Park","highway":"bus_stop"},"geometry":{"type":"Point","coordinates":[-2.73405,51.31984]}},{"type":"Feature","properties":{"name":"Top Burrington Coombe","highway":"bus_stop"},"geometry":{"type":"Point","coordinates":[-2.73323,51.31896]}},{"type":"Feature","properties":{"amenity":"toilets"},"geometry":{"type":"Point","coordinates":[-2.83477,51.31458]}},{"type":"Feature","properties":{"amenity":"post_box","operator":"Royal Mail"},"geometry":{"type":"Point","coordinates":[-2.77362,51.27967]}},{"type":"Feature","properties":{"emergency":"assembly_point"},"geometry":{"type":"Point","coordinates":[-2.76534,51.28251]}},{"type":"Feature","properties":{"amenity":"post_box","operator":"Royal Mail"},"geometry":{"type":"Point","coordinates":[-2.76714,51.28185]}},{"type":"Feature","properties":{"name":"Town Hall","highway":"bus_stop","bus":"yes"},"geometry":{"type":"Point","coordinates":[-2.81723,51.28711]}},{"type":"Feature","properties":{"name":"Cross Lane","highway":"bus_stop","bus":"yes"},"geometry":{"type":"Point","coordinates":[-2.82495,51.28803]}},{"type":"Feature","properties":{"name":"Surgery","highway":"bus_stop","bus":"yes"},"geometry":{"type":"Point","coordinates":[-2.82068,51.28608]}},{"type":"Feature","properties":{"name":"Hippisley Drive Junction","highway":"bus_stop","bus":"yes"},"geometry":{"type":"Point","coordinates":[-2.81184,51.2871]}},{"type":"Feature","properties":{"name":"Cheddar Road","highway":"bus_stop","bus":"yes"},"geometry":{"type":"Point","coordinates":[-2.80507,51.28773]}},{"type":"Feature","properties":{"amenity":"post_box","operator":"Royal Mail"},"geometry":{"type":"Point","coordinates":[-2.81678,51.28719]}},{"type":"Feature","properties":{"name":"Parkfield Road Junction","highway":"bus_stop","bus":"yes"},"geometry":{"type":"Point","coordinates":[-2.81176,51.28705]}},{"type":"Feature","properties":{"name":"Cheddar Road","highway":"bus_stop","bus":"yes"},"geometry":{"type":"Point","coordinates":[-2.80434,51.28775]}},{"type":"Feature","properties":{"name":"Surgery","highway":"bus_stop","bus":"yes"},"geometry":{"type":"Point","coordinates":[-2.82052,51.28615]}},{"type":"Feature","properties":{"amenity":"post_box","operator":"Royal Mail"},"geometry":{"type":"Point","coordinates":[-2.83513,51.32085]}},{"type":"Feature","properties":{"amenity":"post_box","operator":"Royal Mail"},"geometry":{"type":"Point","coordinates":[-2.83122,51.31874]}},{"type":"Feature","properties":{"amenity":"post_box","operator":"Royal Mail"},"geometry":{"type":"Point","coordinates":[-2.83197,51.31353]}},{"type":"Feature","properties":{"highway":"bus_stop","shelter":"no","bench":"no"},"geometry":{"type":"Point","coordinates":[-2.76047,51.34107]}},{"type":"Feature","properties":{"highway":"bus_stop","shelter":"yes","bench":"no"},"geometry":{"type":"Point","coordinates":[-2.75975,51.34107]}},{"type":"Feature","properties":{"amenity":"toilets"},"geometry":{"type":"Point","coordinates":[-2.75269,51.32597]}},{"type":"Feature","properties":{"amenity":"bicycle_parking","covered":"no"},"geometry":{"type":"Point","coordinates":[-2.76649,51.28186]}},{"type":"Feature","properties":{"amenity":"post_box","operator":"Royal Mail"},"geometry":{"type":"Point","coordinates":[-2.82728,51.31303]}},{"type":"Feature","properties":{"name":"The Chestnuts","highway":"bus_stop","bus":"yes","shelter":"no","bench":"no","operator":"First"},"geometry":{"type":"Point","coordinates":[-2.83072,51.31318]}},{"type":"Feature","properties":{"name":"The Chestnuts","highway":"bus_stop","bus":"yes","shelter":"no","bench":"no","operator":"First"},"geometry":{"type":"Point","coordinates":[-2.83073,51.31324]}},{"type":"Feature","properties":{"amenity":"post_box","operator":"Royal Mail"},"geometry":{"type":"Point","coordinates":[-2.8369,51.28905]}},{"type":"Feature","properties":{"amenity":"bench"},"geometry":{"type":"Point","coordinates":[-2.83951,51.33178]}},{"type":"Feature","properties":{"amenity":"bicycle_parking","covered":"no"},"geometry":{"type":"Point","coordinates":[-2.83952,51.33181]}},{"type":"Feature","properties":{"amenity":"bench"},"geometry":{"type":"Point","coordinates":[-2.83803,51.32587]}},{"type":"Feature","properties":{"amenity":"bench"},"geometry":{"type":"Point","coordinates":[-2.80209,51.28748]}},{"type":"Feature","properties":{"amenity":"bench"},"geometry":{"type":"Point","coordinates":[-2.79138,51.2804]}},{"type":"Feature","properties":{"amenity":"bench"},"geometry":{"type":"Point","coordinates":[-2.79995,51.28674]}},{"type":"Feature","properties":{"amenity":"bench"},"geometry":{"type":"Point","coordinates":[-2.79799,51.28573]}},{"type":"Feature","properties":{"amenity":"bench"},"geometry":{"type":"Point","coordinates":[-2.81735,51.28728]}},{"type":"Feature","properties":{"amenity":"bench"},"geometry":{"type":"Point","coordinates":[-2.81728,51.28728]}},{"type":"Feature","properties":{"amenity":"bicycle_parking","covered":"no"},"geometry":{"type":"Point","coordinates":[-2.81731,51.28728]}},{"type":"Feature","properties":{"amenity":"post_box","operator":"Royal Mail"},"geometry":{"type":"Point","coordinates":[-2.7284,51.34572]}},{"type":"Feature","properties":{"amenity":"post_box","operator":"Royal Mail"},"geometry":{"type":"Point","coordinates":[-2.78992,51.32066]}},{"type":"Feature","properties":{"amenity":"post_box","operator":"Royal Mail"},"geometry":{"type":"Point","coordinates":[-2.78164,51.3403]}},{"type":"Feature","properties":{"amenity":"post_box","operator":"Royal Mail"},"geometry":{"type":"Point","coordinates":[-2.76061,51.34077]}},{"type":"Feature","properties":{"amenity":"post_box","operator":"Royal Mail"},"geometry":{"type":"Point","coordinates":[-2.75236,51.32847]}},{"type":"Feature","properties":{"amenity":"bench"},"geometry":{"type":"Point","coordinates":[-2.77344,51.27979]}},{"type":"Feature","properties":{"amenity":"waste_basket"},"geometry":{"type":"Point","coordinates":[-2.77343,51.27974]}},{"type":"Feature","properties":{"amenity":"bench"},"geometry":{"type":"Point","coordinates":[-2.7705,51.28134]}},{"type":"Feature","properties":{"amenity":"bench"},"geometry":{"type":"Point","coordinates":[-2.82885,51.29073]}},{"type":"Feature","properties":{"amenity":"waste_basket"},"geometry":{"type":"Point","coordinates":[-2.8274,51.28961]}},{"type":"Feature","properties":{"amenity":"waste_basket"},"geometry":{"type":"Point","coordinates":[-2.82697,51.2894]}},{"type":"Feature","properties":{"amenity":"waste_basket"},"geometry":{"type":"Point","coordinates":[-2.81601,51.28633]}},{"type":"Feature","properties":{"amenity":"waste_basket"},"geometry":{"type":"Point","coordinates":[-2.81516,51.28644]}},{"type":"Feature","properties":{"amenity":"telephone","man_made":"telephone_box","emergency":"defibrillator","covered":"booth","access":"yes"},"geometry":{"type":"Point","coordinates":[-2.83755,51.2888]}},{"type":"Feature","properties":{"amenity":"bench"},"geometry":{"type":"Point","coordinates":[-2.83744,51.28883]}},{"type":"Feature","properties":{"amenity":"waste_basket"},"geometry":{"type":"Point","coordinates":[-2.83616,51.28919]}},{"type":"Feature","properties":{"amenity":"bench"},"geometry":{"type":"Point","coordinates":[-2.73932,51.32543]}},{"type":"Feature","properties":{"amenity":"waste_basket"},"geometry":{"type":"Point","coordinates":[-2.79229,51.33809]}},{"type":"Feature","properties":{"amenity":"waste_basket"},"geometry":{"type":"Point","coordinates":[-2.78924,51.33958]}},{"type":"Feature","properties":{"amenity":"post_box","operator":"Royal Mail"},"geometry":{"type":"Point","coordinates":[-2.78758,51.34101]}},{"type":"Feature","properties":{"amenity":"post_box","operator":"Royal Mail"},"geometry":{"type":"Point","coordinates":[-2.79167,51.33607]}},{"type":"Feature","properties":{"amenity":"waste_basket"},"geometry":{"type":"Point","coordinates":[-2.78796,51.34076]}},{"type":"Feature","properties":{"amenity":"public_bookcase","man_made":"telephone_box"},"geometry":{"type":"Point","coordinates":[-2.79861,51.31394]}},{"type":"Feature","properties":{"amenity":"post_box","operator":"Royal Mail"},"geometry":{"type":"Point","coordinates":[-2.79861,51.31396]}},{"type":"Feature","properties":{"name":"Tweentown (East Bound)","highway":"bus_stop","bus":"yes","shelter":"yes","bench":"yes"},"geometry":{"type":"Point","coordinates":[-2.77457,51.27944]}},{"type":"Feature","properties":{"name":"Tweentown (West bound)","highway":"bus_stop","bus":"yes","shelter":"no","bench":"yes"},"geometry":{"type":"Point","coordinates":[-2.77481,51.27934]}},{"type":"Feature","properties":{"name":"Greenhill House (South East Bound)","highway":"bus_stop","bus":"yes","shelter":"no","bench":"no"},"geometry":{"type":"Point","coordinates":[-2.77902,51.28022]}},{"type":"Feature","properties":{"name":"Greenhill House (North West Bound)","highway":"bus_stop","bus":"yes","shelter":"no"},"geometry":{"type":"Point","coordinates":[-2.77894,51.28012]}},{"type":"Feature","properties":{"amenity":"waste_basket"},"geometry":{"type":"Point","coordinates":[-2.78031,51.28025]}},{"type":"Feature","properties":{"amenity":"bench"},"geometry":{"type":"Point","coordinates":[-2.78025,51.28029]}},{"type":"Feature","properties":{"amenity":"waste_basket"},"geometry":{"type":"Point","coordinates":[-2.77408,51.27911]}},{"type":"Feature","properties":{"amenity":"waste_basket"},"geometry":{"type":"Point","coordinates":[-2.77337,51.27968]}},{"type":"Feature","properties":{"amenity":"bicycle_parking"},"geometry":{"type":"Point","coordinates":[-2.77417,51.27944]}},{"type":"Feature","properties":{"amenity":"waste_basket"},"geometry":{"type":"Point","coordinates":[-2.77419,51.2795]}},{"type":"Feature","properties":{"amenity":"bench"},"geometry":{"type":"Point","coordinates":[-2.77422,51.2795]}},{"type":"Feature","properties":{"amenity":"bench"},"geometry":{"type":"Point","coordinates":[-2.77432,51.27948]}},{"type":"Feature","properties":{"amenity":"bench"},"geometry":{"type":"Point","coordinates":[-2.77445,51.27947]}},{"type":"Feature","properties":{"amenity":"bench"},"geometry":{"type":"Point","coordinates":[-2.77449,51.27946]}},{"type":"Feature","properties":{"amenity":"bench"},"geometry":{"type":"Point","coordinates":[-2.77338,51.28147]}},{"type":"Feature","properties":{"amenity":"waste_basket"},"geometry":{"type":"Point","coordinates":[-2.77335,51.28146]}},{"type":"Feature","properties":{"name":"St John Ambulance (Cheddar Division)","emergency":"ambulance_station","operator":"St John Ambulance"},"geometry":{"type":"Point","coordinates":[-2.77316,51.28084]}},{"type":"Feature","properties":{"amenity":"post_box"},"geometry":{"type":"Point","coordinates":[-2.77375,51.28205]}},{"type":"Feature","properties":{"amenity":"bicycle_parking","operator":"Railway Inn","access":"permissive"},"geometry":{"type":"Point","coordinates":[-2.83488,51.33305]}},{"type":"Feature","properties":{"amenity":"toilets","access":"customers"},"geometry":{"type":"Point","coordinates":[-2.83225,51.33284]}},{"type":"Feature","properties":{"amenity":"bench"},"geometry":{"type":"Point","coordinates":[-2.78251,51.33999]}},{"type":"Feature","properties":{"amenity":"waste_basket"},"geometry":{"type":"Point","coordinates":[-2.78253,51.33999]}},{"type":"Feature","properties":{"amenity":"telephone","man_made":"telephone_box","emergency":"defibrillator","covered":"booth"},"geometry":{"type":"Point","coordinates":[-2.74899,51.33117]}},{"type":"Feature","properties":{"amenity":"bench"},"geometry":{"type":"Point","coordinates":[-2.74897,51.33116]}},{"type":"Feature","properties":{"amenity":"post_box"},"geometry":{"type":"Point","coordinates":[-2.74893,51.33116]}},{"type":"Feature","properties":{"amenity":"post_box"},"geometry":{"type":"Point","coordinates":[-2.78018,51.28031]}},{"type":"Feature","properties":{"amenity":"toilets"},"geometry":{"type":"Point","coordinates":[-2.84692,51.28156]}},{"type":"Feature","properties":{"amenity":"toilets","access":"customers"},"geometry":{"type":"Point","coordinates":[-2.79648,51.30536]}},{"type":"Feature","properties":{"amenity":"toilets","access":"customers"},"geometry":{"type":"Point","coordinates":[-2.79643,51.30536]}},{"type":"Feature","properties":{"amenity":"bench"},"geometry":{"type":"Point","coordinates":[-2.81153,51.28704]}},{"type":"Feature","properties":{"name":"Book Box","amenity":"public_bookcase","man_made":"telephone_box"},"geometry":{"type":"Point","coordinates":[-2.80514,51.33565]}},{"type":"Feature","properties":{"amenity":"public_bookcase","man_made":"telephone_box"},"geometry":{"type":"Point","coordinates":[-2.82613,51.33323]}},{"type":"Feature","properties":{"amenity":"post_box"},"geometry":{"type":"Point","coordinates":[-2.82611,51.3332]}},{"type":"Feature","properties":{"amenity":"toilets"},"geometry":{"type":"Point","coordinates":[-2.85422,51.32333]}},{"type":"Feature","properties":{"emergency":"defibrillator"},"geometry":{"type":"Point","coordinates":[-2.77376,51.27916]}},{"type":"Feature","properties":{"amenity":"post_box","operator":"Royal Mail"},"geometry":{"type":"Point","coordinates":[-2.80309,51.28805]}},{"type":"Feature","properties":{"amenity":"post_box","operator":"Royal Mail"},"geometry":{"type":"Point","coordinates":[-2.82604,51.30627]}},{"type":"Feature","properties":{"amenity":"post_box","operator":"Royal Mail"},"geometry":{"type":"Point","coordinates":[-2.83431,51.31458]}},{"type":"Feature","properties":{"amenity":"bicycle_parking","covered":"yes","access":"yes"},"geometry":{"type":"Point","coordinates":[-2.77994,51.34452]}},{"type":"Feature","properties":{"amenity":"bicycle_parking","covered":"yes"},"geometry":{"type":"Point","coordinates":[-2.78011,51.34507]}},{"type":"Feature","properties":{"name":"Langford Campus","highway":"bus_stop","bus":"yes","shelter":"no"},"geometry":{"type":"Point","coordinates":[-2.77945,51.34505]}},{"type":"Feature","properties":{"amenity":"post_box","operator":"Royal Mail"},"geometry":{"type":"Point","coordinates":[-2.80013,51.31018]}},{"type":"Feature","properties":{"amenity":"telephone","man_made":"telephone_box","emergency":"defibrillator","covered":"booth","access":"yes"},"geometry":{"type":"Point","coordinates":[-2.79224,51.28915]}},{"type":"Feature","properties":{"amenity":"bicycle_parking","covered":"no"},"geometry":{"type":"Point","coordinates":[-2.79222,51.28913]}},{"type":"Feature","properties":{"amenity":"bench"},"geometry":{"type":"Point","coordinates":[-2.73729,51.28895]}},{"type":"Feature","properties":{"amenity":"toilets"},"geometry":{"type":"Point","coordinates":[-2.81705,51.28669]}},{"type":"Feature","properties":{"amenity":"drinking_water"},"geometry":{"type":"Point","coordinates":[-2.81702,51.28669]}},{"type":"Feature","properties":{"amenity":"waste_basket"},"geometry":{"type":"Point","coordinates":[-2.76973,51.28047]}},{"type":"Feature","properties":{"amenity":"waste_basket"},"geometry":{"type":"Point","coordinates":[-2.77261,51.28008]}},{"type":"Feature","properties":{"amenity":"waste_basket"},"geometry":{"type":"Point","coordinates":[-2.77248,51.28064]}},{"type":"Feature","properties":{"amenity":"waste_basket"},"geometry":{"type":"Point","coordinates":[-2.77244,51.28056]}},{"type":"Feature","properties":{"amenity":"waste_basket"},"geometry":{"type":"Point","coordinates":[-2.7725,51.28059]}},{"type":"Feature","properties":{"amenity":"waste_basket"},"geometry":{"type":"Point","coordinates":[-2.7724,51.28062]}},{"type":"Feature","properties":{"amenity":"waste_basket"},"geometry":{"type":"Point","coordinates":[-2.77166,51.28103]}},{"type":"Feature","properties":{"amenity":"waste_basket"},"geometry":{"type":"Point","coordinates":[-2.77231,51.28075]}},{"type":"Feature","properties":{"amenity":"waste_basket"},"geometry":{"type":"Point","coordinates":[-2.76992,51.2816]}},{"type":"Feature","properties":{"amenity":"bench"},"geometry":{"type":"Point","coordinates":[-2.77078,51.28128]}},{"type":"Feature","properties":{"amenity":"waste_basket"},"geometry":{"type":"Point","coordinates":[-2.77072,51.28121]}},{"type":"Feature","properties":{"name":"Gough's Cave","highway":"bus_stop","bus":"yes","shelter":"no","bench":"yes"},"geometry":{"type":"Point","coordinates":[-2.76574,51.282]}},{"type":"Feature","properties":{"amenity":"bench"},"geometry":{"type":"Point","coordinates":[-2.76533,51.28264]}},{"type":"Feature","properties":{"amenity":"waste_basket"},"geometry":{"type":"Point","coordinates":[-2.77302,51.27983]}},{"type":"Feature","properties":{"amenity":"post_box","operator":"Royal Mail"},"geometry":{"type":"Point","coordinates":[-2.76775,51.3317]}},{"type":"Feature","properties":{"emergency":"defibrillator","access":"yes"},"geometry":{"type":"Point","coordinates":[-2.77134,51.34266]}},{"type":"Feature","properties":{"amenity":"bench"},"geometry":{"type":"Point","coordinates":[-2.77186,51.34261]}},{"type":"Feature","properties":{"amenity":"waste_basket"},"geometry":{"type":"Point","coordinates":[-2.77182,51.34262]}},{"type":"Feature","properties":{"amenity":"post_box","operator":"Royal Mail"},"geometry":{"type":"Point","coordinates":[-2.77184,51.34261]}},{"type":"Feature","properties":{"name":"Star, Broadway Junction","highway":"bus_stop","bus":"yes","shelter":"no","bench":"no"},"geometry":{"type":"Point","coordinates":[-2.8103,51.32019]}},{"type":"Feature","properties":{"name":"Star, Bus Shelter","highway":"bus_stop","bus":"yes","shelter":"no"},"geometry":{"type":"Point","coordinates":[-2.81122,51.31933]}},{"type":"Feature","properties":{"emergency":"defibrillator","access":"yes"},"geometry":{"type":"Point","coordinates":[-2.83375,51.31604]}},{"type":"Feature","properties":{"amenity":"post_box","operator":"Royal Mail"},"geometry":{"type":"Point","coordinates":[-2.82059,51.28607]}},{"type":"Feature","properties":{"amenity":"post_box","operator":"Royal Mail"},"geometry":{"type":"Point","coordinates":[-2.82041,51.2876]}},{"type":"Feature","properties":{"amenity":"bench"},"geometry":{"type":"Point","coordinates":[-2.7984,51.31435]}},{"type":"Feature","properties":{"amenity":"bench"},"geometry":{"type":"Point","coordinates":[-2.76988,51.28108]}},{"type":"Feature","properties":{"amenity":"bench"},"geometry":{"type":"Point","coordinates":[-2.76983,51.28092]}},{"type":"Feature","properties":{"amenity":"bench"},"geometry":{"type":"Point","coordinates":[-2.76978,51.28077]}},{"type":"Feature","properties":{"amenity":"bicycle_parking","covered":"no"},"geometry":{"type":"Point","coordinates":[-2.83927,51.33192]}},{"type":"Feature","properties":{"amenity":"bicycle_parking"},"geometry":{"type":"Point","coordinates":[-2.83216,51.31007]}},{"type":"Feature","properties":{"amenity":"bench"},"geometry":{"type":"Point","coordinates":[-2.83095,51.34749]}},{"type":"Feature","properties":{"amenity":"bench"},"geometry":{"type":"Point","coordinates":[-2.83907,51.33006]}},{"type":"Feature","properties":{"amenity":"bench"},"geometry":{"type":"Point","coordinates":[-2.83899,51.3298]}},{"type":"Feature","properties":{"amenity":"bench"},"geometry":{"type":"Point","coordinates":[-2.83887,51.3299]}},{"type":"Feature","properties":{"amenity":"bench"},"geometry":{"type":"Point","coordinates":[-2.83806,51.32597]}},{"type":"Feature","properties":{"amenity":"waste_basket"},"geometry":{"type":"Point","coordinates":[-2.83704,51.32202]}},{"type":"Feature","properties":{"amenity":"waste_basket"},"geometry":{"type":"Point","coordinates":[-2.83678,51.32044]}},{"type":"Feature","properties":{"amenity":"bench"},"geometry":{"type":"Point","coordinates":[-2.83555,51.31668]}},{"type":"Feature","properties":{"amenity":"bench"},"geometry":{"type":"Point","coordinates":[-2.83525,51.31618]}},{"type":"Feature","properties":{"amenity":"bench"},"geometry":{"type":"Point","coordinates":[-2.83539,51.31611]}},{"type":"Feature","properties":{"amenity":"bench"},"geometry":{"type":"Point","coordinates":[-2.83519,51.31605]}},{"type":"Feature","properties":{"amenity":"bench"},"geometry":{"type":"Point","coordinates":[-2.8353,51.31577]}},{"type":"Feature","properties":{"amenity":"bench"},"geometry":{"type":"Point","coordinates":[-2.83517,51.31586]}},{"type":"Feature","properties":{"amenity":"bench"},"geometry":{"type":"Point","coordinates":[-2.8351,51.31511]}},{"type":"Feature","properties":{"amenity":"bench"},"geometry":{"type":"Point","coordinates":[-2.83507,51.31501]}},{"type":"Feature","properties":{"amenity":"bench"},"geometry":{"type":"Point","coordinates":[-2.83504,51.31492]}},{"type":"Feature","properties":{"amenity":"bench"},"geometry":{"type":"Point","coordinates":[-2.8321,51.31]}},{"type":"Feature","properties":{"amenity":"bench"},"geometry":{"type":"Point","coordinates":[-2.83093,51.30654]}},{"type":"Feature","properties":{"amenity":"bench"},"geometry":{"type":"Point","coordinates":[-2.83086,51.2962]}},{"type":"Feature","properties":{"amenity":"bicycle_parking"},"geometry":{"type":"Point","coordinates":[-2.82909,51.29107]}},{"type":"Feature","properties":{"amenity":"bicycle_parking"},"geometry":{"type":"Point","coordinates":[-2.82907,51.29105]}},{"type":"Feature","properties":{"amenity":"waste_basket"},"geometry":{"type":"Point","coordinates":[-2.80352,51.28784]}},{"type":"Feature","properties":{"amenity":"bench"},"geometry":{"type":"Point","coordinates":[-2.79906,51.2863]}},{"type":"Feature","properties":{"amenity":"bench"},"geometry":{"type":"Point","coordinates":[-2.79797,51.28571]}},{"type":"Feature","properties":{"amenity":"bench"},"geometry":{"type":"Point","coordinates":[-2.79672,51.28512]}},{"type":"Feature","properties":{"amenity":"bench"},"geometry":{"type":"Point","coordinates":[-2.79575,51.2844]}},{"type":"Feature","properties":{"amenity":"waste_basket"},"geometry":{"type":"Point","coordinates":[-2.79256,51.28141]}},{"type":"Feature","properties":{"amenity":"waste_basket"},"geometry":{"type":"Point","coordinates":[-2.79261,51.28142]}},{"type":"Feature","properties":{"amenity":"bench"},"geometry":{"type":"Point","coordinates":[-2.79967,51.334]}},{"type":"Feature","properties":{"amenity":"bench"},"geometry":{"type":"Point","coordinates":[-2.79994,51.33401]}},{"type":"Feature","properties":{"amenity":"toilets"},"geometry":{"type":"Polygon","coordinates":[[[-2.77088,51.28147],[-2.77074,51.28151],[-2.77069,51.28144],[-2.77083,51.2814],[-2.77088,51.28147]]]}},{"type":"Feature","properties":{"name":"Churchill Ambulance Station","emergency":"ambulance_station"},"geometry":{"type":"Polygon","coordinates":[[[-2.79318,51.33593],[-2.79331,51.33608],[-2.7932,51.33612],[-2.79307,51.33596],[-2.79303,51.33597],[-2.79298,51.33591],[-2.79315,51.33586],[-2.79321,51.33592],[-2.79318,51.33593]]]}},{"type":"Feature","properties":{"name":"Mendip Vale Medical Group","amenity":"clinic","emergency":"no"},"geometry":{"type":"LineString","coordinates":[[-2.78894,51.34184],[-2.78807,51.3418],[-2.78795,51.34143],[-2.78785,51.34111],[-2.78869,51.34114],[-2.78892,51.34177],[-2.78894,51.34184]]}},{"type":"Feature","properties":{"amenity":"toilets"},"geometry":{"type":"Polygon","coordinates":[[[-2.81567,51.32847],[-2.81562,51.32855],[-2.81537,51.32848],[-2.81543,51.32841],[-2.81567,51.32847]]]}}]}