{"type":"FeatureCollection","features":[{"type":"Feature","properties":{"name":"Shipham","place":"village","img":"https://thumb.wikimedia.org/wikipedia/commons/thumb/0/0a/Shipham.jpg/330px-Shipham.jpg?utm_source=en.wikipedia.org&utm_campaign=api&utm_content=thumbnail","imgBy":"Wikipedia: Shipham","imgLic":"see Wikipedia"},"geometry":{"type":"Point","coordinates":[-2.79874,51.31376]}},{"type":"Feature","properties":{"name":"Burrington","place":"village","img":"https://thumb.wikimedia.org/wikipedia/commons/thumb/b/b0/Burrignton_church.jpg/330px-Burrignton_church.jpg?utm_source=en.wikipedia.org&utm_campaign=api&utm_content=thumbnail","imgBy":"Wikipedia: Burrington, Somerset","imgLic":"see Wikipedia"},"geometry":{"type":"Point","coordinates":[-2.7497,51.33071]}},{"type":"Feature","properties":{"name":"Churchill","place":"village","img":"https://thumb.wikimedia.org/wikipedia/commons/thumb/9/9f/View_from_the_Iron_Age_hillfort_at_Dolebury_Warren_%28geograph_2099499%29.jpg/330px-View_from_the_Iron_Age_hillfort_at_Dolebury_Warren_%28geograph_2099499%29.jpg?utm_source=en.wikipedia.org&utm_campaign=api&utm_content=thumbnail","imgBy":"Wikipedia: Churchill, Somerset","imgLic":"see Wikipedia"},"geometry":{"type":"Point","coordinates":[-2.79423,51.33445]}},{"type":"Feature","properties":{"name":"Rickford","place":"village"},"geometry":{"type":"Point","coordinates":[-2.73937,51.33169]}},{"type":"Feature","properties":{"name":"Star","place":"village"},"geometry":{"type":"Point","coordinates":[-2.80596,51.32148]}},{"type":"Feature","properties":{"name":"Lower Weare","place":"village"},"geometry":{"type":"Point","coordinates":[-2.85006,51.28054]}},{"type":"Feature","properties":{"name":"Lower Langford","place":"village"},"geometry":{"type":"Point","coordinates":[-2.76984,51.34372]}},{"type":"Feature","properties":{"name":"Honey Hall","place":"hamlet"},"geometry":{"type":"Point","coordinates":[-2.81475,51.34778]}},{"type":"Feature","properties":{"name":"Dinghurst","place":"hamlet"},"geometry":{"type":"Point","coordinates":[-2.7923,51.33191]}},{"type":"Feature","properties":{"name":"Green Hill","place":"hamlet"},"geometry":{"type":"Point","coordinates":[-2.82402,51.33909]}},{"type":"Feature","properties":{"name":"Churchill Green","place":"hamlet"},"geometry":{"type":"Point","coordinates":[-2.81843,51.33866]}},{"type":"Feature","properties":{"name":"Sandford","place":"village"},"geometry":{"type":"Point","coordinates":[-2.82956,51.332]}},{"type":"Feature","properties":{"name":"Towerhead","place":"hamlet"},"geometry":{"type":"Point","coordinates":[-2.84694,51.33046]}},{"type":"Feature","properties":{"name":"Sandford Batch","place":"hamlet"},"geometry":{"type":"Point","coordinates":[-2.83561,51.32472]}},{"type":"Feature","properties":{"name":"Sidcot","place":"hamlet"},"geometry":{"type":"Point","coordinates":[-2.82067,51.31254]}},{"type":"Feature","properties":{"name":"Winscombe","place":"village"},"geometry":{"type":"Point","coordinates":[-2.83346,51.31394]}},{"type":"Feature","properties":{"name":"Hale Coombe","place":"hamlet"},"geometry":{"type":"Point","coordinates":[-2.82179,51.30519]}},{"type":"Feature","properties":{"name":"Mooseheart","place":"hamlet"},"geometry":{"type":"Point","coordinates":[-2.84187,51.31603]}},{"type":"Feature","properties":{"name":"Upper Langford","place":"hamlet"},"geometry":{"type":"Point","coordinates":[-2.76658,51.3314]}},{"type":"Feature","properties":{"name":"Cross","place":"village"},"geometry":{"type":"Point","coordinates":[-2.84077,51.28941]}},{"type":"Feature","properties":{"name":"Weare Bridge","place":"locality"},"geometry":{"type":"Point","coordinates":[-2.85238,51.27968]}},{"type":"Feature","properties":{"name":"Towerbrook","place":"farm"},"geometry":{"type":"Point","coordinates":[-2.85224,51.33114]}},{"type":"Feature","properties":{"name":"Towerhead Farm","place":"farm"},"geometry":{"type":"Point","coordinates":[-2.85121,51.33173]}},{"type":"Feature","properties":{"name":"Rowberrow","place":"hamlet","wikipedia":"en:Rowberrow","img":"https://thumb.wikimedia.org/wikipedia/commons/thumb/9/9a/In_Rowberrow_Bottom%2C_Shipham%2C_Mendips_-_geograph.org.uk_-_996809.jpg/330px-In_Rowberrow_Bottom%2C_Shipham%2C_Mendips_-_geograph.org.uk_-_996809.jpg?utm_source=commons.wikimedia.org&utm_campaign=imageinfo&utm_content=thumbnail","imgBy":"Clive Perrin","imgLic":"CC BY-SA 2.0"},"geometry":{"type":"Point","coordinates":[-2.78901,51.32021]}},{"type":"Feature","properties":{"name":"Cross Plain","place":"locality","img":"https://thumb.wikimedia.org/wikipedia/commons/thumb/0/0c/Cross_Plain_-_geograph.org.uk_-_1888744.jpg/330px-Cross_Plain_-_geograph.org.uk_-_1888744.jpg?utm_source=commons.wikimedia.org&utm_campaign=imageinfo&utm_content=thumbnail","imgBy":"Derek Harper","imgLic":"CC BY-SA 2.0"},"geometry":{"type":"Point","coordinates":[-2.84251,51.29816]}},{"type":"Feature","properties":{"name":"Langford","place":"village","img":"https://thumb.wikimedia.org/wikipedia/commons/thumb/d/d5/Entering_Langford_-_geograph.org.uk_-_4251804.jpg/330px-Entering_Langford_-_geograph.org.uk_-_4251804.jpg?utm_source=commons.wikimedia.org&utm_campaign=imageinfo&utm_content=thumbnail","imgBy":"JThomas","imgLic":"CC BY-SA 2.0"},"geometry":{"type":"Point","coordinates":[-2.78566,51.33816]}},{"type":"Feature","properties":{"name":"Wellington Farm","place":"farm","img":"https://thumb.wikimedia.org/wikipedia/commons/thumb/3/3d/Cliff_Road_%28B3135%29_near_Wellington_Farm_-_geograph.org.uk_-_3802405.jpg/330px-Cliff_Road_%28B3135%29_near_Wellington_Farm_-_geograph.org.uk_-_3802405.jpg?utm_source=commons.wikimedia.org&utm_campaign=imageinfo&utm_content=thumbnail","imgBy":"David Dixon","imgLic":"CC BY-SA 2.0"},"geometry":{"type":"Point","coordinates":[-2.73345,51.28163]}},{"type":"Feature","properties":{"name":"Black Down","natural":"hill","place":"locality"},"geometry":{"type":"Point","coordinates":[-2.74175,51.31156]}},{"type":"Feature","properties":{"name":"Mead Farm","place":"farm"},"geometry":{"type":"LineString","coordinates":[[-2.84242,51.33558],[-2.8415,51.33595],[-2.84111,51.33558],[-2.84198,51.33518],[-2.84242,51.33558]]}}]}