{"type":"FeatureCollection","features":[{"type":"Feature","properties":{"natural":"cave_entrance"},"geometry":{"type":"Point","coordinates":[-2.75133,51.28747]}},{"type":"Feature","properties":{"natural":"cave_entrance"},"geometry":{"type":"Point","coordinates":[-2.7633,51.28301]}},{"type":"Feature","properties":{"name":"Gough's Cave","natural":"cave_entrance","wikipedia":"en:Gough's Cave"},"geometry":{"type":"Point","coordinates":[-2.76556,51.28196]}},{"type":"Feature","properties":{"name":"Cox's Cave and The Crystal Quest","natural":"cave_entrance","wikipedia":"en:Cox's Cave"},"geometry":{"type":"Point","coordinates":[-2.76893,51.28174]}},{"type":"Feature","properties":{"name":"Charterhouse Cave","natural":"cave_entrance"},"geometry":{"type":"Point","coordinates":[-2.75092,51.30257]}},{"type":"Feature","properties":{"name":"Tyning's Barrows Swallet","natural":"cave_entrance"},"geometry":{"type":"Point","coordinates":[-2.7599,51.30412]}},{"type":"Feature","properties":{"name":"East Twin Swallet","natural":"cave_entrance"},"geometry":{"type":"Point","coordinates":[-2.74832,51.31956]}},{"type":"Feature","properties":{"name":"Read's Cavern","natural":"cave_entrance"},"geometry":{"type":"Point","coordinates":[-2.76459,51.32251]}},{"type":"Feature","properties":{"name":"Bos Swallet","natural":"cave_entrance"},"geometry":{"type":"Point","coordinates":[-2.7607,51.3219]}},{"type":"Feature","properties":{"name":"Goatchurch Cavern","natural":"cave_entrance"},"geometry":{"type":"Point","coordinates":[-2.75377,51.32079]}},{"type":"Feature","properties":{"name":"Sidcot Swallet","natural":"cave_entrance"},"geometry":{"type":"Point","coordinates":[-2.75402,51.32124]}},{"type":"Feature","properties":{"name":"Pierre's Pot","natural":"cave_entrance"},"geometry":{"type":"Point","coordinates":[-2.7529,51.32201]}},{"type":"Feature","properties":{"name":"Lionel's Hole","natural":"cave_entrance"},"geometry":{"type":"Point","coordinates":[-2.74817,51.32074]}},{"type":"Feature","properties":{"name":"Bath Swallet","natural":"cave_entrance"},"geometry":{"type":"Point","coordinates":[-2.75836,51.32269]}},{"type":"Feature","properties":{"name":"Rod's Pot","natural":"cave_entrance"},"geometry":{"type":"Point","coordinates":[-2.75903,51.32247]}},{"type":"Feature","properties":{"name":"Drunkard's Hole","natural":"cave_entrance"},"geometry":{"type":"Point","coordinates":[-2.75995,51.32224]}},{"type":"Feature","properties":{"name":"Shute Shelve Cavern","natural":"cave_entrance"},"geometry":{"type":"Point","coordinates":[-2.82762,51.29435]}},{"type":"Feature","properties":{"name":"Sandford Levvy","natural":"cave_entrance"},"geometry":{"type":"Point","coordinates":[-2.82103,51.33041]}},{"type":"Feature","properties":{"name":"Blackmoor Swallet","natural":"cave_entrance"},"geometry":{"type":"Point","coordinates":[-2.71079,51.29652]}},{"type":"Feature","properties":{"name":"Upper Flood Swallet","natural":"cave_entrance"},"geometry":{"type":"Point","coordinates":[-2.71038,51.29886]}},{"type":"Feature","properties":{"name":"Pinetree Pot","natural":"cave_entrance"},"geometry":{"type":"Point","coordinates":[-2.69053,51.29889]}},{"type":"Feature","properties":{"name":"Dolebury Levvy (mine)","natural":"cave_entrance"},"geometry":{"type":"Point","coordinates":[-2.78878,51.32495]}},{"type":"Feature","properties":{"name":"Longwood Swallet","natural":"cave_entrance"},"geometry":{"type":"Point","coordinates":[-2.73852,51.29829]}},{"type":"Feature","properties":{"name":"Rhino Rift","natural":"cave_entrance"},"geometry":{"type":"Point","coordinates":[-2.74057,51.2969]}},{"type":"Feature","properties":{"name":"GB cave","natural":"cave_entrance"},"geometry":{"type":"Point","coordinates":[-2.75301,51.30277]}},{"type":"Feature","properties":{"name":"Priddy Green Sink","natural":"cave_entrance"},"geometry":{"type":"Point","coordinates":[-2.67908,51.25716]}},{"type":"Feature","properties":{"name":"Swildon's Hole Cavern","natural":"cave_entrance","wikipedia":"en:Swildon's Hole"},"geometry":{"type":"Point","coordinates":[-2.67315,51.2589]}},{"type":"Feature","properties":{"name":"Sludge Pit Hole","natural":"cave_entrance"},"geometry":{"type":"Point","coordinates":[-2.66505,51.25856]}},{"type":"Feature","properties":{"natural":"cave_entrance"},"geometry":{"type":"Point","coordinates":[-2.7532,51.3219]}},{"type":"Feature","properties":{"name":"Aveline's Hole","natural":"cave_entrance"},"geometry":{"type":"Point","coordinates":[-2.75331,51.3247]}},{"type":"Feature","properties":{"name":"Carcass Cave","natural":"cave_entrance"},"geometry":{"type":"Point","coordinates":[-2.82762,51.29389]}},{"type":"Feature","properties":{"name":"Waterwheel Swallet","natural":"cave_entrance"},"geometry":{"type":"Point","coordinates":[-2.71164,51.29762]}},{"type":"Feature","properties":{"name":"Bone Cave","natural":"cave_entrance","access":"permissive"},"geometry":{"type":"Point","coordinates":[-2.88795,51.32495]}},{"type":"Feature","properties":{"name":"Mangle Hole","natural":"cave_entrance"},"geometry":{"type":"Point","coordinates":[-2.82505,51.32977]}},{"type":"Feature","properties":{"name":"White Cliff Cave","natural":"cave_entrance"},"geometry":{"type":"Point","coordinates":[-2.8492,51.29554]}},{"type":"Feature","properties":{"name":"Manor Farm Swallet","natural":"cave_entrance"},"geometry":{"type":"Point","coordinates":[-2.72113,51.29791]}},{"type":"Feature","properties":{"name":"Foxes Hole","natural":"cave_entrance"},"geometry":{"type":"Point","coordinates":[-2.74409,51.32066]}},{"type":"Feature","properties":{"name":"Denny's Hole","natural":"cave_entrance"},"geometry":{"type":"Point","coordinates":[-2.86662,51.29069]}},{"type":"Feature","properties":{"name":"Barton Cave","natural":"cave_entrance"},"geometry":{"type":"Point","coordinates":[-2.86904,51.30315]}},{"type":"Feature","properties":{"name":"Bleadon Cavern","natural":"cave_entrance","access":"permissive"},"geometry":{"type":"Point","coordinates":[-2.91892,51.31875]}},{"type":"Feature","properties":{"name":"various caves","natural":"cave_entrance"},"geometry":{"type":"Point","coordinates":[-2.91938,51.31917]}},{"type":"Feature","properties":{"name":"Triple Hole","natural":"cave_entrance"},"geometry":{"type":"Point","coordinates":[-2.82401,51.32769]}},{"type":"Feature","properties":{"name":"Sandy Hole","natural":"cave_entrance"},"geometry":{"type":"Point","coordinates":[-2.86534,51.29026]}},{"type":"Feature","properties":{"name":"Coral Cave","natural":"cave_entrance"},"geometry":{"type":"Point","coordinates":[-2.85199,51.29315]}},{"type":"Feature","properties":{"name":"Bake Hole","natural":"cave_entrance","ele":"111"},"geometry":{"type":"Point","coordinates":[-2.76652,51.28457]}},{"type":"Feature","properties":{"natural":"cave_entrance"},"geometry":{"type":"Point","coordinates":[-2.76631,51.28152]}},{"type":"Feature","properties":{"natural":"cave_entrance"},"geometry":{"type":"Point","coordinates":[-2.89908,51.29934]}},{"type":"Feature","properties":{"name":"Templeton","natural":"cave_entrance"},"geometry":{"type":"Point","coordinates":[-2.66379,51.24198]}},{"type":"Feature","properties":{"natural":"sinkhole"},"geometry":{"type":"Point","coordinates":[-2.75225,51.30249]}}]}