{"type":"FeatureCollection","features":[{"type":"Feature","properties":{"natural":"tree"},"geometry":{"type":"Point","coordinates":[-2.79646,51.28878]}},{"type":"Feature","properties":{"natural":"tree"},"geometry":{"type":"Point","coordinates":[-2.80444,51.34969]}},{"type":"Feature","properties":{"natural":"tree"},"geometry":{"type":"Point","coordinates":[-2.80399,51.34971]}},{"type":"Feature","properties":{"natural":"tree"},"geometry":{"type":"Point","coordinates":[-2.8042,51.34962]}},{"type":"Feature","properties":{"natural":"tree"},"geometry":{"type":"Point","coordinates":[-2.80405,51.34953]}},{"type":"Feature","properties":{"natural":"tree"},"geometry":{"type":"Point","coordinates":[-2.8043,51.34952]}},{"type":"Feature","properties":{"natural":"tree"},"geometry":{"type":"Point","coordinates":[-2.80435,51.3493]}},{"type":"Feature","properties":{"natural":"tree"},"geometry":{"type":"Point","coordinates":[-2.80432,51.34909]}},{"type":"Feature","properties":{"natural":"tree"},"geometry":{"type":"Point","coordinates":[-2.8035,51.34875]}},{"type":"Feature","properties":{"natural":"tree"},"geometry":{"type":"Point","coordinates":[-2.8033,51.34886]}},{"type":"Feature","properties":{"natural":"tree"},"geometry":{"type":"Point","coordinates":[-2.80324,51.34868]}},{"type":"Feature","properties":{"natural":"tree"},"geometry":{"type":"Point","coordinates":[-2.80343,51.34855]}},{"type":"Feature","properties":{"natural":"tree"},"geometry":{"type":"Point","coordinates":[-2.80305,51.349]}},{"type":"Feature","properties":{"natural":"tree"},"geometry":{"type":"Point","coordinates":[-2.80336,51.34921]}},{"type":"Feature","properties":{"natural":"tree"},"geometry":{"type":"Point","coordinates":[-2.80338,51.34933]}},{"type":"Feature","properties":{"natural":"tree"},"geometry":{"type":"Point","coordinates":[-2.8027,51.34971]}},{"type":"Feature","properties":{"natural":"tree"},"geometry":{"type":"Point","coordinates":[-2.80448,51.34827]}},{"type":"Feature","properties":{"natural":"tree"},"geometry":{"type":"Point","coordinates":[-2.80493,51.34868]}},{"type":"Feature","properties":{"natural":"tree"},"geometry":{"type":"Point","coordinates":[-2.8051,51.34919]}},{"type":"Feature","properties":{"natural":"tree"},"geometry":{"type":"Point","coordinates":[-2.80609,51.34891]}},{"type":"Feature","properties":{"natural":"tree"},"geometry":{"type":"Point","coordinates":[-2.80566,51.34856]}},{"type":"Feature","properties":{"natural":"tree"},"geometry":{"type":"Point","coordinates":[-2.80658,51.34851]}},{"type":"Feature","properties":{"natural":"tree"},"geometry":{"type":"Point","coordinates":[-2.80689,51.34892]}},{"type":"Feature","properties":{"natural":"tree"},"geometry":{"type":"Point","coordinates":[-2.80665,51.34922]}},{"type":"Feature","properties":{"natural":"tree"},"geometry":{"type":"Point","coordinates":[-2.80677,51.34935]}},{"type":"Feature","properties":{"natural":"tree"},"geometry":{"type":"Point","coordinates":[-2.80752,51.3496]}},{"type":"Feature","properties":{"natural":"tree"},"geometry":{"type":"Point","coordinates":[-2.80738,51.34948]}},{"type":"Feature","properties":{"natural":"tree"},"geometry":{"type":"Point","coordinates":[-2.80753,51.34944]}},{"type":"Feature","properties":{"natural":"tree"},"geometry":{"type":"Point","coordinates":[-2.80858,51.34924]}},{"type":"Feature","properties":{"natural":"tree"},"geometry":{"type":"Point","coordinates":[-2.80833,51.34925]}},{"type":"Feature","properties":{"natural":"tree"},"geometry":{"type":"Point","coordinates":[-2.80833,51.34899]}},{"type":"Feature","properties":{"natural":"tree"},"geometry":{"type":"Point","coordinates":[-2.80837,51.34886]}},{"type":"Feature","properties":{"natural":"tree"},"geometry":{"type":"Point","coordinates":[-2.8088,51.34846]}},{"type":"Feature","properties":{"natural":"tree"},"geometry":{"type":"Point","coordinates":[-2.80839,51.34823]}},{"type":"Feature","properties":{"natural":"tree"},"geometry":{"type":"Point","coordinates":[-2.80788,51.34849]}},{"type":"Feature","properties":{"natural":"tree"},"geometry":{"type":"Point","coordinates":[-2.80727,51.3488]}},{"type":"Feature","properties":{"natural":"tree"},"geometry":{"type":"Point","coordinates":[-2.80704,51.34888]}},{"type":"Feature","properties":{"natural":"tree"},"geometry":{"type":"Point","coordinates":[-2.807,51.34881]}},{"type":"Feature","properties":{"natural":"tree"},"geometry":{"type":"Point","coordinates":[-2.80708,51.3487]}},{"type":"Feature","properties":{"natural":"tree"},"geometry":{"type":"Point","coordinates":[-2.80697,51.34872]}},{"type":"Feature","properties":{"natural":"tree"},"geometry":{"type":"Point","coordinates":[-2.80696,51.34866]}},{"type":"Feature","properties":{"natural":"tree"},"geometry":{"type":"Point","coordinates":[-2.807,51.34856]}},{"type":"Feature","properties":{"natural":"tree"},"geometry":{"type":"Point","coordinates":[-2.80828,51.34945]}},{"type":"Feature","properties":{"natural":"tree"},"geometry":{"type":"Point","coordinates":[-2.8093,51.34926]}},{"type":"Feature","properties":{"natural":"tree"},"geometry":{"type":"Point","coordinates":[-2.8104,51.34952]}},{"type":"Feature","properties":{"natural":"tree"},"geometry":{"type":"Point","coordinates":[-2.81083,51.34927]}},{"type":"Feature","properties":{"natural":"tree"},"geometry":{"type":"Point","coordinates":[-2.81116,51.34969]}},{"type":"Feature","properties":{"natural":"tree"},"geometry":{"type":"Point","coordinates":[-2.8099,51.34833]}},{"type":"Feature","properties":{"natural":"tree"},"geometry":{"type":"Point","coordinates":[-2.8098,51.3481]}},{"type":"Feature","properties":{"natural":"tree"},"geometry":{"type":"Point","coordinates":[-2.81008,51.34842]}},{"type":"Feature","properties":{"natural":"tree"},"geometry":{"type":"Point","coordinates":[-2.80674,51.34811]}},{"type":"Feature","properties":{"natural":"tree"},"geometry":{"type":"Point","coordinates":[-2.80671,51.34788]}},{"type":"Feature","properties":{"natural":"tree"},"geometry":{"type":"Point","coordinates":[-2.80769,51.34833]}},{"type":"Feature","properties":{"natural":"tree"},"geometry":{"type":"Point","coordinates":[-2.80779,51.34835]}},{"type":"Feature","properties":{"natural":"tree"},"geometry":{"type":"Point","coordinates":[-2.80763,51.34822]}},{"type":"Feature","properties":{"natural":"tree"},"geometry":{"type":"Point","coordinates":[-2.80752,51.34818]}},{"type":"Feature","properties":{"natural":"tree"},"geometry":{"type":"Point","coordinates":[-2.80799,51.3486]}},{"type":"Feature","properties":{"natural":"tree"},"geometry":{"type":"Point","coordinates":[-2.81769,51.3497]}},{"type":"Feature","properties":{"natural":"tree"},"geometry":{"type":"Point","coordinates":[-2.81754,51.34965]}},{"type":"Feature","properties":{"natural":"tree"},"geometry":{"type":"Point","coordinates":[-2.81744,51.3497]}},{"type":"Feature","properties":{"natural":"tree"},"geometry":{"type":"Point","coordinates":[-2.83042,51.34193]}},{"type":"Feature","properties":{"natural":"tree"},"geometry":{"type":"Point","coordinates":[-2.83002,51.34207]}},{"type":"Feature","properties":{"natural":"tree"},"geometry":{"type":"Point","coordinates":[-2.82979,51.34219]}},{"type":"Feature","properties":{"natural":"tree"},"geometry":{"type":"Point","coordinates":[-2.83013,51.34137]}},{"type":"Feature","properties":{"natural":"tree"},"geometry":{"type":"Point","coordinates":[-2.82983,51.34155]}},{"type":"Feature","properties":{"natural":"tree"},"geometry":{"type":"Point","coordinates":[-2.82954,51.34151]}},{"type":"Feature","properties":{"natural":"tree"},"geometry":{"type":"Point","coordinates":[-2.82882,51.34177]}},{"type":"Feature","properties":{"natural":"tree"},"geometry":{"type":"Point","coordinates":[-2.8281,51.34213]}},{"type":"Feature","properties":{"natural":"tree"},"geometry":{"type":"Point","coordinates":[-2.82802,51.34179]}},{"type":"Feature","properties":{"natural":"tree"},"geometry":{"type":"Point","coordinates":[-2.82946,51.34142]}},{"type":"Feature","properties":{"natural":"tree"},"geometry":{"type":"Point","coordinates":[-2.83161,51.34314]}},{"type":"Feature","properties":{"natural":"tree"},"geometry":{"type":"Point","coordinates":[-2.83051,51.34284]}},{"type":"Feature","properties":{"natural":"tree"},"geometry":{"type":"Point","coordinates":[-2.82276,51.3382]}},{"type":"Feature","properties":{"natural":"tree"},"geometry":{"type":"Point","coordinates":[-2.82228,51.33822]}},{"type":"Feature","properties":{"natural":"tree"},"geometry":{"type":"Point","coordinates":[-2.8223,51.33793]}},{"type":"Feature","properties":{"natural":"tree"},"geometry":{"type":"Point","coordinates":[-2.8117,51.34043]}},{"type":"Feature","properties":{"natural":"tree"},"geometry":{"type":"Point","coordinates":[-2.81156,51.34061]}},{"type":"Feature","properties":{"natural":"tree"},"geometry":{"type":"Point","coordinates":[-2.81176,51.34117]}},{"type":"Feature","properties":{"natural":"tree"},"geometry":{"type":"Point","coordinates":[-2.81166,51.34132]}},{"type":"Feature","properties":{"natural":"tree"},"geometry":{"type":"Point","coordinates":[-2.81154,51.34145]}},{"type":"Feature","properties":{"natural":"tree"},"geometry":{"type":"Point","coordinates":[-2.81595,51.34138]}},{"type":"Feature","properties":{"natural":"tree"},"geometry":{"type":"Point","coordinates":[-2.81589,51.34149]}},{"type":"Feature","properties":{"natural":"tree"},"geometry":{"type":"Point","coordinates":[-2.75036,51.34857]}},{"type":"Feature","properties":{"natural":"tree"},"geometry":{"type":"Point","coordinates":[-2.74962,51.34871]}},{"type":"Feature","properties":{"natural":"tree"},"geometry":{"type":"Point","coordinates":[-2.74948,51.34844]}},{"type":"Feature","properties":{"natural":"tree"},"geometry":{"type":"Point","coordinates":[-2.76343,51.3474]}},{"type":"Feature","properties":{"natural":"tree"},"geometry":{"type":"Point","coordinates":[-2.75228,51.34571]}},{"type":"Feature","properties":{"natural":"tree"},"geometry":{"type":"Point","coordinates":[-2.75417,51.33866]}},{"type":"Feature","properties":{"natural":"tree"},"geometry":{"type":"Point","coordinates":[-2.75367,51.33756]}},{"type":"Feature","properties":{"natural":"tree"},"geometry":{"type":"Point","coordinates":[-2.75788,51.33781]}},{"type":"Feature","properties":{"natural":"tree"},"geometry":{"type":"Point","coordinates":[-2.75576,51.33836]}},{"type":"Feature","properties":{"natural":"tree"},"geometry":{"type":"Point","coordinates":[-2.75561,51.33911]}},{"type":"Feature","properties":{"natural":"tree"},"geometry":{"type":"Point","coordinates":[-2.79121,51.34348]}},{"type":"Feature","properties":{"natural":"tree"},"geometry":{"type":"Point","coordinates":[-2.7969,51.3442]}},{"type":"Feature","properties":{"natural":"tree"},"geometry":{"type":"Point","coordinates":[-2.79858,51.344]}},{"type":"Feature","properties":{"natural":"tree"},"geometry":{"type":"Point","coordinates":[-2.79357,51.3464]}},{"type":"Feature","properties":{"natural":"tree"},"geometry":{"type":"Point","coordinates":[-2.79224,51.34767]}},{"type":"Feature","properties":{"natural":"tree"},"geometry":{"type":"Point","coordinates":[-2.79262,51.3484]}},{"type":"Feature","properties":{"natural":"tree"},"geometry":{"type":"Point","coordinates":[-2.79288,51.34795]}},{"type":"Feature","properties":{"natural":"tree"},"geometry":{"type":"Point","coordinates":[-2.79307,51.34771]}},{"type":"Feature","properties":{"natural":"tree"},"geometry":{"type":"Point","coordinates":[-2.79275,51.34774]}},{"type":"Feature","properties":{"natural":"tree"},"geometry":{"type":"Point","coordinates":[-2.78958,51.34801]}},{"type":"Feature","properties":{"natural":"tree"},"geometry":{"type":"Point","coordinates":[-2.74872,51.32955]}},{"type":"Feature","properties":{"natural":"tree"},"geometry":{"type":"Point","coordinates":[-2.74863,51.3294]}},{"type":"Feature","properties":{"natural":"tree"},"geometry":{"type":"Point","coordinates":[-2.81669,51.32823]}},{"type":"Feature","properties":{"natural":"tree"},"geometry":{"type":"Point","coordinates":[-2.79965,51.31359]}},{"type":"Feature","properties":{"natural":"tree"},"geometry":{"type":"Point","coordinates":[-2.79958,51.31372]}},{"type":"Feature","properties":{"natural":"tree"},"geometry":{"type":"Point","coordinates":[-2.79942,51.31376]}},{"type":"Feature","properties":{"natural":"tree"},"geometry":{"type":"Point","coordinates":[-2.80042,51.33322]}},{"type":"Feature","properties":{"natural":"tree"},"geometry":{"type":"Point","coordinates":[-2.80088,51.33311]}},{"type":"Feature","properties":{"natural":"tree"},"geometry":{"type":"Point","coordinates":[-2.80052,51.33294]}},{"type":"Feature","properties":{"natural":"tree"},"geometry":{"type":"Point","coordinates":[-2.80004,51.33326]}},{"type":"Feature","properties":{"natural":"tree"},"geometry":{"type":"Point","coordinates":[-2.80327,51.33]}},{"type":"Feature","properties":{"natural":"tree"},"geometry":{"type":"Point","coordinates":[-2.8034,51.33206]}},{"type":"Feature","properties":{"natural":"tree"},"geometry":{"type":"Point","coordinates":[-2.80351,51.33206]}},{"type":"Feature","properties":{"natural":"tree"},"geometry":{"type":"Point","coordinates":[-2.80419,51.33205]}},{"type":"Feature","properties":{"natural":"tree"},"geometry":{"type":"Point","coordinates":[-2.80287,51.33189]}},{"type":"Feature","properties":{"natural":"tree"},"geometry":{"type":"Point","coordinates":[-2.80363,51.33173]}},{"type":"Feature","properties":{"natural":"tree"},"geometry":{"type":"Point","coordinates":[-2.80277,51.33032]}},{"type":"Feature","properties":{"natural":"tree"},"geometry":{"type":"Point","coordinates":[-2.80266,51.33113]}},{"type":"Feature","properties":{"natural":"tree"},"geometry":{"type":"Point","coordinates":[-2.80616,51.33694]}},{"type":"Feature","properties":{"natural":"tree"},"geometry":{"type":"Point","coordinates":[-2.80819,51.33701]}},{"type":"Feature","properties":{"natural":"tree"},"geometry":{"type":"Point","coordinates":[-2.79828,51.33697]}},{"type":"Feature","properties":{"natural":"tree"},"geometry":{"type":"Point","coordinates":[-2.79796,51.33688]}},{"type":"Feature","properties":{"natural":"tree"},"geometry":{"type":"Point","coordinates":[-2.79976,51.33774]}},{"type":"Feature","properties":{"natural":"tree"},"geometry":{"type":"Point","coordinates":[-2.79955,51.33774]}},{"type":"Feature","properties":{"natural":"tree"},"geometry":{"type":"Point","coordinates":[-2.79892,51.33773]}},{"type":"Feature","properties":{"natural":"tree"},"geometry":{"type":"Point","coordinates":[-2.80041,51.33799]}},{"type":"Feature","properties":{"natural":"tree"},"geometry":{"type":"Point","coordinates":[-2.80089,51.33789]}},{"type":"Feature","properties":{"natural":"tree"},"geometry":{"type":"Point","coordinates":[-2.79826,51.33404]}},{"type":"Feature","properties":{"natural":"tree"},"geometry":{"type":"Point","coordinates":[-2.76429,51.30648]}},{"type":"Feature","properties":{"natural":"tree"},"geometry":{"type":"Point","coordinates":[-2.76421,51.30619]}},{"type":"Feature","properties":{"natural":"tree"},"geometry":{"type":"Point","coordinates":[-2.76396,51.3061]}},{"type":"Feature","properties":{"natural":"tree"},"geometry":{"type":"Point","coordinates":[-2.76291,51.30575]}},{"type":"Feature","properties":{"natural":"tree"},"geometry":{"type":"Point","coordinates":[-2.76324,51.30574]}},{"type":"Feature","properties":{"natural":"tree"},"geometry":{"type":"Point","coordinates":[-2.76319,51.30583]}},{"type":"Feature","properties":{"natural":"tree"},"geometry":{"type":"Point","coordinates":[-2.76219,51.30519]}},{"type":"Feature","properties":{"natural":"tree"},"geometry":{"type":"Point","coordinates":[-2.7623,51.30511]}},{"type":"Feature","properties":{"natural":"tree"},"geometry":{"type":"Point","coordinates":[-2.82865,51.33406]}},{"type":"Feature","properties":{"natural":"tree"},"geometry":{"type":"Point","coordinates":[-2.83347,51.32125]}},{"type":"Feature","properties":{"natural":"tree"},"geometry":{"type":"Point","coordinates":[-2.83429,51.32106]}},{"type":"Feature","properties":{"natural":"tree"},"geometry":{"type":"Point","coordinates":[-2.83417,51.3211]}},{"type":"Feature","properties":{"natural":"tree"},"geometry":{"type":"Point","coordinates":[-2.83358,51.32124]}},{"type":"Feature","properties":{"natural":"tree"},"geometry":{"type":"Point","coordinates":[-2.83292,51.31966]}},{"type":"Feature","properties":{"natural":"tree"},"geometry":{"type":"Point","coordinates":[-2.83248,51.31933]}},{"type":"Feature","properties":{"natural":"tree"},"geometry":{"type":"Point","coordinates":[-2.83444,51.32006]}},{"type":"Feature","properties":{"natural":"tree"},"geometry":{"type":"Point","coordinates":[-2.83284,51.31989]}},{"type":"Feature","properties":{"natural":"tree"},"geometry":{"type":"Point","coordinates":[-2.83265,51.31953]}},{"type":"Feature","properties":{"natural":"tree"},"geometry":{"type":"Point","coordinates":[-2.8425,51.31402]}},{"type":"Feature","properties":{"natural":"tree"},"geometry":{"type":"Point","coordinates":[-2.84284,51.31134]}},{"type":"Feature","properties":{"natural":"tree"},"geometry":{"type":"Point","coordinates":[-2.8427,51.31249]}},{"type":"Feature","properties":{"natural":"tree"},"geometry":{"type":"Point","coordinates":[-2.83886,51.31462]}},{"type":"Feature","properties":{"natural":"tree"},"geometry":{"type":"Point","coordinates":[-2.838,51.31492]}},{"type":"Feature","properties":{"natural":"tree"},"geometry":{"type":"Point","coordinates":[-2.83943,51.31545]}},{"type":"Feature","properties":{"natural":"tree"},"geometry":{"type":"Point","coordinates":[-2.83742,51.31869]}},{"type":"Feature","properties":{"natural":"tree"},"geometry":{"type":"Point","coordinates":[-2.84075,51.32097]}},{"type":"Feature","properties":{"natural":"tree"},"geometry":{"type":"Point","coordinates":[-2.79391,51.2878]}},{"type":"Feature","properties":{"natural":"tree"},"geometry":{"type":"Point","coordinates":[-2.79435,51.28778]}}]}