{"type":"FeatureCollection","features":[{"type":"Feature","properties":{"man_made":"mineshaft"},"geometry":{"type":"Point","coordinates":[-2.78446,51.38026]}},{"type":"Feature","properties":{"man_made":"mineshaft"},"geometry":{"type":"Point","coordinates":[-2.78409,51.38025]}},{"type":"Feature","properties":{"man_made":"mineshaft"},"geometry":{"type":"Point","coordinates":[-2.78322,51.37986]}},{"type":"Feature","properties":{"man_made":"mineshaft"},"geometry":{"type":"Point","coordinates":[-2.77243,51.37362]}},{"type":"Feature","properties":{"man_made":"mineshaft"},"geometry":{"type":"Point","coordinates":[-2.77197,51.37367]}},{"type":"Feature","properties":{"man_made":"mineshaft"},"geometry":{"type":"Point","coordinates":[-2.78305,51.3802]}},{"type":"Feature","properties":{"man_made":"adit"},"geometry":{"type":"Point","coordinates":[-2.78629,51.37703]}},{"type":"Feature","properties":{"name":"Singing River Mine","man_made":"mineshaft"},"geometry":{"type":"Point","coordinates":[-2.79812,51.31264]}},{"type":"Feature","properties":{"man_made":"mineshaft"},"geometry":{"type":"Point","coordinates":[-2.77971,51.38076]}}]}