{"type":"FeatureCollection","features":[{"type":"Feature","properties":{"natural":"spring"},"geometry":{"type":"Point","coordinates":[-2.69639,51.32218]}},{"type":"Feature","properties":{"name":"Springhead","natural":"spring"},"geometry":{"type":"Point","coordinates":[-2.73588,51.24952]}},{"type":"Feature","properties":{"natural":"spring"},"geometry":{"type":"Point","coordinates":[-2.75407,51.32074]}},{"type":"Feature","properties":{"natural":"spring"},"geometry":{"type":"Point","coordinates":[-2.76769,51.33019]}}]}