{"type":"FeatureCollection","features":[{"type":"Feature","properties":{"name":"Cheddar Viewing Tower","man_made":"tower","tourism":"viewpoint"},"geometry":{"type":"Point","coordinates":[-2.77018,51.28051]}},{"type":"Feature","properties":{"tourism":"viewpoint"},"geometry":{"type":"Point","coordinates":[-2.76674,51.28105]}},{"type":"Feature","properties":{"tourism":"viewpoint"},"geometry":{"type":"Point","coordinates":[-2.76099,51.28286]}},{"type":"Feature","properties":{"tourism":"viewpoint"},"geometry":{"type":"Point","coordinates":[-2.78699,51.3275]}},{"type":"Feature","properties":{"tourism":"viewpoint"},"geometry":{"type":"Point","coordinates":[-2.74916,51.28969]}},{"type":"Feature","properties":{"tourism":"information"},"geometry":{"type":"Point","coordinates":[-2.83076,51.29894]}},{"type":"Feature","properties":{"name":"Cheddar Gorge & Caves","tourism":"attraction","website":"https://www.cheddargorge.co.uk/","wikipedia":"en:Cheddar Gorge"},"geometry":{"type":"Point","coordinates":[-2.76565,51.28259]}},{"type":"Feature","properties":{"tourism":"information"},"geometry":{"type":"Point","coordinates":[-2.82797,51.29014]}},{"type":"Feature","properties":{"tourism":"information"},"geometry":{"type":"Point","coordinates":[-2.82762,51.2899]}},{"type":"Feature","properties":{"tourism":"information","operator":"Bristol Water"},"geometry":{"type":"Point","coordinates":[-2.80545,51.28508]}},{"type":"Feature","properties":{"tourism":"information"},"geometry":{"type":"Point","coordinates":[-2.84163,51.28495]}},{"type":"Feature","properties":{"tourism":"information"},"geometry":{"type":"Point","coordinates":[-2.83722,51.29583]}},{"type":"Feature","properties":{"tourism":"information"},"geometry":{"type":"Point","coordinates":[-2.83652,51.28996]}},{"type":"Feature","properties":{"tourism":"information"},"geometry":{"type":"Point","coordinates":[-2.83079,51.29422]}},{"type":"Feature","properties":{"tourism":"information"},"geometry":{"type":"Point","coordinates":[-2.83071,51.30222]}},{"type":"Feature","properties":{"tourism":"information"},"geometry":{"type":"Point","coordinates":[-2.83945,51.30021]}},{"type":"Feature","properties":{"tourism":"viewpoint"},"geometry":{"type":"Point","coordinates":[-2.75674,51.28562]}},{"type":"Feature","properties":{"name":"Calcareous Grassland at Cheddar","tourism":"information"},"geometry":{"type":"Point","coordinates":[-2.76114,51.28242]}},{"type":"Feature","properties":{"tourism":"information"},"geometry":{"type":"Point","coordinates":[-2.73605,51.29082]}},{"type":"Feature","properties":{"tourism":"information"},"geometry":{"type":"Point","coordinates":[-2.73661,51.29229]}},{"type":"Feature","properties":{"tourism":"information"},"geometry":{"type":"Point","coordinates":[-2.79866,51.31431]}},{"type":"Feature","properties":{"name":"Shipham Village Sign","man_made":"village_sign","tourism":"artwork"},"geometry":{"type":"Point","coordinates":[-2.79951,51.31365]}},{"type":"Feature","properties":{"name":"Cheddar Walking","tourism":"information"},"geometry":{"type":"Point","coordinates":[-2.77411,51.27912]}},{"type":"Feature","properties":{"name":"GB Gruffy Nature Reserve","tourism":"information"},"geometry":{"type":"Point","coordinates":[-2.75204,51.30434]}},{"type":"Feature","properties":{"name":"Top of the Gorge","tourism":"viewpoint"},"geometry":{"type":"Point","coordinates":[-2.73764,51.28674]}},{"type":"Feature","properties":{"name":"Castle Rock","tourism":"viewpoint"},"geometry":{"type":"Point","coordinates":[-2.75735,51.28507]}},{"type":"Feature","properties":{"tourism":"information"},"geometry":{"type":"Point","coordinates":[-2.74875,51.32948]}},{"type":"Feature","properties":{"name":"Lookout Tower","tourism":"information"},"geometry":{"type":"Point","coordinates":[-2.76997,51.28047]}},{"type":"Feature","properties":{"tourism":"information"},"geometry":{"type":"Point","coordinates":[-2.76979,51.28045]}},{"type":"Feature","properties":{"name":"Life on the Cliff-Edge","tourism":"information"},"geometry":{"type":"Point","coordinates":[-2.76261,51.2819]}},{"type":"Feature","properties":{"name":"Conservation Management at Cheddar","tourism":"information"},"geometry":{"type":"Point","coordinates":[-2.76659,51.28092]}},{"type":"Feature","properties":{"name":"Hazel Wood","tourism":"information"},"geometry":{"type":"Point","coordinates":[-2.76825,51.28077]}},{"type":"Feature","properties":{"tourism":"information"},"geometry":{"type":"Point","coordinates":[-2.74903,51.28593]}},{"type":"Feature","properties":{"tourism":"information"},"geometry":{"type":"Point","coordinates":[-2.76036,51.28727]}},{"type":"Feature","properties":{"tourism":"information"},"geometry":{"type":"Point","coordinates":[-2.76499,51.28624]}},{"type":"Feature","properties":{"tourism":"artwork"},"geometry":{"type":"Point","coordinates":[-2.77142,51.28118]}},{"type":"Feature","properties":{"tourism":"artwork"},"geometry":{"type":"Point","coordinates":[-2.77117,51.28121]}},{"type":"Feature","properties":{"tourism":"artwork"},"geometry":{"type":"Point","coordinates":[-2.77122,51.28123]}},{"type":"Feature","properties":{"tourism":"artwork"},"geometry":{"type":"Point","coordinates":[-2.77125,51.28122]}},{"type":"Feature","properties":{"name":"The Island Beds, River Yeo","tourism":"information"},"geometry":{"type":"Point","coordinates":[-2.77131,51.28114]}},{"type":"Feature","properties":{"tourism":"artwork"},"geometry":{"type":"Point","coordinates":[-2.77143,51.28119]}},{"type":"Feature","properties":{"name":"Sword In A Stone","tourism":"artwork","inscription":"Cliffs"},"geometry":{"type":"Point","coordinates":[-2.77163,51.28108]}},{"type":"Feature","properties":{"tourism":"information"},"geometry":{"type":"Point","coordinates":[-2.77054,51.28139]}},{"type":"Feature","properties":{"tourism":"information"},"geometry":{"type":"Point","coordinates":[-2.76719,51.28195]}},{"type":"Feature","properties":{"name":"Cheddar Gorge & Caves","tourism":"information"},"geometry":{"type":"Point","coordinates":[-2.76563,51.28196]}},{"type":"Feature","properties":{"name":"Cheddar Gorge & Caves","tourism":"information"},"geometry":{"type":"Point","coordinates":[-2.76543,51.28216]}},{"type":"Feature","properties":{"name":"Cheddar Gorge","tourism":"information"},"geometry":{"type":"Point","coordinates":[-2.76674,51.28182]}},{"type":"Feature","properties":{"name":"The Mendip Way","tourism":"information"},"geometry":{"type":"Point","coordinates":[-2.76655,51.28183]}},{"type":"Feature","properties":{"name":"Guest Services","tourism":"information"},"geometry":{"type":"Point","coordinates":[-2.76551,51.28197]}},{"type":"Feature","properties":{"name":"History of Jacob's Ladder","tourism":"information"},"geometry":{"type":"Point","coordinates":[-2.76986,51.28108]}},{"type":"Feature","properties":{"name":"Trees at Cheddar","tourism":"information"},"geometry":{"type":"Point","coordinates":[-2.76981,51.28092]}},{"type":"Feature","properties":{"name":"Woodland Birds","tourism":"information"},"geometry":{"type":"Point","coordinates":[-2.76977,51.28077]}},{"type":"Feature","properties":{"name":"Tyning's Gate","tourism":"information","operator":"Somerset County Council","ele":"260"},"geometry":{"type":"Point","coordinates":[-2.76364,51.30273]}},{"type":"Feature","properties":{"tourism":"information"},"geometry":{"type":"Point","coordinates":[-2.83952,51.33312]}},{"type":"Feature","properties":{"tourism":"information"},"geometry":{"type":"Point","coordinates":[-2.83897,51.32992]}},{"type":"Feature","properties":{"tourism":"information"},"geometry":{"type":"Point","coordinates":[-2.83707,51.32248]}},{"type":"Feature","properties":{"tourism":"artwork"},"geometry":{"type":"Point","coordinates":[-2.83543,51.31628]}},{"type":"Feature","properties":{"tourism":"information"},"geometry":{"type":"Point","coordinates":[-2.8352,51.31544]}},{"type":"Feature","properties":{"tourism":"information"},"geometry":{"type":"Point","coordinates":[-2.83503,51.31456]}},{"type":"Feature","properties":{"tourism":"information"},"geometry":{"type":"Point","coordinates":[-2.83207,51.3101]}},{"type":"Feature","properties":{"tourism":"information"},"geometry":{"type":"Point","coordinates":[-2.83211,51.31003]}},{"type":"Feature","properties":{"tourism":"information"},"geometry":{"type":"Point","coordinates":[-2.83089,51.29454]}},{"type":"Feature","properties":{"tourism":"information"},"geometry":{"type":"Point","coordinates":[-2.83062,51.29401]}},{"type":"Feature","properties":{"tourism":"information"},"geometry":{"type":"Point","coordinates":[-2.80352,51.28785]}},{"type":"Feature","properties":{"tourism":"information"},"geometry":{"type":"Point","coordinates":[-2.79382,51.28273]}},{"type":"Feature","properties":{"tourism":"information"},"geometry":{"type":"Point","coordinates":[-2.79259,51.28156]}},{"type":"Feature","properties":{"name":"Museum of Prehistory","tourism":"museum"},"geometry":{"type":"Polygon","coordinates":[[[-2.76605,51.28205],[-2.76605,51.28202],[-2.76619,51.28202],[-2.76619,51.28199],[-2.76635,51.28199],[-2.76635,51.28209],[-2.76612,51.28209],[-2.76612,51.28207],[-2.76605,51.28205]]]}},{"type":"Feature","properties":{"name":"Cheddar Visitor Information Centre","tourism":"information","website":"https://discovercheddar.co.uk/vic/"},"geometry":{"type":"Polygon","coordinates":[[[-2.76671,51.2818],[-2.76665,51.28181],[-2.76666,51.28183],[-2.76662,51.28183],[-2.76663,51.28184],[-2.76663,51.28185],[-2.76658,51.28185],[-2.76658,51.28184],[-2.76657,51.28183],[-2.76655,51.28183],[-2.76653,51.28183],[-2.76653,51.28181],[-2.76652,51.28181],[-2.76651,51.28178],[-2.7667,51.28177],[-2.76671,51.2818]]]}},{"type":"Feature","properties":{"name":"Cheddar Caves & Gorge Tickets","tourism":"information"},"geometry":{"type":"Polygon","coordinates":[[[-2.76966,51.28145],[-2.76943,51.28156],[-2.76936,51.2815],[-2.76959,51.28139],[-2.76962,51.28141],[-2.76966,51.28145]]]}},{"type":"Feature","properties":{"name":"Sandford Station Railway Heritage Centre","tourism":"museum","website":"https://sandfordstation.co.uk/"},"geometry":{"type":"Polygon","coordinates":[[[-2.83938,51.33205],[-2.83935,51.33205],[-2.83936,51.33211],[-2.83928,51.33211],[-2.83925,51.332],[-2.83934,51.33199],[-2.83936,51.33199],[-2.83938,51.33205]]]}}]}