{"type":"FeatureCollection","features":[{"type":"Feature","properties":{"name":"Rock of Ages","natural":"rock","tourism":"attraction"},"geometry":{"type":"Point","coordinates":[-2.75324,51.32541]}},{"type":"Feature","properties":{"name":"Black Rock","natural":"rock","tourism":"attraction"},"geometry":{"type":"Point","coordinates":[-2.73806,51.28901]}},{"type":"Feature","properties":{"name":"Lion Rock","natural":"rock","tourism":"attraction"},"geometry":{"type":"Point","coordinates":[-2.76643,51.2825]}},{"type":"Feature","properties":{"natural":"stone"},"geometry":{"type":"Point","coordinates":[-2.79143,51.28045]}},{"type":"Feature","properties":{"natural":"cliff"},"geometry":{"type":"LineString","coordinates":[[-2.74771,51.32425],[-2.74838,51.32438],[-2.74888,51.32444],[-2.74972,51.32443]]}},{"type":"Feature","properties":{"natural":"cliff"},"geometry":{"type":"LineString","coordinates":[[-2.75193,51.32177],[-2.75133,51.32198],[-2.75057,51.32195],[-2.74976,51.32189],[-2.74916,51.32173],[-2.74897,51.32179],[-2.7482,51.3216],[-2.74807,51.32144],[-2.74726,51.32126]]}},{"type":"Feature","properties":{"natural":"cliff"},"geometry":{"type":"LineString","coordinates":[[-2.75041,51.32066],[-2.75097,51.32071],[-2.75123,51.3209],[-2.75217,51.32082],[-2.75256,51.32098],[-2.75324,51.32103],[-2.7532,51.3213]]}},{"type":"Feature","properties":{"natural":"cliff"},"geometry":{"type":"LineString","coordinates":[[-2.75488,51.32079],[-2.75483,51.32119],[-2.7547,51.3216],[-2.75483,51.322],[-2.7541,51.32235],[-2.75376,51.32259],[-2.75324,51.32275],[-2.75342,51.32323]]}},{"type":"Feature","properties":{"natural":"cliff"},"geometry":{"type":"LineString","coordinates":[[-2.74397,51.32009],[-2.74505,51.31991],[-2.74625,51.31964],[-2.74694,51.31964]]}},{"type":"Feature","properties":{"natural":"cliff"},"geometry":{"type":"LineString","coordinates":[[-2.76032,51.28449],[-2.76035,51.28441],[-2.76049,51.28446],[-2.76073,51.28455],[-2.76103,51.28462],[-2.76136,51.28444],[-2.76182,51.28438],[-2.76192,51.28423],[-2.76207,51.28395],[-2.76202,51.28348],[-2.76213,51.28311],[-2.76255,51.28294],[-2.76296,51.28274],[-2.76315,51.28257],[-2.7641,51.28233],[-2.76455,51.28228],[-2.76485,51.28246],[-2.76512,51.28247],[-2.76516,51.28224],[-2.76512,51.28199],[-2.76525,51.28173],[-2.76548,51.28159],[-2.76607,51.28149],[-2.7668,51.28135],[-2.76773,51.28143],[-2.76823,51.28148],[-2.76864,51.28137],[-2.76905,51.28113],[-2.76964,51.28094]]}},{"type":"Feature","properties":{"natural":"cliff"},"geometry":{"type":"LineString","coordinates":[[-2.76163,51.2853],[-2.76132,51.2853],[-2.76118,51.28527],[-2.7611,51.28511],[-2.76091,51.2851],[-2.76085,51.28517],[-2.76055,51.28529],[-2.76022,51.28535],[-2.76006,51.2854],[-2.76001,51.28536],[-2.75966,51.28537],[-2.75949,51.28545],[-2.75933,51.2856],[-2.7592,51.2858],[-2.7591,51.28598],[-2.75888,51.28618],[-2.75878,51.28628],[-2.7585,51.2863],[-2.75835,51.28639],[-2.75815,51.2864],[-2.75805,51.28633],[-2.75799,51.28617],[-2.75793,51.28599],[-2.75795,51.28581],[-2.75795,51.28565],[-2.75776,51.28559],[-2.75755,51.28564],[-2.75754,51.28593],[-2.75746,51.2861],[-2.7574,51.28635],[-2.75727,51.28653],[-2.7571,51.28658],[-2.75677,51.28662],[-2.75646,51.28654],[-2.75623,51.28664],[-2.75621,51.28689],[-2.75614,51.28706],[-2.75583,51.28726],[-2.75552,51.28743],[-2.75526,51.28754],[-2.75511,51.2877],[-2.75471,51.28788],[-2.75416,51.28771],[-2.75373,51.28771],[-2.75325,51.28759],[-2.75285,51.28781],[-2.75246,51.28801],[-2.75206,51.28829]]}},{"type":"Feature","properties":{"natural":"cliff"},"geometry":{"type":"LineString","coordinates":[[-2.84967,51.29587],[-2.8494,51.29569],[-2.84908,51.29556],[-2.84899,51.29548],[-2.84903,51.29541]]}},{"type":"Feature","properties":{"natural":"cliff"},"geometry":{"type":"LineString","coordinates":[[-2.75197,51.32597],[-2.75184,51.32589],[-2.75169,51.32577],[-2.75163,51.32569],[-2.7516,51.32561],[-2.7516,51.32557],[-2.75165,51.32546],[-2.75176,51.32529],[-2.75178,51.32524],[-2.75178,51.32518],[-2.75177,51.32512],[-2.7517,51.32498],[-2.75169,51.32492],[-2.7517,51.32488],[-2.75171,51.32487],[-2.75176,51.32485],[-2.75183,51.32482],[-2.75233,51.32472],[-2.75235,51.32471],[-2.75238,51.32468],[-2.75238,51.32467],[-2.75239,51.32462],[-2.75238,51.32461],[-2.75236,51.32457],[-2.75235,51.32456],[-2.75207,51.32442],[-2.7519,51.32433],[-2.75157,51.32408],[-2.75146,51.32402],[-2.75133,51.32398],[-2.75132,51.32397],[-2.75132,51.32394],[-2.75133,51.32383],[-2.75136,51.3238]]}},{"type":"Feature","properties":{"natural":"cliff"},"geometry":{"type":"LineString","coordinates":[[-2.74711,51.28816],[-2.74711,51.28834],[-2.74698,51.2886],[-2.74679,51.28879],[-2.74617,51.28884],[-2.74595,51.28886]]}},{"type":"Feature","properties":{"natural":"cliff"},"geometry":{"type":"LineString","coordinates":[[-2.76637,51.2826],[-2.76591,51.28307],[-2.76539,51.28331],[-2.76477,51.28328],[-2.76466,51.28308],[-2.76431,51.28309],[-2.76358,51.2833],[-2.76365,51.28351],[-2.76375,51.28364]]}},{"type":"Feature","properties":{"natural":"cliff"},"geometry":{"type":"LineString","coordinates":[[-2.75433,51.28806],[-2.75391,51.28807],[-2.75363,51.28817],[-2.75322,51.28831],[-2.75295,51.28833]]}},{"type":"Feature","properties":{"natural":"cliff"},"geometry":{"type":"LineString","coordinates":[[-2.76329,51.28443],[-2.76312,51.28454],[-2.76309,51.28472],[-2.76338,51.28492],[-2.76353,51.28524],[-2.76339,51.28537],[-2.76316,51.28526],[-2.76246,51.28541],[-2.76225,51.28563],[-2.76231,51.28591],[-2.7618,51.28602],[-2.76161,51.28619],[-2.76143,51.28621],[-2.76098,51.28608],[-2.76047,51.28611],[-2.75995,51.28627],[-2.75974,51.28638],[-2.75939,51.28663]]}},{"type":"Feature","properties":{"natural":"cliff"},"geometry":{"type":"LineString","coordinates":[[-2.75061,51.28845],[-2.74994,51.28852],[-2.74928,51.28858],[-2.74829,51.28833],[-2.74815,51.28803],[-2.74794,51.28789]]}},{"type":"Feature","properties":{"natural":"cliff"},"geometry":{"type":"LineString","coordinates":[[-2.74856,51.28808],[-2.74791,51.28766],[-2.74782,51.28756],[-2.7474,51.28754],[-2.74722,51.28768],[-2.74716,51.28781],[-2.74716,51.28793]]}},{"type":"Feature","properties":{"natural":"cliff"},"geometry":{"type":"LineString","coordinates":[[-2.74668,51.28413],[-2.74677,51.2843],[-2.74675,51.28441],[-2.74654,51.28451],[-2.74654,51.28463],[-2.74641,51.28471],[-2.74628,51.28481],[-2.74628,51.28494],[-2.74617,51.28501],[-2.74596,51.28503]]}},{"type":"Feature","properties":{"natural":"cliff"},"geometry":{"type":"LineString","coordinates":[[-2.7642,51.28483],[-2.76417,51.28474],[-2.76414,51.28455],[-2.76413,51.28447],[-2.76387,51.28442],[-2.76365,51.28453],[-2.76355,51.28453],[-2.76347,51.28454],[-2.76344,51.28449]]}},{"type":"Feature","properties":{"natural":"cliff"},"geometry":{"type":"LineString","coordinates":[[-2.76248,51.28362],[-2.76249,51.28374],[-2.76254,51.28382],[-2.76263,51.28392],[-2.76263,51.28397],[-2.76228,51.28438],[-2.76225,51.28443],[-2.76205,51.28444],[-2.7618,51.28446]]}},{"type":"Feature","properties":{"natural":"cliff"},"geometry":{"type":"LineString","coordinates":[[-2.76524,51.28348],[-2.76506,51.28346],[-2.76482,51.2835],[-2.76469,51.28338],[-2.76448,51.28331],[-2.76441,51.28346],[-2.76431,51.28346],[-2.76422,51.28339],[-2.76406,51.28332],[-2.76393,51.2834],[-2.76401,51.28353],[-2.76418,51.28374],[-2.76418,51.28384]]}},{"type":"Feature","properties":{"natural":"scree"},"geometry":{"type":"LineString","coordinates":[[-2.75992,51.28613],[-2.75962,51.28628],[-2.75949,51.28633],[-2.75925,51.28628],[-2.75903,51.28621],[-2.75919,51.28592],[-2.75941,51.28571],[-2.75954,51.28554],[-2.75983,51.28542],[-2.76015,51.28548],[-2.76068,51.28535],[-2.76108,51.2853],[-2.76136,51.28542],[-2.76139,51.28551],[-2.76067,51.28564],[-2.76054,51.28577],[-2.75992,51.28613]]}},{"type":"Feature","properties":{"natural":"cliff"},"geometry":{"type":"LineString","coordinates":[[-2.75189,51.28809],[-2.75174,51.2881],[-2.7516,51.28826],[-2.75122,51.28833],[-2.75114,51.28827],[-2.75097,51.28823],[-2.75091,51.28832],[-2.75083,51.28838]]}},{"type":"Feature","properties":{"natural":"cliff"},"geometry":{"type":"LineString","coordinates":[[-2.74446,51.28796],[-2.74464,51.28826],[-2.74494,51.28843],[-2.74535,51.28846],[-2.74543,51.28845],[-2.74581,51.28839],[-2.74616,51.28825],[-2.74631,51.2881],[-2.7464,51.2879],[-2.74644,51.2877],[-2.7465,51.28743],[-2.7471,51.28706],[-2.74787,51.28704],[-2.74841,51.2874],[-2.7488,51.28766],[-2.75114,51.28777],[-2.75188,51.2877],[-2.75237,51.28751],[-2.75288,51.28727],[-2.75352,51.28716],[-2.75427,51.28719],[-2.75484,51.28696],[-2.75543,51.28671],[-2.75559,51.28653],[-2.75588,51.28633]]}},{"type":"Feature","properties":{"natural":"cliff"},"geometry":{"type":"LineString","coordinates":[[-2.74431,51.28362],[-2.74412,51.28342],[-2.7439,51.28331],[-2.74319,51.28319]]}},{"type":"Feature","properties":{"natural":"cliff"},"geometry":{"type":"LineString","coordinates":[[-2.84233,51.29085],[-2.84195,51.29101],[-2.84133,51.29102],[-2.84101,51.291],[-2.84104,51.2907],[-2.84117,51.29054]]}},{"type":"Feature","properties":{"natural":"cliff"},"geometry":{"type":"LineString","coordinates":[[-2.77614,51.28899],[-2.77643,51.28916],[-2.77658,51.28917],[-2.77674,51.28928],[-2.77706,51.28941],[-2.77743,51.28955],[-2.77772,51.28974],[-2.7778,51.28981],[-2.77789,51.28987],[-2.77789,51.28993]]}},{"type":"Feature","properties":{"natural":"cliff"},"geometry":{"type":"LineString","coordinates":[[-2.77628,51.28949],[-2.77654,51.28942],[-2.77687,51.2895],[-2.77671,51.2897],[-2.77674,51.28979],[-2.77692,51.29],[-2.77688,51.29007],[-2.7768,51.2901]]}},{"type":"Feature","properties":{"natural":"cliff"},"geometry":{"type":"LineString","coordinates":[[-2.77684,51.29016],[-2.77687,51.29021],[-2.77674,51.29035],[-2.77671,51.29056],[-2.77666,51.29058]]}},{"type":"Feature","properties":{"natural":"cliff"},"geometry":{"type":"LineString","coordinates":[[-2.77732,51.29047],[-2.77731,51.29062],[-2.7773,51.29063]]}},{"type":"Feature","properties":{"natural":"cliff"},"geometry":{"type":"LineString","coordinates":[[-2.7704,51.29115],[-2.77051,51.29112],[-2.77092,51.29115],[-2.771,51.29121]]}},{"type":"Feature","properties":{"natural":"cliff"},"geometry":{"type":"LineString","coordinates":[[-2.77312,51.29208],[-2.77326,51.29205],[-2.77347,51.2919],[-2.77358,51.29187],[-2.77368,51.29187],[-2.77379,51.29197],[-2.77461,51.29233],[-2.77525,51.29255]]}},{"type":"Feature","properties":{"natural":"cliff"},"geometry":{"type":"LineString","coordinates":[[-2.77396,51.29236],[-2.77471,51.29251],[-2.77503,51.29262],[-2.77517,51.29262],[-2.77546,51.29275],[-2.77676,51.29294],[-2.77706,51.29292]]}},{"type":"Feature","properties":{"natural":"cliff"},"geometry":{"type":"LineString","coordinates":[[-2.7771,51.29287],[-2.77752,51.29287],[-2.77785,51.29299],[-2.77793,51.29313]]}},{"type":"Feature","properties":{"natural":"cliff"},"geometry":{"type":"LineString","coordinates":[[-2.77711,51.29296],[-2.77745,51.29298],[-2.77759,51.29306],[-2.77766,51.29326],[-2.77745,51.29334],[-2.77743,51.29345],[-2.77767,51.29349],[-2.77772,51.2938],[-2.77778,51.29392],[-2.77781,51.29411],[-2.77789,51.29419],[-2.77788,51.2944]]}},{"type":"Feature","properties":{"natural":"cliff"},"geometry":{"type":"LineString","coordinates":[[-2.77818,51.29329],[-2.77834,51.29429],[-2.77829,51.29493],[-2.77815,51.2951]]}},{"type":"Feature","properties":{"natural":"cliff"},"geometry":{"type":"LineString","coordinates":[[-2.77841,51.29268],[-2.77842,51.2929],[-2.77858,51.29306],[-2.77859,51.29335],[-2.77854,51.29364],[-2.77856,51.29395],[-2.77878,51.29466],[-2.77869,51.29483]]}},{"type":"Feature","properties":{"natural":"cliff"},"geometry":{"type":"LineString","coordinates":[[-2.77518,51.29285],[-2.77582,51.293],[-2.77674,51.29315],[-2.77702,51.29323],[-2.77704,51.29374],[-2.77704,51.29425],[-2.77708,51.29463],[-2.77701,51.29485],[-2.77691,51.29508],[-2.77695,51.29519]]}},{"type":"Feature","properties":{"natural":"cliff"},"geometry":{"type":"LineString","coordinates":[[-2.76987,51.29483],[-2.76991,51.29456],[-2.77041,51.29428],[-2.7707,51.29372],[-2.77079,51.29342],[-2.77091,51.29308],[-2.77118,51.29309],[-2.77126,51.29301],[-2.77247,51.29307],[-2.77324,51.29249],[-2.77413,51.29281],[-2.77516,51.29309],[-2.77551,51.29315]]}},{"type":"Feature","properties":{"natural":"cliff"},"geometry":{"type":"LineString","coordinates":[[-2.7717,51.29502],[-2.77126,51.29505],[-2.77061,51.29493],[-2.77061,51.2948],[-2.77053,51.29469],[-2.77054,51.29462],[-2.77115,51.29392],[-2.77125,51.29346],[-2.77126,51.29336],[-2.77135,51.29327],[-2.77294,51.29344],[-2.77371,51.2929],[-2.77456,51.29315],[-2.77532,51.29332],[-2.77539,51.29338],[-2.7761,51.29344],[-2.77628,51.29355],[-2.77628,51.29419],[-2.77626,51.29475]]}},{"type":"Feature","properties":{"natural":"cliff"},"geometry":{"type":"LineString","coordinates":[[-2.77341,51.29481],[-2.77224,51.29494],[-2.77171,51.2949],[-2.77152,51.29477],[-2.77139,51.29474],[-2.77122,51.29463],[-2.77162,51.29375],[-2.77182,51.29371],[-2.77271,51.29381],[-2.7733,51.29384],[-2.77372,51.29334],[-2.77457,51.29338],[-2.7751,51.29347],[-2.77531,51.29359],[-2.77588,51.29371],[-2.77604,51.29396],[-2.77589,51.29435],[-2.77584,51.29466],[-2.77573,51.29479],[-2.77387,51.2947],[-2.77379,51.29465]]}},{"type":"Feature","properties":{"natural":"cliff"},"geometry":{"type":"LineString","coordinates":[[-2.77669,51.29407],[-2.77669,51.29451],[-2.77678,51.29462],[-2.77668,51.29499],[-2.77673,51.2951],[-2.77665,51.29515],[-2.77484,51.29519],[-2.77457,51.29512],[-2.77167,51.29524],[-2.77062,51.29513],[-2.77012,51.29502],[-2.77005,51.29516],[-2.77039,51.29522],[-2.77106,51.29532],[-2.77184,51.29539],[-2.77348,51.29544],[-2.77455,51.29544],[-2.77499,51.29546],[-2.77715,51.29572],[-2.77749,51.29566]]}},{"type":"Feature","properties":{"natural":"cliff"},"geometry":{"type":"LineString","coordinates":[[-2.77043,51.29292],[-2.77064,51.29283],[-2.77092,51.29261],[-2.77115,51.29261],[-2.77198,51.29269],[-2.77243,51.29225],[-2.77295,51.29228],[-2.77303,51.29221],[-2.77315,51.2922],[-2.77334,51.29223]]}},{"type":"Feature","properties":{"natural":"cliff"},"geometry":{"type":"LineString","coordinates":[[-2.77025,51.29225],[-2.77081,51.29227],[-2.77149,51.29244]]}},{"type":"Feature","properties":{"natural":"cliff"},"geometry":{"type":"LineString","coordinates":[[-2.77174,51.29556],[-2.76959,51.29558],[-2.76964,51.29452],[-2.76978,51.2944],[-2.7701,51.29425],[-2.77038,51.29392],[-2.77048,51.29346]]}},{"type":"Feature","properties":{"natural":"cliff"},"geometry":{"type":"LineString","coordinates":[[-2.77879,51.29499],[-2.77814,51.29587],[-2.77796,51.29602],[-2.77739,51.29616],[-2.77716,51.29618]]}},{"type":"Feature","properties":{"natural":"cliff"},"geometry":{"type":"LineString","coordinates":[[-2.77403,51.29558],[-2.77347,51.29571],[-2.77171,51.29568],[-2.76962,51.29571],[-2.76942,51.29567],[-2.76943,51.29456]]}},{"type":"Feature","properties":{"natural":"cliff"},"geometry":{"type":"LineString","coordinates":[[-2.77674,51.29582],[-2.77407,51.29566],[-2.77354,51.29581],[-2.77191,51.29574],[-2.77112,51.29577],[-2.76928,51.29583],[-2.76921,51.2957],[-2.76921,51.29458],[-2.76937,51.29442]]}},{"type":"Feature","properties":{"natural":"cliff"},"geometry":{"type":"LineString","coordinates":[[-2.77387,51.29581],[-2.77336,51.29593],[-2.77182,51.29591],[-2.77127,51.29588],[-2.76944,51.29594],[-2.76909,51.29587],[-2.76904,51.29555],[-2.76904,51.2946],[-2.76908,51.2943],[-2.76938,51.29419]]}},{"type":"Feature","properties":{"natural":"cliff"},"geometry":{"type":"LineString","coordinates":[[-2.77244,51.29607],[-2.7714,51.29599],[-2.77127,51.29602],[-2.76991,51.29606],[-2.7697,51.29607],[-2.76921,51.29603],[-2.76899,51.29593],[-2.76888,51.29564],[-2.76893,51.29439]]}},{"type":"Feature","properties":{"natural":"cliff"},"geometry":{"type":"LineString","coordinates":[[-2.77776,51.29621],[-2.77712,51.29633],[-2.77649,51.29632],[-2.77553,51.2962],[-2.77431,51.2962],[-2.77359,51.29621],[-2.77259,51.29628],[-2.77189,51.29638]]}},{"type":"Feature","properties":{"natural":"cliff"},"geometry":{"type":"LineString","coordinates":[[-2.79258,51.29855],[-2.79295,51.29847],[-2.79337,51.29843],[-2.79387,51.29848],[-2.79448,51.29863],[-2.79483,51.29885]]}},{"type":"Feature","properties":{"natural":"cliff"},"geometry":{"type":"LineString","coordinates":[[-2.79281,51.29858],[-2.79328,51.29856],[-2.79378,51.29861],[-2.79434,51.29871],[-2.79458,51.29884],[-2.79467,51.29899],[-2.79466,51.29908]]}},{"type":"Feature","properties":{"natural":"cliff"},"geometry":{"type":"LineString","coordinates":[[-2.792,51.29913],[-2.7921,51.29882],[-2.79305,51.29865],[-2.79349,51.29864],[-2.79401,51.29871],[-2.79423,51.29878],[-2.79449,51.29888],[-2.79459,51.29901]]}},{"type":"Feature","properties":{"natural":"cliff"},"geometry":{"type":"LineString","coordinates":[[-2.80442,51.29785],[-2.80535,51.29787],[-2.80546,51.2986],[-2.80546,51.29932]]}},{"type":"Feature","properties":{"natural":"cliff"},"geometry":{"type":"LineString","coordinates":[[-2.8028,51.29774],[-2.80549,51.29772],[-2.80559,51.29869],[-2.80566,51.29974]]}},{"type":"Feature","properties":{"natural":"cliff"},"geometry":{"type":"LineString","coordinates":[[-2.80088,51.29745],[-2.80164,51.29753],[-2.8031,51.29761],[-2.8036,51.29757],[-2.80381,51.29764],[-2.80564,51.29758],[-2.80559,51.29802],[-2.80572,51.29933],[-2.80586,51.3]]}},{"type":"Feature","properties":{"natural":"cliff"},"geometry":{"type":"LineString","coordinates":[[-2.79511,51.29733],[-2.79603,51.29723],[-2.79641,51.29727],[-2.79722,51.29726],[-2.79733,51.29719],[-2.79879,51.29717],[-2.80065,51.29727],[-2.80078,51.29735],[-2.80277,51.29746],[-2.8036,51.29746],[-2.80476,51.29743],[-2.80522,51.29735],[-2.80563,51.29729],[-2.80603,51.2973],[-2.80604,51.29739],[-2.80591,51.29756],[-2.80605,51.29865],[-2.80601,51.29938],[-2.80615,51.30002],[-2.80624,51.30061]]}},{"type":"Feature","properties":{"natural":"cliff"},"geometry":{"type":"LineString","coordinates":[[-2.8038,51.29753],[-2.80491,51.29752],[-2.8055,51.2974],[-2.80585,51.29737],[-2.80575,51.29768],[-2.80584,51.29857],[-2.80585,51.29922],[-2.80597,51.29985],[-2.80603,51.30028]]}},{"type":"Feature","properties":{"natural":"cliff"},"geometry":{"type":"LineString","coordinates":[[-2.79498,51.29719],[-2.79548,51.29718],[-2.79582,51.29709],[-2.79614,51.29712],[-2.79682,51.29707],[-2.79786,51.29698],[-2.79915,51.29694],[-2.79955,51.29694],[-2.80098,51.29712]]}},{"type":"Feature","properties":{"natural":"cliff"},"geometry":{"type":"LineString","coordinates":[[-2.7963,51.29721],[-2.79675,51.29716],[-2.79756,51.29712],[-2.79852,51.29709],[-2.79996,51.29712],[-2.8003,51.29714],[-2.80084,51.29718],[-2.801,51.29726],[-2.80228,51.29727],[-2.80304,51.29729],[-2.8035,51.2973]]}},{"type":"Feature","properties":{"natural":"cliff"},"geometry":{"type":"LineString","coordinates":[[-2.8035,51.2973],[-2.80373,51.29734],[-2.80491,51.29731],[-2.80558,51.29718],[-2.80584,51.29718],[-2.80614,51.29722],[-2.80621,51.29736],[-2.80605,51.29767],[-2.80614,51.29878],[-2.80619,51.29946],[-2.80643,51.30106]]}},{"type":"Feature","properties":{"natural":"cliff"},"geometry":{"type":"LineString","coordinates":[[-2.80365,51.29727],[-2.80385,51.29722],[-2.80485,51.2972],[-2.80547,51.29708]]}},{"type":"Feature","properties":{"natural":"cliff"},"geometry":{"type":"LineString","coordinates":[[-2.80155,51.29713],[-2.80227,51.29715],[-2.80323,51.29717],[-2.80467,51.29713],[-2.80547,51.29708],[-2.80586,51.2971],[-2.80619,51.29715],[-2.80629,51.29729],[-2.80631,51.29744],[-2.8062,51.29767],[-2.8063,51.29861],[-2.80635,51.29972],[-2.80658,51.30128]]}},{"type":"Feature","properties":{"natural":"cliff"},"geometry":{"type":"LineString","coordinates":[[-2.80629,51.29767],[-2.8065,51.29936],[-2.80673,51.30146]]}},{"type":"Feature","properties":{"natural":"cliff"},"geometry":{"type":"LineString","coordinates":[[-2.759,51.28417],[-2.75912,51.2842],[-2.75928,51.28421],[-2.75941,51.28423],[-2.7595,51.28419],[-2.75964,51.28418],[-2.75979,51.28422],[-2.75989,51.28429],[-2.76004,51.28428],[-2.76023,51.28426],[-2.76033,51.28427],[-2.76017,51.28417],[-2.76011,51.28414],[-2.76012,51.28411],[-2.76024,51.28404],[-2.76039,51.284],[-2.76045,51.28405],[-2.7605,51.28404],[-2.76049,51.28399],[-2.76056,51.28397],[-2.76067,51.28396],[-2.76087,51.28399],[-2.76112,51.28404],[-2.76129,51.28407],[-2.76138,51.28406],[-2.76114,51.28392],[-2.76109,51.28383],[-2.76109,51.28372],[-2.76107,51.28363],[-2.76087,51.28346],[-2.76085,51.28334],[-2.76092,51.28325],[-2.76115,51.28305],[-2.7612,51.28292],[-2.76131,51.2827]]}},{"type":"Feature","properties":{"natural":"cliff"},"geometry":{"type":"LineString","coordinates":[[-2.75802,51.28453],[-2.75821,51.28452],[-2.75834,51.28453],[-2.75844,51.28452],[-2.75855,51.2845],[-2.75869,51.28452],[-2.75882,51.28441],[-2.7588,51.28435]]}},{"type":"Feature","properties":{"natural":"cliff"},"geometry":{"type":"LineString","coordinates":[[-2.75519,51.28556],[-2.75527,51.28563],[-2.75535,51.28565],[-2.75546,51.28567],[-2.75558,51.28566],[-2.75558,51.28559],[-2.75567,51.28563],[-2.75578,51.28569],[-2.75587,51.28568],[-2.75588,51.28563],[-2.75595,51.28564],[-2.75598,51.28559],[-2.75601,51.28556],[-2.75607,51.28561],[-2.75609,51.28559],[-2.75607,51.28555],[-2.75607,51.28553],[-2.75602,51.28547],[-2.75603,51.28545],[-2.75605,51.28546],[-2.75607,51.28542],[-2.75606,51.28536],[-2.75608,51.28533],[-2.75614,51.28539],[-2.75632,51.28552],[-2.75643,51.28555],[-2.75656,51.2856],[-2.75666,51.28561],[-2.75669,51.28564],[-2.75674,51.28565],[-2.75678,51.28559],[-2.75674,51.28556],[-2.75667,51.2855],[-2.7567,51.28548],[-2.75669,51.28545],[-2.75674,51.28542],[-2.7567,51.2854],[-2.75672,51.2854],[-2.75671,51.28537],[-2.75676,51.28539],[-2.75674,51.28533],[-2.7568,51.28533],[-2.75679,51.28529],[-2.7569,51.28531],[-2.75688,51.28527],[-2.75695,51.28528],[-2.75694,51.28523],[-2.757,51.28525],[-2.75703,51.28523],[-2.7571,51.28522],[-2.75717,51.28521],[-2.75717,51.28518],[-2.75708,51.2851],[-2.75698,51.28502],[-2.757,51.28499],[-2.75708,51.28498],[-2.7573,51.28508],[-2.7574,51.28511],[-2.75741,51.28508],[-2.75726,51.285],[-2.75717,51.28494],[-2.75706,51.28479]]}},{"type":"Feature","properties":{"natural":"cliff"},"geometry":{"type":"LineString","coordinates":[[-2.7526,51.28614],[-2.75289,51.28609],[-2.75327,51.286],[-2.75349,51.28591],[-2.75368,51.28598],[-2.75411,51.286],[-2.75455,51.28603],[-2.75487,51.28592],[-2.75512,51.28592],[-2.75553,51.28586],[-2.75574,51.28583],[-2.75592,51.28582],[-2.75612,51.28576],[-2.7563,51.28572],[-2.75644,51.28581]]}},{"type":"Feature","properties":{"natural":"cliff"},"geometry":{"type":"LineString","coordinates":[[-2.75717,51.28521],[-2.7573,51.28513],[-2.75739,51.28519],[-2.75744,51.28525],[-2.75754,51.28537],[-2.75763,51.28514],[-2.75777,51.28512],[-2.75783,51.2852],[-2.75791,51.28523],[-2.75795,51.28531],[-2.75802,51.28539],[-2.75813,51.28549],[-2.75823,51.2856],[-2.75834,51.28569],[-2.75845,51.28577],[-2.75854,51.28577],[-2.75859,51.28563],[-2.75853,51.2855],[-2.75829,51.28521],[-2.75841,51.28503],[-2.75857,51.28515],[-2.75871,51.28516],[-2.75874,51.28506],[-2.75883,51.28507],[-2.7589,51.28501],[-2.75901,51.28487],[-2.75912,51.28471],[-2.75926,51.28449],[-2.75945,51.28477],[-2.75955,51.28477],[-2.75967,51.2848],[-2.75976,51.2848],[-2.75984,51.2847],[-2.76,51.28482],[-2.76018,51.28494],[-2.76025,51.28483],[-2.76032,51.28462],[-2.76032,51.28449]]}}]}