{"type":"FeatureCollection","features":[{"type":"Feature","properties":{"historic":"fort"},"geometry":{"type":"Point","coordinates":[-2.79081,51.32633]}},{"type":"Feature","properties":{"name":"King John's Hunting Lodge (Axbridge Museum)","historic":"house","tourism":"museum","operator":"National Trust","website":"https://www.nationaltrust.org.uk/king-johns-hunting-lodge","img":"https://thumb.wikimedia.org/wikipedia/commons/thumb/0/00/King_John%27s_Hunting_Lodge_%28Axbridge_Museum%29_2.JPG/330px-King_John%27s_Hunting_Lodge_%28Axbridge_Museum%29_2.JPG?utm_source=commons.wikimedia.org&utm_campaign=imageinfo&utm_content=thumbnail","imgBy":"Rodw","imgLic":"CC BY-SA 3.0"},"geometry":{"type":"Point","coordinates":[-2.81763,51.28713]}},{"type":"Feature","properties":{"historic":"archaeological_site"},"geometry":{"type":"Point","coordinates":[-2.84822,51.28901]}},{"type":"Feature","properties":{"name":"Wimblestone","historic":"archaeological_site","img":"https://thumb.wikimedia.org/wikipedia/commons/thumb/2/2e/The_Wimblestone_-_geograph.org.uk_-_1086690.jpg/330px-The_Wimblestone_-_geograph.org.uk_-_1086690.jpg?utm_source=commons.wikimedia.org&utm_campaign=imageinfo&utm_content=thumbnail","imgBy":"Michael Murray","imgLic":"CC BY-SA 2.0"},"geometry":{"type":"Point","coordinates":[-2.81432,51.32249]}},{"type":"Feature","properties":{"name":"Lime Kiln","historic":"ruins"},"geometry":{"type":"Point","coordinates":[-2.7361,51.32509]}},{"type":"Feature","properties":{"name":"barrow","historic":"archaeological_site","img":"https://upload.wikimedia.org/wikipedia/commons/thumb/0/0e/Three_bowl_barrows_near_Tyning%27s_Farm_%28NHLE_1012594%29.jpg/500px-Three_bowl_barrows_near_Tyning%27s_Farm_%28NHLE_1012594%29.jpg","imgBy":"Dave.Dunford","imgLic":"CC BY-SA 4.0"},"geometry":{"type":"Point","coordinates":[-2.76177,51.304]}},{"type":"Feature","properties":{"name":"barrow","historic":"archaeological_site","img":"https://upload.wikimedia.org/wikipedia/commons/thumb/0/0e/Three_bowl_barrows_near_Tyning%27s_Farm_%28NHLE_1012594%29.jpg/500px-Three_bowl_barrows_near_Tyning%27s_Farm_%28NHLE_1012594%29.jpg","imgBy":"Dave.Dunford","imgLic":"CC BY-SA 4.0"},"geometry":{"type":"Point","coordinates":[-2.76162,51.30365]}},{"type":"Feature","properties":{"name":"barrow","historic":"archaeological_site","img":"https://upload.wikimedia.org/wikipedia/commons/thumb/0/0e/Three_bowl_barrows_near_Tyning%27s_Farm_%28NHLE_1012594%29.jpg/500px-Three_bowl_barrows_near_Tyning%27s_Farm_%28NHLE_1012594%29.jpg","imgBy":"Dave.Dunford","imgLic":"CC BY-SA 4.0"},"geometry":{"type":"Point","coordinates":[-2.76184,51.30337]}},{"type":"Feature","properties":{"name":"barrow","historic":"archaeological_site","img":"https://thumb.wikimedia.org/wikipedia/commons/thumb/5/5f/Road_at_Tyning%27s_Farm_-_geograph.org.uk_-_1886757.jpg/330px-Road_at_Tyning%27s_Farm_-_geograph.org.uk_-_1886757.jpg?utm_source=commons.wikimedia.org&utm_campaign=imageinfo&utm_content=thumbnail","imgBy":"Derek Harper","imgLic":"CC BY-SA 2.0"},"geometry":{"type":"Point","coordinates":[-2.76034,51.30319]}},{"type":"Feature","properties":{"name":"barrow","historic":"archaeological_site"},"geometry":{"type":"Point","coordinates":[-2.79186,51.32153]}},{"type":"Feature","properties":{"name":"ROC Post Windscombe","historic":"ruins","description":"Royal Observer Corps cold war nuclear fallout shelter and monitoring post. Operational 1960 to 1968.","start_date":"1964","access":"no"},"geometry":{"type":"Point","coordinates":[-2.7962,51.31006]}},{"type":"Feature","properties":{"historic":"memorial"},"geometry":{"type":"Point","coordinates":[-2.79853,51.31444]}},{"type":"Feature","properties":{"name":"Langford Cross","historic":"memorial","img":"https://thumb.wikimedia.org/wikipedia/commons/thumb/7/7c/Inside_St._Mary%2C_Langford_%28a%29_-_geograph.org.uk_-_3157160.jpg/330px-Inside_St._Mary%2C_Langford_%28a%29_-_geograph.org.uk_-_3157160.jpg?utm_source=commons.wikimedia.org&utm_campaign=imageinfo&utm_content=thumbnail","imgBy":"Basher Eyre","imgLic":"CC BY-SA 2.0"},"geometry":{"type":"Point","coordinates":[-2.7817,51.34007]}},{"type":"Feature","properties":{"name":"Dolebury Hill Fort","historic":"archaeological_site","man_made":"embankment","operator":"National Trust","img":"https://thumb.wikimedia.org/wikipedia/commons/thumb/b/be/Dolebury_Hillfort_southern_ramparts_-_geograph.org.uk_-_593107.jpg/330px-Dolebury_Hillfort_southern_ramparts_-_geograph.org.uk_-_593107.jpg?utm_source=commons.wikimedia.org&utm_campaign=imageinfo&utm_content=thumbnail","imgBy":"Sharon Loxton","imgLic":"CC BY-SA 2.0"},"geometry":{"type":"LineString","coordinates":[[-2.79419,51.32696],[-2.79417,51.3269],[-2.79397,51.32655],[-2.79389,51.32641],[-2.79387,51.32628],[-2.79368,51.32616],[-2.79368,51.32616],[-2.79346,51.32613],[-2.79305,51.32612],[-2.79228,51.32609],[-2.79151,51.3261],[-2.79088,51.32611],[-2.79014,51.326],[-2.78896,51.32587],[-2.78888,51.32586],[-2.78855,51.32587],[-2.78841,51.32588],[-2.78785,51.32586],[-2.78754,51.32595],[-2.78739,51.32616],[-2.7873,51.32635],[-2.78713,51.32675],[-2.78702,51.32706],[-2.78701,51.32709],[-2.78698,51.32725],[-2.78696,51.32737],[-2.78696,51.3274],[-2.78699,51.3275],[-2.78717,51.32759],[-2.78768,51.32776],[-2.78772,51.32777],[-2.78837,51.328],[-2.78846,51.32804],[-2.78876,51.32805],[-2.789,51.32806],[-2.78949,51.32802],[-2.79033,51.32794],[-2.79138,51.32796],[-2.79147,51.32796],[-2.79302,51.32792],[-2.79322,51.32786],[-2.79342,51.32779],[-2.79394,51.32734],[-2.79421,51.32711],[-2.79419,51.32696]]}},{"type":"Feature","properties":{"name":"Dolebury Warren inner wall","historic":"archaeological_site","man_made":"embankment","operator":"National Trust","img":"https://thumb.wikimedia.org/wikipedia/commons/thumb/d/df/Dolebury_%28geograph_2561277%29.jpg/330px-Dolebury_%28geograph_2561277%29.jpg?utm_source=commons.wikimedia.org&utm_campaign=imageinfo&utm_content=thumbnail","imgBy":"Derek Harper","imgLic":"CC BY-SA 2.0"},"geometry":{"type":"LineString","coordinates":[[-2.78673,51.3274],[-2.78673,51.32752],[-2.78684,51.32767],[-2.78752,51.32789],[-2.7881,51.32807],[-2.78874,51.3282],[-2.78925,51.3282],[-2.79059,51.32811],[-2.79129,51.3281],[-2.79215,51.3281],[-2.79293,51.32807],[-2.79346,51.32794],[-2.79389,51.32766],[-2.79449,51.32714],[-2.79449,51.32686],[-2.79485,51.32688]]}},{"type":"Feature","properties":{"name":"Dolebury Warren inner wall","historic":"archaeological_site","man_made":"embankment","operator":"National Trust"},"geometry":{"type":"LineString","coordinates":[[-2.78737,51.32578],[-2.78715,51.32614],[-2.78688,51.32676],[-2.78673,51.32712],[-2.78674,51.3273]]}},{"type":"Feature","properties":{"historic":"archaeological_site","man_made":"embankment","operator":"National Trust"},"geometry":{"type":"LineString","coordinates":[[-2.78818,51.32737],[-2.78819,51.32734],[-2.78806,51.32723],[-2.78801,51.32721],[-2.78789,51.32721],[-2.78778,51.32723],[-2.78766,51.32727],[-2.78763,51.32733],[-2.78764,51.32738],[-2.7877,51.32748],[-2.78783,51.32752],[-2.78799,51.32753],[-2.78812,51.32748],[-2.78818,51.32737]]}},{"type":"Feature","properties":{"historic":"archaeological_site","man_made":"embankment"},"geometry":{"type":"LineString","coordinates":[[-2.75093,51.32624],[-2.7511,51.32595],[-2.75119,51.32565],[-2.75119,51.32542],[-2.75117,51.3252]]}},{"type":"Feature","properties":{"name":"Burrington fort","historic":"archaeological_site","man_made":"embankment","wikipedia":"en:Burrington Camp","img":"https://upload.wikimedia.org/wikipedia/commons/thumb/9/90/Geograph_2559806_Burrington_Ham.jpg/500px-Geograph_2559806_Burrington_Ham.jpg","imgBy":"Derek Harper","imgLic":"CC BY-SA 2.0"},"geometry":{"type":"LineString","coordinates":[[-2.751,51.32553],[-2.75106,51.32534],[-2.75087,51.32511],[-2.7498,51.3251],[-2.74966,51.32524],[-2.74957,51.32539],[-2.74939,51.3257],[-2.74924,51.32605]]}},{"type":"Feature","properties":{"historic":"archaeological_site","man_made":"embankment"},"geometry":{"type":"LineString","coordinates":[[-2.77015,51.30793],[-2.76986,51.30787],[-2.76958,51.30797],[-2.76953,51.30812],[-2.76962,51.30831],[-2.76988,51.30845],[-2.77023,51.3084],[-2.77035,51.30831],[-2.77043,51.30811],[-2.77033,51.30799],[-2.77015,51.30793]]}},{"type":"Feature","properties":{"name":"Gorsey Bigbury Henge","historic":"archaeological_site"},"geometry":{"type":"LineString","coordinates":[[-2.74143,51.29934],[-2.74142,51.2994],[-2.74138,51.29946],[-2.74131,51.2995],[-2.74122,51.29953],[-2.74114,51.29953],[-2.74105,51.29952],[-2.74098,51.29949],[-2.74092,51.29945],[-2.74088,51.2994],[-2.74087,51.29935],[-2.74089,51.2993],[-2.74093,51.29925],[-2.741,51.29921],[-2.74108,51.29919],[-2.74118,51.29918],[-2.74127,51.2992],[-2.74135,51.29924],[-2.74141,51.29929],[-2.74143,51.29934]]}},{"type":"Feature","properties":{"name":"WWII bombing decoy complex","historic":"archaeological_site","inscription":"World War II bombing decoy complex, anti-aircraft obstructions and Beacon Batch round barrow cemetery on Black Down.","access":"yes"},"geometry":{"type":"LineString","coordinates":[[-2.7636,51.31387],[-2.73109,51.31427],[-2.73067,51.31377],[-2.73067,51.31345],[-2.73118,51.3116],[-2.73167,51.31079],[-2.7322,51.3101],[-2.73321,51.30914],[-2.73332,51.30894],[-2.73584,51.30649],[-2.73594,51.3064],[-2.73619,51.30654],[-2.73677,51.30656],[-2.73718,51.30658],[-2.73722,51.30636],[-2.738,51.30642],[-2.73795,51.30665],[-2.74119,51.30687],[-2.74974,51.30744],[-2.75261,51.30769],[-2.75662,51.30808],[-2.75978,51.30844],[-2.76555,51.30908],[-2.76512,51.31042],[-2.76476,51.31083],[-2.76413,51.31202],[-2.76353,51.31329],[-2.76352,51.31352],[-2.7636,51.31387]]}},{"type":"Feature","properties":{"historic":"ruins"},"geometry":{"type":"LineString","coordinates":[[-2.7669,51.32823],[-2.76691,51.32829],[-2.7667,51.32829],[-2.7667,51.32823],[-2.7669,51.32823]]}},{"type":"Feature","properties":{"name":"Mendip Lodge","historic":"ruins"},"geometry":{"type":"LineString","coordinates":[[-2.7674,51.328],[-2.76746,51.32809],[-2.76708,51.3282],[-2.76702,51.32811],[-2.7674,51.328]]}},{"type":"Feature","properties":{"historic":"pound"},"geometry":{"type":"LineString","coordinates":[[-2.74877,51.32952],[-2.74876,51.32949],[-2.74875,51.32948],[-2.74875,51.32948],[-2.74874,51.32945],[-2.74868,51.32946],[-2.74871,51.32953],[-2.74877,51.32952]]}},{"type":"Feature","properties":{"historic":"building"},"geometry":{"type":"Polygon","coordinates":[[[-2.8352,51.31535],[-2.83512,51.31536],[-2.83508,51.3152],[-2.83517,51.3152],[-2.8352,51.31535]]]}}]}