{"type":"FeatureCollection","features":[{"type":"Feature","properties":{"name":"Sidcot Arms","amenity":"restaurant","website":"https://sidcotarms.co.uk"},"geometry":{"type":"Point","coordinates":[-2.82443,51.30612]}},{"type":"Feature","properties":{"name":"The Lamb Inn","amenity":"pub"},"geometry":{"type":"Point","coordinates":[-2.85068,51.28042]}},{"type":"Feature","properties":{"name":"Swan, Rowberrow","amenity":"pub"},"geometry":{"type":"Point","coordinates":[-2.78971,51.3209]}},{"type":"Feature","properties":{"name":"Cheddar Vale Garden Centre","shop":"garden_centre"},"geometry":{"type":"Point","coordinates":[-2.84687,51.28243]}},{"type":"Feature","properties":{"name":"Thatcher's Brewery Shop","shop":"alcohol"},"geometry":{"type":"Point","coordinates":[-2.83227,51.33278]}},{"type":"Feature","properties":{"name":"New Inn","amenity":"pub","website":"https://www.newinncross.co.uk/","img":"https://upload.wikimedia.org/wikipedia/commons/thumb/0/07/New_Inn%2C_Cross.jpg/500px-New_Inn%2C_Cross.jpg","imgBy":"Dave.Dunford","imgLic":"CC BY-SA 4.0"},"geometry":{"type":"Point","coordinates":[-2.83484,51.28957]}},{"type":"Feature","properties":{"name":"Gardeners Arms","amenity":"pub"},"geometry":{"type":"Point","coordinates":[-2.777,51.28211]}},{"type":"Feature","properties":{"name":"Kings Head","amenity":"pub","img":"https://upload.wikimedia.org/wikipedia/commons/thumb/d/da/The_Kings_Head%2C_Cheddar.jpg/500px-The_Kings_Head%2C_Cheddar.jpg","imgBy":"Sam Wilson  (taken with Panasonic Lumix DMC-FT1)","imgLic":"CC BY-SA 4.0"},"geometry":{"type":"Point","coordinates":[-2.77993,51.28221]}},{"type":"Feature","properties":{"name":"Badassbikes","shop":"bicycle"},"geometry":{"type":"Point","coordinates":[-2.75238,51.3279]}},{"type":"Feature","properties":{"name":"Crossroads","amenity":"fuel"},"geometry":{"type":"Point","coordinates":[-2.79001,51.28707]}},{"type":"Feature","properties":{"amenity":"restaurant"},"geometry":{"type":"Point","coordinates":[-2.81663,51.28735]}},{"type":"Feature","properties":{"amenity":"bar"},"geometry":{"type":"Point","coordinates":[-2.81545,51.28727]}},{"type":"Feature","properties":{"name":"Almshouse Tea Shop","amenity":"restaurant","website":"https://thealmshouseteashop.co.uk/","img":"https://upload.wikimedia.org/wikipedia/commons/thumb/7/7b/The_Old_Almshouse%2C_Axbridge.jpg/500px-The_Old_Almshouse%2C_Axbridge.jpg","imgBy":"Dave.Dunford","imgLic":"CC BY-SA 4.0"},"geometry":{"type":"Point","coordinates":[-2.81716,51.28703]}},{"type":"Feature","properties":{"name":"The Lamb Inn","amenity":"pub","tourism":"hotel","website":"https://www.butcombe.com/pubs/the-lamb-hotel/","img":"https://upload.wikimedia.org/wikipedia/commons/thumb/2/22/The_Lamb_public_house%2C_Axbridge%2C_Somerset_-_geograph.org.uk_-_1606199.jpg/500px-The_Lamb_public_house%2C_Axbridge%2C_Somerset_-_geograph.org.uk_-_1606199.jpg","imgBy":"Anthony O'Neil","imgLic":"CC BY-SA 2.0"},"geometry":{"type":"Point","coordinates":[-2.81762,51.28729]}},{"type":"Feature","properties":{"name":"Cheddar Motors","amenity":"fuel"},"geometry":{"type":"Point","coordinates":[-2.77748,51.27982]}},{"type":"Feature","properties":{"name":"Premier express","shop":"convenience"},"geometry":{"type":"Point","coordinates":[-2.77753,51.27975]}},{"type":"Feature","properties":{"name":"Lillypool Farm","amenity":"cafe"},"geometry":{"type":"Point","coordinates":[-2.79639,51.30526]}},{"type":"Feature","properties":{"name":"Lenny's","amenity":"restaurant"},"geometry":{"type":"Point","coordinates":[-2.79812,51.31421]}},{"type":"Feature","properties":{"name":"White Hart","amenity":"pub","img":"https://upload.wikimedia.org/wikipedia/commons/thumb/d/d2/White_Hart%2C_Cross.jpg/500px-White_Hart%2C_Cross.jpg","imgBy":"Dave.Dunford","imgLic":"CC BY-SA 4.0"},"geometry":{"type":"Point","coordinates":[-2.83751,51.28896]}},{"type":"Feature","properties":{"name":"Lifestyle","shop":"convenience"},"geometry":{"type":"Point","coordinates":[-2.83209,51.31315]}},{"type":"Feature","properties":{"name":"Souvlike","amenity":"restaurant"},"geometry":{"type":"Point","coordinates":[-2.77219,51.28106]}},{"type":"Feature","properties":{"name":"TOUT'S Langford","shop":"convenience","operator":"Tout Ltd"},"geometry":{"type":"Point","coordinates":[-2.78215,51.3397]}},{"type":"Feature","properties":{"name":"Subway","amenity":"fast_food"},"geometry":{"type":"Point","coordinates":[-2.78194,51.33972]}},{"type":"Feature","properties":{"name":"Buffy Hair Studio","shop":"hairdresser","website":"https://www.buffyhairstudio.co.uk/"},"geometry":{"type":"Point","coordinates":[-2.78176,51.33969]}},{"type":"Feature","properties":{"name":"GAB Garden Machinery","shop":"groundskeeping","website":"https://www.gabgardenmachinery.co.uk/"},"geometry":{"type":"Point","coordinates":[-2.82197,51.33368]}},{"type":"Feature","properties":{"name":"Revolution Laundry","shop":"laundry"},"geometry":{"type":"Point","coordinates":[-2.77749,51.27968]}},{"type":"Feature","properties":{"shop":"gift"},"geometry":{"type":"Point","coordinates":[-2.7657,51.28193]}},{"type":"Feature","properties":{"name":"Gough's Café","amenity":"cafe"},"geometry":{"type":"Point","coordinates":[-2.76585,51.28184]}},{"type":"Feature","properties":{"name":"Pullman Café","amenity":"cafe"},"geometry":{"type":"Point","coordinates":[-2.8391,51.33166]}},{"type":"Feature","properties":{"name":"SimplyFresh","shop":"convenience","operator":"SimplyFresh"},"geometry":{"type":"Point","coordinates":[-2.84692,51.2816]}},{"type":"Feature","properties":{"name":"The Original Cheddar Cheese Co.","shop":"deli"},"geometry":{"type":"Polygon","coordinates":[[[-2.76714,51.28185],[-2.76698,51.28185],[-2.76698,51.28179],[-2.76698,51.28178],[-2.76714,51.28178],[-2.76714,51.28185]]]}},{"type":"Feature","properties":{"name":"On The Rock's Cocktail Bar","amenity":"bar"},"geometry":{"type":"Polygon","coordinates":[[[-2.77187,51.28053],[-2.7718,51.2805],[-2.77196,51.28037],[-2.77203,51.2804],[-2.77187,51.28053]]]}},{"type":"Feature","properties":{"name":"Riverside","amenity":"restaurant"},"geometry":{"type":"Polygon","coordinates":[[[-2.77277,51.28007],[-2.7727,51.28003],[-2.77265,51.28001],[-2.77278,51.27991],[-2.77288,51.27996],[-2.77292,51.27998],[-2.77288,51.28001],[-2.77277,51.28007]]]}},{"type":"Feature","properties":{"name":"Zen Thai","amenity":"restaurant"},"geometry":{"type":"Polygon","coordinates":[[[-2.77265,51.2799],[-2.77259,51.27994],[-2.77248,51.27991],[-2.77239,51.27988],[-2.77247,51.27982],[-2.77265,51.2799]]]}},{"type":"Feature","properties":{"name":"La Rocca","amenity":"restaurant","website":"https://la-rocca.co.uk/"},"geometry":{"type":"Polygon","coordinates":[[[-2.7721,51.28111],[-2.7719,51.28119],[-2.77185,51.28114],[-2.77179,51.28117],[-2.77175,51.28112],[-2.77181,51.28109],[-2.77175,51.28103],[-2.77177,51.28099],[-2.77193,51.28093],[-2.77196,51.28097],[-2.77198,51.28096],[-2.77205,51.28107],[-2.7721,51.28111]]]}},{"type":"Feature","properties":{"name":"White Hart","amenity":"pub"},"geometry":{"type":"Polygon","coordinates":[[[-2.77212,51.28134],[-2.77185,51.28133],[-2.77186,51.28124],[-2.77213,51.28125],[-2.77212,51.28134]]]}},{"type":"Feature","properties":{"name":"The Gorge Outdoors","shop":"outdoor"},"geometry":{"type":"Polygon","coordinates":[[[-2.77211,51.28029],[-2.77214,51.28027],[-2.77217,51.28024],[-2.77222,51.28027],[-2.77216,51.28032],[-2.77211,51.28029]]]}},{"type":"Feature","properties":{"name":"The Old Cheddar Sweet Kitchen","shop":"confectionery"},"geometry":{"type":"Polygon","coordinates":[[[-2.77123,51.28141],[-2.77123,51.28141],[-2.77117,51.28141],[-2.77117,51.2814],[-2.77111,51.28141],[-2.77109,51.28134],[-2.77121,51.28132],[-2.77121,51.28133],[-2.77123,51.28141]]]}},{"type":"Feature","properties":{"name":"The Toadstool Gift Shop","shop":"gift"},"geometry":{"type":"Polygon","coordinates":[[[-2.77257,51.2804],[-2.7724,51.28034],[-2.77247,51.28027],[-2.77261,51.28032],[-2.77258,51.28035],[-2.7726,51.28036],[-2.77257,51.2804]]]}},{"type":"Feature","properties":{"name":"Cheddar Gorge Cheese Co","shop":"cheese","website":"https://www.cheddargorgecheese.com"},"geometry":{"type":"Polygon","coordinates":[[[-2.77236,51.28058],[-2.77234,51.28062],[-2.77225,51.2806],[-2.77215,51.28058],[-2.77217,51.28054],[-2.77236,51.28058]]]}},{"type":"Feature","properties":{"name":"Mendip Gift Co.","shop":"gift"},"geometry":{"type":"Polygon","coordinates":[[[-2.7662,51.28191],[-2.7661,51.28192],[-2.76608,51.28188],[-2.76619,51.28186],[-2.7662,51.28191]]]}},{"type":"Feature","properties":{"name":"Moocraft Sheepskin Products","shop":"clothes"},"geometry":{"type":"Polygon","coordinates":[[[-2.77104,51.28144],[-2.77097,51.28145],[-2.77098,51.28147],[-2.77091,51.28148],[-2.77088,51.28143],[-2.77091,51.28142],[-2.7709,51.2814],[-2.77101,51.28138],[-2.77104,51.28144]]]}},{"type":"Feature","properties":{"name":"Holly House Tea Rooms","amenity":"cafe"},"geometry":{"type":"Polygon","coordinates":[[[-2.76753,51.28184],[-2.7673,51.28184],[-2.7673,51.2818],[-2.76753,51.2818],[-2.76753,51.28184]]]}},{"type":"Feature","properties":{"name":"Regatta Great Outdoors","shop":"outdoor"},"geometry":{"type":"Polygon","coordinates":[[[-2.77297,51.28045],[-2.77264,51.28027],[-2.77263,51.28028],[-2.77257,51.28025],[-2.77273,51.28013],[-2.77291,51.28023],[-2.77302,51.28014],[-2.77312,51.28019],[-2.77299,51.28028],[-2.77311,51.28034],[-2.77297,51.28045]]]}},{"type":"Feature","properties":{"name":"Simply Gorgeous","amenity":"cafe"},"geometry":{"type":"Polygon","coordinates":[[[-2.77181,51.28078],[-2.77175,51.28075],[-2.77191,51.2806],[-2.77199,51.28064],[-2.77184,51.28077],[-2.77181,51.28078]]]}},{"type":"Feature","properties":{"name":"Waterfall Cafe & Ice Creams","amenity":"cafe"},"geometry":{"type":"Polygon","coordinates":[[[-2.7699,51.28174],[-2.76983,51.28167],[-2.76981,51.28166],[-2.76985,51.28164],[-2.76987,51.28166],[-2.76995,51.28163],[-2.77012,51.28177],[-2.77,51.28183],[-2.7699,51.28174]]]}},{"type":"Feature","properties":{"name":"Cheddar Gorge Cheese Shop","shop":"cheese","website":"https://www.cheddargorgecheese.com/"},"geometry":{"type":"Polygon","coordinates":[[[-2.77269,51.28062],[-2.77257,51.28056],[-2.77261,51.28052],[-2.77248,51.28047],[-2.77243,51.28051],[-2.77229,51.28045],[-2.77236,51.28038],[-2.77245,51.28041],[-2.77247,51.28039],[-2.77259,51.28044],[-2.77276,51.28051],[-2.77289,51.28045],[-2.77294,51.28049],[-2.7728,51.28056],[-2.7728,51.28055],[-2.77269,51.28062]]]}},{"type":"Feature","properties":{"name":"The Gorge Bear Co.","shop":"toys"},"geometry":{"type":"Polygon","coordinates":[[[-2.76778,51.28184],[-2.76754,51.28184],[-2.76754,51.28178],[-2.76778,51.28178],[-2.76778,51.28184]]]}},{"type":"Feature","properties":{"name":"Tree Tops","shop":"gift"},"geometry":{"type":"Polygon","coordinates":[[[-2.76634,51.2819],[-2.76626,51.2819],[-2.76625,51.28186],[-2.76633,51.28185],[-2.76634,51.2819]]]}},{"type":"Feature","properties":{"name":"Stag and Hounds","amenity":"pub"},"geometry":{"type":"LineString","coordinates":[[-2.78778,51.33862],[-2.78742,51.3382],[-2.78735,51.33818],[-2.7871,51.33826],[-2.78689,51.33831],[-2.78665,51.33837],[-2.78696,51.3388],[-2.78727,51.33872],[-2.78728,51.33873],[-2.78744,51.33878],[-2.78771,51.33872],[-2.78779,51.33869],[-2.78778,51.33862]]}},{"type":"Feature","properties":{"name":"Churchill Inn","amenity":"pub"},"geometry":{"type":"LineString","coordinates":[[-2.78836,51.33753],[-2.78773,51.33691],[-2.78749,51.33701],[-2.7872,51.33708],[-2.78741,51.33728],[-2.78745,51.33732],[-2.78746,51.3374],[-2.78746,51.33744],[-2.78749,51.33746],[-2.78739,51.3375],[-2.78743,51.33753],[-2.78734,51.33761],[-2.7873,51.33764],[-2.78731,51.33767],[-2.78734,51.33769],[-2.78768,51.33791],[-2.78792,51.33778],[-2.78823,51.3376],[-2.78836,51.33753]]}},{"type":"Feature","properties":{"name":"Plume of Feathers","amenity":"pub"},"geometry":{"type":"Polygon","coordinates":[[[-2.73828,51.33103],[-2.73818,51.33104],[-2.73814,51.33091],[-2.73801,51.33091],[-2.738,51.33086],[-2.73814,51.33085],[-2.7382,51.33084],[-2.73828,51.33103]]]}},{"type":"Feature","properties":{"name":"The Woodborough Inn","amenity":"pub","website":"https://www.woodborough-inn.co.uk/"},"geometry":{"type":"Polygon","coordinates":[[[-2.83266,51.31489],[-2.83254,51.31491],[-2.83253,51.31489],[-2.83239,51.31492],[-2.8324,51.31494],[-2.83236,51.31495],[-2.83235,51.31493],[-2.83231,51.31493],[-2.83225,51.31483],[-2.8324,51.3148],[-2.83237,51.31475],[-2.83218,51.31479],[-2.83216,51.31475],[-2.8326,51.31466],[-2.83269,51.31483],[-2.83264,51.31485],[-2.83266,51.31489]]]}},{"type":"Feature","properties":{"name":"Banwell Garden Centre","amenity":"cafe","shop":"garden_centre","website":"https://www.banwellgardencentre.co.uk/"},"geometry":{"type":"LineString","coordinates":[[-2.85521,51.32291],[-2.85451,51.32304],[-2.85385,51.32316],[-2.85318,51.32342],[-2.85311,51.32351],[-2.85342,51.32358],[-2.85397,51.32367],[-2.8548,51.32378],[-2.85511,51.32382],[-2.8554,51.32383],[-2.85571,51.32384],[-2.85579,51.32384],[-2.85574,51.32373],[-2.85553,51.32333],[-2.85521,51.32291]]}},{"type":"Feature","properties":{"name":"Listers Traditional Butchers","shop":"butcher"},"geometry":{"type":"Polygon","coordinates":[[[-2.83308,51.31446],[-2.83307,51.31443],[-2.83305,51.31443],[-2.83303,51.31441],[-2.83297,51.31443],[-2.83302,51.31452],[-2.83308,51.31452],[-2.83308,51.31446]]]}},{"type":"Feature","properties":{"name":"Co-Operative","shop":"convenience","operator":"The Co-operative Group","website":"https://www.coop.co.uk/store-finder/BS25-1AB/woodborough-road"},"geometry":{"type":"Polygon","coordinates":[[[-2.8328,51.31444],[-2.83294,51.3144],[-2.83297,51.31443],[-2.83302,51.31452],[-2.83292,51.31452],[-2.83285,51.3145],[-2.8328,51.31444]]]}},{"type":"Feature","properties":{"name":"Winscombe Kebab & Pizza House","amenity":"fast_food"},"geometry":{"type":"Polygon","coordinates":[[[-2.83211,51.31348],[-2.83218,51.31358],[-2.83236,51.31353],[-2.83229,51.31343],[-2.83211,51.31348]]]}},{"type":"Feature","properties":{"name":"Weston Hospice Care","shop":"charity","operator":"Weston Hospice Care"},"geometry":{"type":"Polygon","coordinates":[[[-2.83238,51.31406],[-2.83244,51.31416],[-2.83232,51.31419],[-2.83225,51.31409],[-2.83238,51.31406]]]}},{"type":"Feature","properties":{"name":"RSPCA","shop":"charity","operator":"RSPCA"},"geometry":{"type":"Polygon","coordinates":[[[-2.83226,51.31341],[-2.8321,51.31346],[-2.83202,51.31335],[-2.83216,51.31331],[-2.8322,51.31336],[-2.83224,51.31338],[-2.83226,51.31341]]]}},{"type":"Feature","properties":{"name":"Café Gorge","amenity":"cafe"},"geometry":{"type":"Polygon","coordinates":[[[-2.76693,51.28181],[-2.76685,51.2818],[-2.76685,51.2818],[-2.76678,51.28179],[-2.76678,51.28178],[-2.76676,51.28178],[-2.76677,51.28173],[-2.76694,51.28174],[-2.76693,51.28181]]]}},{"type":"Feature","properties":{"name":"The Nelson Arms","amenity":"pub"},"geometry":{"type":"Polygon","coordinates":[[[-2.7986,51.33392],[-2.79841,51.33398],[-2.79831,51.33384],[-2.79825,51.33386],[-2.79822,51.33382],[-2.79844,51.33375],[-2.79847,51.33378],[-2.79862,51.33373],[-2.79867,51.33379],[-2.79854,51.33384],[-2.7986,51.33392]]]}},{"type":"Feature","properties":{"name":"Ian Studley Cars","shop":"car_repair"},"geometry":{"type":"Polygon","coordinates":[[[-2.79921,51.31358],[-2.79904,51.31352],[-2.79892,51.31365],[-2.79903,51.31365],[-2.79908,51.31368],[-2.79921,51.31358]]]}},{"type":"Feature","properties":{"amenity":"fuel"},"geometry":{"type":"LineString","coordinates":[[-2.79697,51.32404],[-2.79759,51.32385],[-2.7978,51.3236],[-2.79744,51.32369],[-2.79742,51.32366],[-2.79708,51.32374],[-2.79714,51.32381],[-2.79697,51.32404]]}},{"type":"Feature","properties":{"name":"Biddiscombes of Winscombe","shop":"interior_decoration"},"geometry":{"type":"Polygon","coordinates":[[[-2.83308,51.31452],[-2.83318,51.31452],[-2.83318,51.31445],[-2.83317,51.3144],[-2.83311,51.31441],[-2.83311,51.31445],[-2.83308,51.31446],[-2.83308,51.31452]]]}},{"type":"Feature","properties":{"name":"Touch of Spice","amenity":"restaurant"},"geometry":{"type":"Polygon","coordinates":[[[-2.83322,51.31486],[-2.8332,51.31482],[-2.83306,51.31485],[-2.83308,51.31488],[-2.83322,51.31486]]]}},{"type":"Feature","properties":{"name":"Winscombe Fish Bar","amenity":"fast_food"},"geometry":{"type":"Polygon","coordinates":[[[-2.83318,51.31477],[-2.83319,51.31477],[-2.83318,51.31475],[-2.83301,51.31476],[-2.83304,51.3148],[-2.83318,51.31477]]]}},{"type":"Feature","properties":{"name":"Scoop & Spice","shop":"health_food"},"geometry":{"type":"Polygon","coordinates":[[[-2.83308,51.31488],[-2.83309,51.31491],[-2.83315,51.3149],[-2.83317,51.31492],[-2.83324,51.31491],[-2.83322,51.31486],[-2.83308,51.31488]]]}},{"type":"Feature","properties":{"name":"The Star Inn","amenity":"pub"},"geometry":{"type":"Polygon","coordinates":[[[-2.80666,51.32202],[-2.8064,51.32205],[-2.80639,51.32203],[-2.80641,51.32202],[-2.80636,51.32189],[-2.80641,51.32188],[-2.80639,51.32184],[-2.80637,51.32184],[-2.80632,51.32179],[-2.80635,51.32178],[-2.80631,51.32175],[-2.80652,51.3217],[-2.80656,51.32174],[-2.80666,51.32202]]]}},{"type":"Feature","properties":{"name":"Riverside Inn","amenity":"pub","operator":"Stonegate","website":"https://www.riversidecheddar.co.uk/"},"geometry":{"type":"Polygon","coordinates":[[[-2.77395,51.27928],[-2.77373,51.27947],[-2.77354,51.2794],[-2.77355,51.27939],[-2.77349,51.27937],[-2.77356,51.27929],[-2.77361,51.27931],[-2.77365,51.27927],[-2.77371,51.27929],[-2.7738,51.27921],[-2.77395,51.27928]]]}},{"type":"Feature","properties":{"name":"Sandford Stores","shop":"convenience"},"geometry":{"type":"Polygon","coordinates":[[[-2.82651,51.33335],[-2.82642,51.33319],[-2.82618,51.33323],[-2.82625,51.33337],[-2.8263,51.33336],[-2.82631,51.33339],[-2.82651,51.33335]]]}},{"type":"Feature","properties":{"name":"Cheddar Fish Bar","amenity":"fast_food"},"geometry":{"type":"Polygon","coordinates":[[[-2.77384,51.27986],[-2.7738,51.27974],[-2.77373,51.27974],[-2.77372,51.2797],[-2.77364,51.27971],[-2.77366,51.27977],[-2.77364,51.27977],[-2.77365,51.27979],[-2.77368,51.27988],[-2.77384,51.27986]]]}},{"type":"Feature","properties":{"name":"Gorge Grooming","shop":"pet_grooming"},"geometry":{"type":"Polygon","coordinates":[[[-2.77405,51.27969],[-2.77401,51.27965],[-2.7739,51.27968],[-2.77394,51.27973],[-2.77405,51.27969]]]}},{"type":"Feature","properties":{"name":"Trutone Gifts","shop":"gift"},"geometry":{"type":"Polygon","coordinates":[[[-2.77394,51.27952],[-2.77395,51.27958],[-2.77387,51.27959],[-2.77386,51.27955],[-2.77387,51.27953],[-2.77394,51.27952]]]}},{"type":"Feature","properties":{"shop":"car_repair"},"geometry":{"type":"Polygon","coordinates":[[[-2.77768,51.2799],[-2.77776,51.27979],[-2.77766,51.27976],[-2.77758,51.27976],[-2.77754,51.27973],[-2.77745,51.27972],[-2.77746,51.27969],[-2.77742,51.27967],[-2.77738,51.27967],[-2.77737,51.27971],[-2.77731,51.2797],[-2.7773,51.27973],[-2.77728,51.27972],[-2.7772,51.28003],[-2.77723,51.28003],[-2.77722,51.28005],[-2.77737,51.28007],[-2.77739,51.27998],[-2.7774,51.27998],[-2.77744,51.27983],[-2.77755,51.27984],[-2.77756,51.27981],[-2.7776,51.27983],[-2.77757,51.27986],[-2.77768,51.2799]]]}},{"type":"Feature","properties":{"name":"Rockface","amenity":"cafe"},"geometry":{"type":"Polygon","coordinates":[[[-2.76806,51.28219],[-2.76807,51.28216],[-2.7679,51.28214],[-2.76789,51.28218],[-2.76806,51.28219]]]}},{"type":"Feature","properties":{"name":"Hansford's Deli","shop":"deli"},"geometry":{"type":"Polygon","coordinates":[[[-2.7773,51.27949],[-2.7773,51.2795],[-2.77722,51.2795],[-2.77724,51.27939],[-2.77732,51.2794],[-2.7773,51.27949]]]}},{"type":"Feature","properties":{"name":"Railway Inn","amenity":"pub"},"geometry":{"type":"Polygon","coordinates":[[[-2.83397,51.33291],[-2.834,51.33297],[-2.83404,51.33297],[-2.83406,51.33302],[-2.83416,51.333],[-2.83419,51.33299],[-2.83423,51.33305],[-2.83444,51.33299],[-2.83441,51.33294],[-2.83443,51.33293],[-2.83441,51.3329],[-2.83438,51.33284],[-2.83421,51.33288],[-2.8342,51.33294],[-2.83411,51.33295],[-2.83408,51.33288],[-2.83405,51.33288],[-2.83404,51.33287],[-2.83402,51.33287],[-2.83403,51.3329],[-2.83397,51.33291]]]}},{"type":"Feature","properties":{"name":"Esso Langford","amenity":"fuel"},"geometry":{"type":"Polygon","coordinates":[[[-2.78227,51.33975],[-2.78259,51.33971],[-2.78255,51.33957],[-2.78221,51.33961],[-2.78225,51.33975],[-2.78227,51.33975]]]}},{"type":"Feature","properties":{"name":"The Cheddar Gorge Fudge Shop","shop":"confectionery"},"geometry":{"type":"Polygon","coordinates":[[[-2.7725,51.28002],[-2.77242,51.28008],[-2.77234,51.28004],[-2.77241,51.27998],[-2.7725,51.28002]]]}},{"type":"Feature","properties":{"name":"The Swan Inn, Rowberrow","amenity":"pub","operator":"Butcombe Brewing Co"},"geometry":{"type":"Polygon","coordinates":[[[-2.78982,51.3208],[-2.78974,51.32064],[-2.78947,51.32068],[-2.78954,51.32084],[-2.78982,51.3208]]]}},{"type":"Feature","properties":{"name":"Banwell Garden Centre Café","amenity":"cafe"},"geometry":{"type":"Polygon","coordinates":[[[-2.85433,51.32314],[-2.85408,51.32316],[-2.85409,51.32319],[-2.85402,51.3232],[-2.85402,51.32324],[-2.8541,51.32324],[-2.8541,51.32324],[-2.8543,51.32323],[-2.85429,51.32322],[-2.85434,51.32322],[-2.85433,51.32314]]]}},{"type":"Feature","properties":{"shop":"yes"},"geometry":{"type":"Polygon","coordinates":[[[-2.81693,51.32788],[-2.81653,51.32787],[-2.81652,51.32796],[-2.81692,51.32797],[-2.81693,51.32788]]]}},{"type":"Feature","properties":{"name":"The Co-operative Food","shop":"convenience","operator":"The Co-operative Group","website":"https://www.coop.co.uk/store-finder/BS26-2AR/2-the-square"},"geometry":{"type":"Polygon","coordinates":[[[-2.81754,51.28714],[-2.81743,51.28704],[-2.81755,51.28698],[-2.8176,51.28702],[-2.81765,51.28706],[-2.81773,51.28702],[-2.81776,51.28705],[-2.81768,51.28708],[-2.81769,51.2871],[-2.81754,51.28714]]]}},{"type":"Feature","properties":{"name":"Kebab Kitchen","amenity":"fast_food"},"geometry":{"type":"Polygon","coordinates":[[[-2.77279,51.27977],[-2.77275,51.27981],[-2.77257,51.27973],[-2.77255,51.27972],[-2.7726,51.27968],[-2.77266,51.27971],[-2.77279,51.27977]]]}},{"type":"Feature","properties":{"name":"Edelweiss","amenity":"cafe"},"geometry":{"type":"Polygon","coordinates":[[[-2.77307,51.27956],[-2.77302,51.27957],[-2.77299,51.27956],[-2.77298,51.27956],[-2.77294,51.27952],[-2.77292,51.27953],[-2.7729,51.27953],[-2.77288,51.2795],[-2.77289,51.27949],[-2.77298,51.27946],[-2.77299,51.27946],[-2.77307,51.27956]]]}},{"type":"Feature","properties":{"name":"The Cheddar Cakery","shop":"bakery"},"geometry":{"type":"Polygon","coordinates":[[[-2.77364,51.27979],[-2.77363,51.27977],[-2.77364,51.27977],[-2.77362,51.27969],[-2.77364,51.27968],[-2.77363,51.27967],[-2.77362,51.27967],[-2.77354,51.27969],[-2.77356,51.27976],[-2.77355,51.27977],[-2.77357,51.2798],[-2.77364,51.27979]]]}},{"type":"Feature","properties":{"name":"Cheddar Cliffs Gift Co.","shop":"gift"},"geometry":{"type":"Polygon","coordinates":[[[-2.77247,51.27982],[-2.77257,51.27973],[-2.77275,51.27981],[-2.77265,51.2799],[-2.77247,51.27982]]]}},{"type":"Feature","properties":{"name":"100 Flavours","amenity":"restaurant"},"geometry":{"type":"Polygon","coordinates":[[[-2.77259,51.27994],[-2.7725,51.28002],[-2.77241,51.27998],[-2.77248,51.27991],[-2.77259,51.27994]]]}},{"type":"Feature","properties":{"name":"The Legbender Cider, Country Wine & Craft Shop","shop":"alcohol"},"geometry":{"type":"Polygon","coordinates":[[[-2.77217,51.28054],[-2.77219,51.2805],[-2.77232,51.28052],[-2.77232,51.28053],[-2.77238,51.28055],[-2.77236,51.28058],[-2.77217,51.28054]]]}},{"type":"Feature","properties":{"name":"The Mousehole Cafe & Restaurant","amenity":"cafe"},"geometry":{"type":"Polygon","coordinates":[[[-2.77215,51.28058],[-2.77225,51.2806],[-2.77224,51.28061],[-2.77234,51.28064],[-2.77228,51.28074],[-2.77208,51.28069],[-2.77215,51.28058]]]}},{"type":"Feature","properties":{"name":"Tuckers","amenity":"restaurant"},"geometry":{"type":"Polygon","coordinates":[[[-2.77227,51.28077],[-2.77224,51.28081],[-2.77209,51.28082],[-2.77201,51.2808],[-2.77207,51.28071],[-2.77227,51.28077]]]}},{"type":"Feature","properties":{"name":"On Point","shop":"hairdresser"},"geometry":{"type":"Polygon","coordinates":[[[-2.77216,51.28032],[-2.77206,51.2804],[-2.77201,51.28037],[-2.77211,51.28029],[-2.77216,51.28032]]]}},{"type":"Feature","properties":{"name":"Cheddar Gorge Pottery","shop":"pottery"},"geometry":{"type":"Polygon","coordinates":[[[-2.7711,51.28143],[-2.77108,51.28134],[-2.77102,51.28135],[-2.77106,51.28143],[-2.7711,51.28143]]]}},{"type":"Feature","properties":{"name":"Genuine Cheddar","amenity":"cafe"},"geometry":{"type":"Polygon","coordinates":[[[-2.77131,51.28132],[-2.77142,51.28131],[-2.77144,51.2814],[-2.77134,51.28141],[-2.77131,51.28132]]]}},{"type":"Feature","properties":{"name":"Worzl","shop":"gift"},"geometry":{"type":"Polygon","coordinates":[[[-2.77121,51.28133],[-2.77126,51.28133],[-2.77127,51.2814],[-2.77123,51.28141],[-2.77121,51.28133]]]}},{"type":"Feature","properties":{"name":"Somerset Deli","shop":"deli"},"geometry":{"type":"Polygon","coordinates":[[[-2.77134,51.28141],[-2.77128,51.28142],[-2.77127,51.2814],[-2.77126,51.28133],[-2.77125,51.28133],[-2.77131,51.28132],[-2.77134,51.28141]]]}},{"type":"Feature","properties":{"name":"Doggie Bakery","shop":"bakery"},"geometry":{"type":"Polygon","coordinates":[[[-2.76944,51.28185],[-2.76948,51.28183],[-2.76952,51.28181],[-2.76959,51.28188],[-2.76955,51.2819],[-2.76952,51.28191],[-2.76944,51.28185]]]}},{"type":"Feature","properties":{"name":"Old Rowland's Christmas Shop","shop":"gift"},"geometry":{"type":"Polygon","coordinates":[[[-2.77016,51.28122],[-2.77004,51.28126],[-2.76999,51.28121],[-2.7701,51.28117],[-2.77011,51.28118],[-2.77012,51.28117],[-2.77013,51.28118],[-2.77016,51.28122]]]}},{"type":"Feature","properties":{"name":"Just For You","shop":"gift"},"geometry":{"type":"Polygon","coordinates":[[[-2.76967,51.28174],[-2.76971,51.28173],[-2.76975,51.28171],[-2.76982,51.28177],[-2.76979,51.28179],[-2.76975,51.28181],[-2.76967,51.28174]]]}},{"type":"Feature","properties":{"name":"Don Bishop Photography","shop":"art"},"geometry":{"type":"Polygon","coordinates":[[[-2.76979,51.28169],[-2.76983,51.28167],[-2.7699,51.28174],[-2.76986,51.28175],[-2.76982,51.28177],[-2.76975,51.28171],[-2.76979,51.28169]]]}},{"type":"Feature","properties":{"name":"Dolite Gallery & Gifts","shop":"art"},"geometry":{"type":"Polygon","coordinates":[[[-2.76964,51.28176],[-2.76967,51.28174],[-2.76975,51.28181],[-2.76971,51.28182],[-2.76964,51.28176]]]}},{"type":"Feature","properties":{"name":"Wyvern Coffee Co.","shop":"coffee"},"geometry":{"type":"Polygon","coordinates":[[[-2.7696,51.28178],[-2.76964,51.28176],[-2.76971,51.28182],[-2.76967,51.28184],[-2.7696,51.28178]]]}},{"type":"Feature","properties":{"name":"Gorgeous Animals","shop":"art"},"geometry":{"type":"Polygon","coordinates":[[[-2.76952,51.28181],[-2.76956,51.2818],[-2.76963,51.28186],[-2.76959,51.28188],[-2.76952,51.28181]]]}},{"type":"Feature","properties":{"name":"Sweets & Ice Cream Emporium","shop":"confectionery"},"geometry":{"type":"Polygon","coordinates":[[[-2.7661,51.28192],[-2.76599,51.28194],[-2.76598,51.28189],[-2.76608,51.28188],[-2.7661,51.28192]]]}},{"type":"Feature","properties":{"name":"Lion Rock Tearooms","amenity":"cafe"},"geometry":{"type":"Polygon","coordinates":[[[-2.76673,51.28194],[-2.76672,51.282],[-2.76653,51.28199],[-2.76654,51.28193],[-2.76673,51.28194]]]}},{"type":"Feature","properties":{"name":"Rasoi","amenity":"restaurant"},"geometry":{"type":"Polygon","coordinates":[[[-2.77276,51.27963],[-2.77282,51.27966],[-2.77284,51.27973],[-2.77279,51.27977],[-2.77266,51.27971],[-2.7726,51.27968],[-2.77269,51.2796],[-2.77276,51.27963]]]}},{"type":"Feature","properties":{"name":"The Coffee Bank","amenity":"cafe"},"geometry":{"type":"Polygon","coordinates":[[[-2.83223,51.31405],[-2.83221,51.31398],[-2.83208,51.31399],[-2.83209,51.31402],[-2.832,51.31403],[-2.83202,51.31408],[-2.83223,51.31405]]]}},{"type":"Feature","properties":{"name":"The Wine Shop","shop":"wine","website":"https://vinoshop.co.uk/"},"geometry":{"type":"Polygon","coordinates":[[[-2.83267,51.31422],[-2.83263,51.31417],[-2.83279,51.31412],[-2.83283,51.31417],[-2.83267,51.31422]]]}},{"type":"Feature","properties":{"name":"Winscombe Stationary and Cards","shop":"stationery"},"geometry":{"type":"Polygon","coordinates":[[[-2.83386,51.31469],[-2.83385,51.31458],[-2.83373,51.31459],[-2.83374,51.31469],[-2.83384,51.31469],[-2.83386,51.31469]]]}},{"type":"Feature","properties":{"name":"Winscombe Village Bakery","shop":"bakery"},"geometry":{"type":"Polygon","coordinates":[[[-2.83374,51.31469],[-2.83371,51.31469],[-2.83363,51.3147],[-2.83361,51.31459],[-2.83373,51.31459],[-2.83374,51.31469]]]}},{"type":"Feature","properties":{"name":"AJ's Classy Canines","shop":"pet_grooming"},"geometry":{"type":"Polygon","coordinates":[[[-2.83363,51.3147],[-2.83358,51.3147],[-2.83359,51.31474],[-2.83349,51.31474],[-2.83347,51.31464],[-2.83347,51.3146],[-2.83361,51.31459],[-2.83363,51.3147]]]}},{"type":"Feature","properties":{"name":"The Pantry","amenity":"cafe","website":"https://the-pantry.co.uk/"},"geometry":{"type":"Polygon","coordinates":[[[-2.83311,51.31468],[-2.83299,51.31469],[-2.83301,51.31476],[-2.83318,51.31475],[-2.83321,51.31474],[-2.8332,51.31467],[-2.83311,51.31468]]]}},{"type":"Feature","properties":{"name":"Barber Beyond","shop":"hairdresser"},"geometry":{"type":"Polygon","coordinates":[[[-2.83406,51.3145],[-2.83406,51.31441],[-2.83392,51.31441],[-2.83394,51.3145],[-2.83406,51.3145]]]}},{"type":"Feature","properties":{"name":"The Langford","amenity":"pub"},"geometry":{"type":"Polygon","coordinates":[[[-2.77049,51.34247],[-2.77035,51.34246],[-2.77034,51.3425],[-2.77022,51.34249],[-2.77024,51.3424],[-2.77033,51.34238],[-2.77025,51.34227],[-2.77033,51.34224],[-2.77029,51.34218],[-2.77012,51.34223],[-2.77022,51.34237],[-2.77018,51.34238],[-2.77017,51.3424],[-2.77015,51.3424],[-2.77011,51.34254],[-2.7701,51.34254],[-2.77007,51.34265],[-2.77018,51.34266],[-2.77019,51.34262],[-2.77031,51.34263],[-2.7703,51.34268],[-2.77044,51.3427],[-2.77049,51.34247]]]}},{"type":"Feature","properties":{"name":"Batch Cottage","amenity":"pub"},"geometry":{"type":"Polygon","coordinates":[[[-2.79701,51.33251],[-2.79712,51.3324],[-2.79686,51.33229],[-2.79681,51.33234],[-2.79699,51.33242],[-2.79698,51.33243],[-2.79692,51.33241],[-2.79688,51.33245],[-2.79701,51.33251]]]}},{"type":"Feature","properties":{"name":"Texaco","amenity":"fuel","website":"https://locations.valero.com/en-gb/LocationDetails/Index/BRIDGEWATER-ROAD/0000886444"},"geometry":{"type":"Polygon","coordinates":[[[-2.82948,51.30174],[-2.82958,51.30163],[-2.82953,51.30161],[-2.82956,51.30157],[-2.82951,51.30152],[-2.82946,51.30159],[-2.82936,51.30156],[-2.82927,51.30168],[-2.82948,51.30174]]]}},{"type":"Feature","properties":{"name":"Lunns Filling Station","amenity":"fuel","operator":"BP","website":"https://map.bp.com/en-GB/GB/petrol-station/axbridge/lunns-filling-station/4215"},"geometry":{"type":"Polygon","coordinates":[[[-2.84676,51.28171],[-2.84663,51.28163],[-2.84658,51.28166],[-2.84651,51.28161],[-2.84674,51.28148],[-2.8468,51.28152],[-2.84675,51.28156],[-2.84682,51.28161],[-2.84692,51.28155],[-2.84698,51.28159],[-2.84676,51.28171]]]}}]}