{"type":"FeatureCollection","features":[{"type":"Feature","properties":{"name":"Sidcot Junior School","amenity":"school"},"geometry":{"type":"Point","coordinates":[-2.81956,51.31444]}},{"type":"Feature","properties":{"name":"Axbridge Methodist Church","amenity":"place_of_worship","religion":"christian","denomination":"methodist"},"geometry":{"type":"Point","coordinates":[-2.82028,51.28759]}},{"type":"Feature","properties":{"name":"Axbridge Post Office","amenity":"post_office"},"geometry":{"type":"Point","coordinates":[-2.81671,51.28706]}},{"type":"Feature","properties":{"name":"Churchill Post Office and Stores","amenity":"post_office"},"geometry":{"type":"Point","coordinates":[-2.80378,51.33541]}},{"type":"Feature","properties":{"name":"Churchill Academy & Sixth Form","amenity":"school","operator":"Lighthouse Schools Partnership","website":"https://www.churchill-academy.org/","wikipedia":"en:Churchill Academy and Sixth Form","religion":"none"},"geometry":{"type":"Polygon","coordinates":[[[-2.80909,51.33602],[-2.80911,51.3359],[-2.80913,51.33583],[-2.80919,51.33581],[-2.80934,51.33579],[-2.80995,51.33581],[-2.81029,51.33584],[-2.81117,51.336],[-2.81183,51.33613],[-2.81235,51.33627],[-2.81423,51.33682],[-2.81493,51.33697],[-2.81472,51.33743],[-2.81525,51.3388],[-2.81247,51.33985],[-2.81189,51.33951],[-2.81153,51.33873],[-2.81101,51.33813],[-2.81113,51.3379],[-2.8106,51.33735],[-2.80932,51.33714],[-2.80931,51.33694],[-2.80884,51.33686],[-2.80905,51.33639],[-2.80909,51.33602]]]}},{"type":"Feature","properties":{"amenity":"grave_yard"},"geometry":{"type":"Polygon","coordinates":[[[-2.79884,51.32039],[-2.79891,51.32008],[-2.80033,51.3201],[-2.8003,51.32043],[-2.79884,51.32039]]]}},{"type":"Feature","properties":{"name":"Shipham Village Hall","amenity":"community_centre"},"geometry":{"type":"Polygon","coordinates":[[[-2.79895,51.31772],[-2.79873,51.31773],[-2.79872,51.31767],[-2.79876,51.31766],[-2.79875,51.31756],[-2.79882,51.31755],[-2.79881,51.31742],[-2.79895,51.31741],[-2.79896,51.31751],[-2.7991,51.31751],[-2.79912,51.31765],[-2.79895,51.31766],[-2.79895,51.31772]]]}},{"type":"Feature","properties":{"name":"Rickford Chapel","amenity":"place_of_worship","religion":"christian","denomination":"anglican"},"geometry":{"type":"Polygon","coordinates":[[[-2.73735,51.33029],[-2.73741,51.33022],[-2.73721,51.33015],[-2.73718,51.33018],[-2.73721,51.33019],[-2.73717,51.33023],[-2.73735,51.33029]]]}},{"type":"Feature","properties":{"name":"Holy Trinity","amenity":"place_of_worship","wikipedia":"en:Church of Holy Trinity, Burrington","religion":"christian","denomination":"anglican"},"geometry":{"type":"Polygon","coordinates":[[[-2.74981,51.33077],[-2.74981,51.33073],[-2.74989,51.33073],[-2.74987,51.33067],[-2.74979,51.33067],[-2.74979,51.33064],[-2.74974,51.33064],[-2.74973,51.33061],[-2.74967,51.33061],[-2.74968,51.33065],[-2.74954,51.33066],[-2.74955,51.3307],[-2.74951,51.33071],[-2.74952,51.33075],[-2.74955,51.33074],[-2.74956,51.33078],[-2.74981,51.33077]]]}},{"type":"Feature","properties":{"name":"Rowberrow Church","amenity":"place_of_worship","wikipedia":"en:Church of St Michael and All Angels, Rowberrow","religion":"christian","denomination":"anglican"},"geometry":{"type":"Polygon","coordinates":[[[-2.79143,51.32409],[-2.79148,51.32409],[-2.79149,51.32412],[-2.79154,51.32412],[-2.79154,51.32409],[-2.79174,51.32407],[-2.79172,51.32402],[-2.79167,51.32402],[-2.79166,51.32401],[-2.79162,51.32401],[-2.79161,51.32399],[-2.79156,51.324],[-2.79157,51.32403],[-2.79142,51.32404],[-2.79143,51.32409]]]}},{"type":"Feature","properties":{"name":"St Leonards","amenity":"place_of_worship","religion":"christian","denomination":"anglican"},"geometry":{"type":"Polygon","coordinates":[[[-2.80055,51.31327],[-2.80056,51.31314],[-2.80048,51.31313],[-2.80047,51.31317],[-2.80027,51.31316],[-2.80027,51.31319],[-2.80022,51.31319],[-2.80022,51.31324],[-2.80027,51.31324],[-2.80027,51.31326],[-2.80055,51.31327]]]}},{"type":"Feature","properties":{"name":"Sewell House","amenity":"social_facility","operator":"Sidcot Friends Housing Society Ltd"},"geometry":{"type":"Polygon","coordinates":[[[-2.82909,51.3144],[-2.82886,51.31423],[-2.82883,51.31425],[-2.82868,51.31415],[-2.82871,51.31413],[-2.82856,51.31403],[-2.82858,51.31402],[-2.82851,51.31397],[-2.82861,51.31392],[-2.82892,51.31413],[-2.82904,51.31406],[-2.82913,51.31413],[-2.82901,51.31419],[-2.82921,51.31433],[-2.82909,51.3144]]]}},{"type":"Feature","properties":{"name":"Winscombe Library","amenity":"library"},"geometry":{"type":"Polygon","coordinates":[[[-2.83268,51.31424],[-2.83279,51.31422],[-2.83285,51.3143],[-2.83273,51.31433],[-2.83268,51.31424]]]}},{"type":"Feature","properties":{"name":"Axbridge Church of England First School Academy","amenity":"school","operator":"Wessex Learning Trust","website":"https://www.axbridgefirstschool.co.uk/","religion":"christian","denomination":"anglican"},"geometry":{"type":"Polygon","coordinates":[[[-2.81669,51.28575],[-2.81672,51.28571],[-2.81706,51.2856],[-2.81725,51.28555],[-2.81732,51.28555],[-2.81741,51.2856],[-2.81744,51.28569],[-2.81744,51.28582],[-2.81767,51.28612],[-2.81718,51.28627],[-2.81714,51.28607],[-2.81674,51.28608],[-2.81669,51.28575]]]}},{"type":"Feature","properties":{"name":"Winscombe Primary School","amenity":"school","operator":"Wessex Learning Trust","website":"https://winscombeprimaryschool.com/"},"geometry":{"type":"Polygon","coordinates":[[[-2.82891,51.31726],[-2.8269,51.31771],[-2.82709,51.31855],[-2.82827,51.31846],[-2.82848,51.31841],[-2.82903,51.31842],[-2.82918,51.31828],[-2.82926,51.31825],[-2.82923,51.31802],[-2.82913,51.31765],[-2.82891,51.31726]]]}},{"type":"Feature","properties":{"name":"Burrington Church of England Primary School","amenity":"school","operator":"Lighthouse Schools Partnership","website":"https://www.burringtonprimary.co.uk/","religion":"christian","denomination":"anglican"},"geometry":{"type":"Polygon","coordinates":[[[-2.74904,51.33078],[-2.74907,51.33077],[-2.74914,51.33077],[-2.74934,51.33078],[-2.74939,51.33103],[-2.7491,51.33108],[-2.74904,51.33078]]]}},{"type":"Feature","properties":{"name":"Shipham Church of England First School","amenity":"school","operator":"Wessex Learning Trust","website":"https://shiphamfirstschool.co.uk/","religion":"christian","denomination":"anglican"},"geometry":{"type":"Polygon","coordinates":[[[-2.79869,51.31619],[-2.79863,51.31611],[-2.79861,51.31601],[-2.79857,51.31573],[-2.79858,51.31545],[-2.79889,51.31548],[-2.79915,51.3156],[-2.7997,51.31562],[-2.79973,51.31549],[-2.79987,51.3155],[-2.79984,51.31621],[-2.79976,51.31641],[-2.79968,51.3165],[-2.79899,51.31625],[-2.79893,51.31631],[-2.79869,51.31619]]]}},{"type":"Feature","properties":{"name":"Churchill Church of England Primary School","amenity":"school","operator":"Lighthouse Schools Partnership","website":"https://www.churchillprimaryschool.co.uk/","religion":"christian","denomination":"anglican"},"geometry":{"type":"Polygon","coordinates":[[[-2.78634,51.34113],[-2.78613,51.34065],[-2.78571,51.33973],[-2.78663,51.33957],[-2.78695,51.3404],[-2.78743,51.34032],[-2.78751,51.34057],[-2.7873,51.34064],[-2.78728,51.34069],[-2.78734,51.34089],[-2.78745,51.34094],[-2.78755,51.34096],[-2.78756,51.341],[-2.78721,51.34102],[-2.78676,51.34107],[-2.78634,51.34113]]]}},{"type":"Feature","properties":{"name":"Sandford Primary School","amenity":"school","operator":"Wessex Learning Trust","website":"https://sandfordprimary.org/"},"geometry":{"type":"Polygon","coordinates":[[[-2.82466,51.33338],[-2.82483,51.33339],[-2.82508,51.33337],[-2.82517,51.33335],[-2.82526,51.33332],[-2.82556,51.33328],[-2.82566,51.33367],[-2.82568,51.33381],[-2.8257,51.33392],[-2.82543,51.33394],[-2.82507,51.33396],[-2.82481,51.33395],[-2.82478,51.33382],[-2.82466,51.33338]]]}},{"type":"Feature","properties":{"name":"St Mary's Church","amenity":"place_of_worship","religion":"christian","denomination":"anglican"},"geometry":{"type":"Polygon","coordinates":[[[-2.78158,51.33995],[-2.78151,51.33988],[-2.78128,51.33997],[-2.78126,51.33998],[-2.78126,51.34],[-2.78125,51.34002],[-2.78128,51.34003],[-2.7813,51.34005],[-2.78134,51.34004],[-2.78136,51.34004],[-2.78158,51.33995]]]}},{"type":"Feature","properties":{"name":"St John the Baptist","amenity":"place_of_worship","wikipedia":"en:Church of St John the Baptist, Churchill","religion":"christian","denomination":"anglican"},"geometry":{"type":"Polygon","coordinates":[[[-2.80938,51.33848],[-2.80938,51.33845],[-2.80932,51.33845],[-2.80932,51.33841],[-2.80926,51.33841],[-2.80926,51.33836],[-2.80921,51.33837],[-2.80921,51.33841],[-2.80909,51.33841],[-2.80909,51.33843],[-2.80901,51.33843],[-2.80901,51.33849],[-2.8091,51.33849],[-2.8091,51.33852],[-2.80932,51.33852],[-2.80932,51.33848],[-2.80938,51.33848]]]}},{"type":"Feature","properties":{"amenity":"grave_yard"},"geometry":{"type":"Polygon","coordinates":[[[-2.81054,51.33874],[-2.81054,51.33872],[-2.80998,51.3386],[-2.80995,51.33868],[-2.8097,51.33865],[-2.80942,51.33861],[-2.80953,51.33832],[-2.80886,51.33826],[-2.80881,51.3385],[-2.8088,51.33854],[-2.80861,51.33852],[-2.80826,51.33848],[-2.80822,51.33866],[-2.80836,51.33867],[-2.80836,51.33868],[-2.80834,51.33878],[-2.80833,51.33888],[-2.80866,51.3389],[-2.80868,51.33881],[-2.8087,51.33871],[-2.80871,51.33869],[-2.80967,51.33875],[-2.81054,51.33874]]]}},{"type":"Feature","properties":{"amenity":"grave_yard"},"geometry":{"type":"Polygon","coordinates":[[[-2.83171,51.33245],[-2.83146,51.33191],[-2.83117,51.33203],[-2.83099,51.33216],[-2.83092,51.33229],[-2.83098,51.33234],[-2.83126,51.3324],[-2.83154,51.33244],[-2.83171,51.33245]]]}},{"type":"Feature","properties":{"name":"All Saints","amenity":"place_of_worship","religion":"christian","denomination":"anglican"},"geometry":{"type":"Polygon","coordinates":[[[-2.83142,51.33231],[-2.83141,51.33226],[-2.83128,51.33227],[-2.83127,51.33219],[-2.83116,51.3322],[-2.83118,51.33233],[-2.83142,51.33231]]]}},{"type":"Feature","properties":{"name":"St James the Great","amenity":"place_of_worship","religion":"christian","denomination":"anglican"},"geometry":{"type":"Polygon","coordinates":[[[-2.84574,51.30599],[-2.84575,51.30596],[-2.84583,51.30597],[-2.84584,51.3059],[-2.84575,51.3059],[-2.84576,51.30587],[-2.84542,51.30585],[-2.84542,51.30588],[-2.84535,51.30587],[-2.84534,51.30593],[-2.84541,51.30593],[-2.84541,51.30597],[-2.84553,51.30598],[-2.84553,51.30601],[-2.8456,51.30602],[-2.84561,51.30598],[-2.84574,51.30599]]]}},{"type":"Feature","properties":{"amenity":"grave_yard"},"geometry":{"type":"Polygon","coordinates":[[[-2.84632,51.30627],[-2.84581,51.30627],[-2.84553,51.30627],[-2.84551,51.30617],[-2.84519,51.30623],[-2.84499,51.30604],[-2.84504,51.30601],[-2.84513,51.30565],[-2.84539,51.30567],[-2.84603,51.30582],[-2.84657,51.30581],[-2.84653,51.30605],[-2.84632,51.30627]]]}},{"type":"Feature","properties":{"name":"Church of St John the Baptist","amenity":"place_of_worship","website":"http://www.stjohnthebaptistaxbridge.org.uk/","wikipedia":"en:Church of St John the Baptist, Axbridge","religion":"christian","denomination":"anglican"},"geometry":{"type":"Polygon","coordinates":[[[-2.81685,51.28781],[-2.81683,51.28766],[-2.8167,51.28767],[-2.8166,51.28767],[-2.81659,51.28766],[-2.81645,51.28767],[-2.81637,51.28768],[-2.81638,51.28774],[-2.81633,51.28774],[-2.81634,51.28781],[-2.81639,51.2878],[-2.8164,51.28784],[-2.81651,51.28784],[-2.81652,51.28785],[-2.81663,51.28785],[-2.81663,51.28782],[-2.81685,51.28781]]]}},{"type":"Feature","properties":{"name":"St James Church","amenity":"place_of_worship","wikipedia":"en:Church of St James, Winscombe","religion":"christian"},"geometry":{"type":"Polygon","coordinates":[[[-2.83562,51.31455],[-2.83555,51.31445],[-2.8358,51.31439],[-2.83581,51.3144],[-2.83583,51.31439],[-2.83589,51.31448],[-2.83562,51.31455]]]}},{"type":"Feature","properties":{"amenity":"grave_yard"},"geometry":{"type":"Polygon","coordinates":[[[-2.8006,51.31304],[-2.80043,51.31305],[-2.80022,51.31307],[-2.80005,51.3131],[-2.79985,51.31332],[-2.79996,51.31334],[-2.79993,51.31338],[-2.80066,51.31339],[-2.80066,51.31323],[-2.80063,51.31323],[-2.80064,51.31317],[-2.80062,51.31317],[-2.8006,51.31304]]]}},{"type":"Feature","properties":{"name":"Our Lady Queen of Apostles","amenity":"place_of_worship","religion":"christian","denomination":"catholic"},"geometry":{"type":"Polygon","coordinates":[[[-2.78049,51.28067],[-2.78049,51.28051],[-2.78034,51.28051],[-2.78034,51.28068],[-2.78036,51.28068],[-2.78036,51.28071],[-2.78046,51.28071],[-2.78046,51.28067],[-2.78049,51.28067]]]}},{"type":"Feature","properties":{"name":"Church Hall","amenity":"community_centre"},"geometry":{"type":"Polygon","coordinates":[[[-2.78069,51.28083],[-2.7807,51.28076],[-2.7805,51.28075],[-2.78049,51.28082],[-2.78069,51.28083]]]}},{"type":"Feature","properties":{"name":"Cheddar Valley Community Church","amenity":"place_of_worship","religion":"christian"},"geometry":{"type":"Polygon","coordinates":[[[-2.77784,51.27958],[-2.77766,51.27957],[-2.77767,51.27948],[-2.77787,51.27949],[-2.77787,51.27953],[-2.77783,51.27954],[-2.77784,51.27958]]]}},{"type":"Feature","properties":{"name":"Churchill Methodist Church","amenity":"place_of_worship","religion":"christian","denomination":"methodist","img":"https://thumb.wikimedia.org/wikipedia/commons/thumb/9/9f/Churchill_Methodist_Church.jpg/330px-Churchill_Methodist_Church.jpg?utm_source=en.wikipedia.org&utm_campaign=api&utm_content=thumbnail","imgBy":"Wikipedia: Churchill Methodist Church","imgLic":"see Wikipedia"},"geometry":{"type":"Polygon","coordinates":[[[-2.8004,51.33438],[-2.80041,51.33429],[-2.80036,51.33429],[-2.80037,51.33421],[-2.80026,51.3342],[-2.80025,51.33429],[-2.80008,51.33428],[-2.80009,51.33421],[-2.7999,51.3342],[-2.79989,51.33426],[-2.79971,51.33425],[-2.79971,51.33429],[-2.79963,51.33429],[-2.79962,51.33437],[-2.79981,51.33438],[-2.79981,51.33435],[-2.8004,51.33438]]]}},{"type":"Feature","properties":{"name":"Sandford Village Hall","amenity":"community_centre","website":"https://sandfordvillagehall.org/","start_date":"1909"},"geometry":{"type":"Polygon","coordinates":[[[-2.82686,51.33292],[-2.82683,51.33287],[-2.82681,51.33288],[-2.82679,51.33283],[-2.827,51.3328],[-2.82703,51.33287],[-2.82701,51.33288],[-2.827,51.33288],[-2.82701,51.3329],[-2.82686,51.33292]]]}},{"type":"Feature","properties":{"amenity":"grave_yard"},"geometry":{"type":"Polygon","coordinates":[[[-2.75012,51.33047],[-2.74936,51.33053],[-2.74931,51.33055],[-2.74923,51.3306],[-2.74917,51.33062],[-2.7491,51.33063],[-2.74904,51.33064],[-2.74904,51.33066],[-2.7491,51.33071],[-2.7491,51.33074],[-2.74904,51.33078],[-2.74907,51.33077],[-2.74914,51.33077],[-2.74934,51.33078],[-2.74939,51.33103],[-2.75028,51.33091],[-2.75018,51.33069],[-2.75012,51.33047]]]}},{"type":"Feature","properties":{"amenity":"grave_yard"},"geometry":{"type":"Polygon","coordinates":[[[-2.81552,51.2882],[-2.81551,51.28792],[-2.8155,51.28769],[-2.81563,51.28767],[-2.81574,51.28768],[-2.81583,51.2877],[-2.81599,51.28767],[-2.81613,51.28765],[-2.81624,51.28763],[-2.8163,51.28762],[-2.8163,51.28762],[-2.81656,51.28761],[-2.81659,51.28761],[-2.8166,51.28763],[-2.81661,51.28765],[-2.81659,51.28766],[-2.81645,51.28767],[-2.81637,51.28768],[-2.81638,51.28774],[-2.81633,51.28774],[-2.81634,51.28781],[-2.81639,51.2878],[-2.8164,51.28784],[-2.81651,51.28784],[-2.81652,51.28785],[-2.81663,51.28785],[-2.81663,51.28782],[-2.81685,51.28781],[-2.81686,51.28787],[-2.81694,51.28812],[-2.81705,51.28816],[-2.81578,51.2882],[-2.81552,51.2882]]]}},{"type":"Feature","properties":{"name":"Winscombe Community Centre","amenity":"community_centre","img":"https://thumb.wikimedia.org/wikipedia/commons/thumb/4/45/Winscombe_Church_tower_-_geograph.org.uk_-_6292692.jpg/330px-Winscombe_Church_tower_-_geograph.org.uk_-_6292692.jpg?utm_source=en.wikipedia.org&utm_campaign=api&utm_content=thumbnail","imgBy":"Wikipedia: Winscombe","imgLic":"see Wikipedia"},"geometry":{"type":"LineString","coordinates":[[-2.83363,51.31621],[-2.83342,51.31579],[-2.83377,51.31575],[-2.83377,51.3158],[-2.83398,51.3158],[-2.83403,51.31592],[-2.83451,51.3159],[-2.83467,51.3159],[-2.8347,51.31596],[-2.83472,51.31603],[-2.83447,51.31607],[-2.83444,51.31607],[-2.83446,51.31611],[-2.83451,51.3163],[-2.8344,51.31631],[-2.83432,51.3161],[-2.83363,51.31621]]}},{"type":"Feature","properties":{"amenity":"place_of_worship","religion":"christian","denomination":"methodist"},"geometry":{"type":"Polygon","coordinates":[[[-2.82024,51.28762],[-2.82024,51.28759],[-2.8202,51.28759],[-2.8202,51.28737],[-2.82033,51.28737],[-2.82033,51.28738],[-2.82028,51.28738],[-2.82028,51.28739],[-2.82025,51.28739],[-2.82025,51.2874],[-2.82034,51.2874],[-2.82034,51.28749],[-2.82032,51.28749],[-2.82032,51.28759],[-2.82029,51.28759],[-2.82029,51.28762],[-2.82024,51.28762]]]}},{"type":"Feature","properties":{"name":"Cross Memorial Hall","amenity":"community_centre"},"geometry":{"type":"Polygon","coordinates":[[[-2.84534,51.28896],[-2.84524,51.28895],[-2.84524,51.28897],[-2.84507,51.28896],[-2.84509,51.28888],[-2.84529,51.2889],[-2.84529,51.28892],[-2.84535,51.28893],[-2.84534,51.28896]]]}},{"type":"Feature","properties":{"name":"Langford Chapel","amenity":"place_of_worship","religion":"christian","denomination":"evangelical"},"geometry":{"type":"Polygon","coordinates":[[[-2.77173,51.3434],[-2.77181,51.3434],[-2.77181,51.34351],[-2.77172,51.34351],[-2.77168,51.34351],[-2.77168,51.34352],[-2.77144,51.34352],[-2.77144,51.34348],[-2.77144,51.34345],[-2.7717,51.34345],[-2.7717,51.34346],[-2.77175,51.34346],[-2.77175,51.34345],[-2.77173,51.34345],[-2.77173,51.3434]]]}},{"type":"Feature","properties":{"amenity":"grave_yard"},"geometry":{"type":"Polygon","coordinates":[[[-2.77172,51.34358],[-2.77172,51.34351],[-2.77168,51.34351],[-2.77168,51.34352],[-2.77144,51.34352],[-2.77144,51.34348],[-2.77144,51.34345],[-2.7717,51.34345],[-2.7717,51.34346],[-2.77175,51.34346],[-2.77175,51.34345],[-2.77173,51.34345],[-2.77173,51.3434],[-2.77137,51.34339],[-2.77136,51.34348],[-2.77135,51.34359],[-2.77172,51.34358]]]}},{"type":"Feature","properties":{"name":"Winscombe Post Office","amenity":"post_office","operator":"Steve and Sue Reed","img":"https://thumb.wikimedia.org/wikipedia/commons/thumb/4/45/Winscombe_Church_tower_-_geograph.org.uk_-_6292692.jpg/330px-Winscombe_Church_tower_-_geograph.org.uk_-_6292692.jpg?utm_source=en.wikipedia.org&utm_campaign=api&utm_content=thumbnail","imgBy":"Wikipedia: Winscombe","imgLic":"see Wikipedia"},"geometry":{"type":"Polygon","coordinates":[[[-2.83199,51.31355],[-2.83196,51.31351],[-2.83167,51.31359],[-2.83169,51.31362],[-2.8318,51.31359],[-2.83183,51.31362],[-2.83194,51.31358],[-2.83193,51.31357],[-2.83199,51.31355]]]}},{"type":"Feature","properties":{"name":"Winscombe Hall","amenity":"social_facility","operator":"Cedars Care Group","website":"https://www.cedarscaregroup.co.uk/winscombe-hall-care-centre"},"geometry":{"type":"Polygon","coordinates":[[[-2.83622,51.30077],[-2.83607,51.30078],[-2.8361,51.3009],[-2.83602,51.30091],[-2.83601,51.30088],[-2.83596,51.30089],[-2.83597,51.30092],[-2.83586,51.30093],[-2.83586,51.3009],[-2.83571,51.30091],[-2.8357,51.30086],[-2.83556,51.30088],[-2.83554,51.30082],[-2.83569,51.3008],[-2.83569,51.30078],[-2.83621,51.30073],[-2.83622,51.30077]]]}}]}