{"type":"FeatureCollection","features":[{"type":"Feature","properties":{"name":"Cheddar Reservoir SSSI","natural":"water","operator":"Bristol Water","wikipedia":"en:Cheddar Reservoir"},"geometry":{"type":"Polygon","coordinates":[[[-2.80949,51.27735],[-2.80954,51.27761],[-2.80953,51.27788],[-2.80951,51.27932],[-2.80949,51.27966],[-2.8095,51.28004],[-2.80948,51.28096],[-2.80947,51.28143],[-2.80947,51.28204],[-2.80946,51.28236],[-2.80926,51.28289],[-2.80912,51.28312],[-2.80909,51.28317],[-2.80894,51.28335],[-2.80867,51.28361],[-2.80863,51.28364],[-2.80816,51.28406],[-2.80781,51.2843],[-2.80752,51.28445],[-2.80718,51.28457],[-2.80678,51.28466],[-2.80619,51.28477],[-2.806,51.2848],[-2.80535,51.2849],[-2.80484,51.28496],[-2.80445,51.285],[-2.80435,51.28501],[-2.80389,51.28504],[-2.80331,51.28506],[-2.80284,51.28506],[-2.80217,51.28503],[-2.80153,51.28499],[-2.80088,51.28494],[-2.80072,51.28491],[-2.8004,51.28486],[-2.80009,51.2848],[-2.79973,51.2847],[-2.79936,51.28458],[-2.79857,51.28424],[-2.7981,51.28401],[-2.79803,51.28398],[-2.79674,51.28327],[-2.79605,51.28283],[-2.79564,51.28248],[-2.7954,51.28226],[-2.79517,51.28194],[-2.79499,51.2817],[-2.79493,51.28161],[-2.79463,51.28114],[-2.79447,51.28073],[-2.79437,51.28009],[-2.79433,51.27968],[-2.79436,51.27931],[-2.79446,51.27898],[-2.79457,51.27871],[-2.79482,51.27835],[-2.7949,51.2782],[-2.79515,51.27795],[-2.79566,51.27756],[-2.79624,51.27715],[-2.79676,51.2768],[-2.79737,51.27647],[-2.79788,51.27627],[-2.79857,51.27602],[-2.79935,51.2758],[-2.80007,51.27563],[-2.80091,51.27547],[-2.80172,51.27536],[-2.80269,51.27526],[-2.80364,51.27522],[-2.80425,51.27522],[-2.8052,51.27526],[-2.80571,51.27533],[-2.80636,51.27544],[-2.80686,51.27558],[-2.80755,51.27582],[-2.80815,51.27605],[-2.80848,51.2762],[-2.80896,51.27649],[-2.80925,51.27674],[-2.80942,51.27706],[-2.80947,51.27725],[-2.80949,51.27735]]]}},{"type":"Feature","properties":{"waterway":"stream"},"geometry":{"type":"LineString","coordinates":[[-2.71749,51.3423],[-2.71916,51.34226],[-2.71934,51.34225],[-2.71954,51.34231],[-2.7199,51.3424],[-2.72031,51.34243],[-2.72052,51.34242],[-2.72069,51.34239],[-2.72101,51.34233],[-2.72139,51.34221],[-2.72187,51.34219],[-2.72228,51.34223],[-2.72276,51.34214],[-2.72334,51.34215],[-2.72412,51.3423],[-2.72493,51.34262],[-2.72592,51.34278],[-2.72657,51.34275],[-2.72702,51.34273],[-2.72761,51.34291]]}},{"type":"Feature","properties":{"name":"Towerhead Brook","waterway":"stream"},"geometry":{"type":"LineString","coordinates":[[-2.81899,51.32265],[-2.81905,51.32265],[-2.82031,51.32252],[-2.82035,51.32264],[-2.82211,51.32236],[-2.82229,51.32232],[-2.82299,51.32216],[-2.8234,51.32216],[-2.82368,51.32226],[-2.82413,51.32235],[-2.82478,51.32254],[-2.82525,51.32261],[-2.82565,51.32269],[-2.82581,51.32279],[-2.82624,51.32286],[-2.82748,51.32328],[-2.82831,51.32353],[-2.82935,51.32359],[-2.83047,51.32373],[-2.83108,51.32379],[-2.83166,51.3239],[-2.83196,51.32395],[-2.83237,51.32408],[-2.83263,51.32422],[-2.8328,51.32425],[-2.83301,51.32432],[-2.83348,51.32443],[-2.8338,51.3245]]}},{"type":"Feature","properties":{"name":"Sandmead Rhyne","waterway":"stream"},"geometry":{"type":"LineString","coordinates":[[-2.81163,51.33284],[-2.81165,51.333],[-2.81175,51.33314],[-2.81191,51.33325],[-2.81213,51.33332],[-2.81238,51.33337],[-2.81251,51.33336],[-2.81301,51.33342],[-2.81329,51.33346],[-2.81371,51.33366],[-2.81383,51.33367],[-2.81399,51.33373],[-2.81435,51.33377],[-2.81456,51.33378],[-2.81474,51.33382],[-2.81485,51.33389],[-2.81504,51.33395],[-2.8153,51.33409],[-2.8156,51.33418],[-2.81589,51.3343],[-2.81649,51.3345],[-2.81668,51.33458],[-2.8167,51.33465],[-2.81726,51.33489],[-2.81742,51.33497],[-2.81766,51.33509],[-2.81769,51.33513],[-2.81771,51.33515],[-2.81783,51.3352],[-2.81789,51.33522],[-2.81802,51.33527],[-2.81833,51.33539],[-2.81848,51.33543],[-2.81858,51.33544],[-2.81865,51.33546],[-2.81869,51.33545],[-2.81874,51.33545],[-2.81879,51.33548],[-2.81889,51.33551],[-2.81899,51.33553],[-2.81935,51.3356],[-2.81973,51.33567],[-2.8199,51.33569],[-2.82002,51.33572],[-2.82011,51.33576],[-2.8203,51.33583],[-2.82044,51.33588],[-2.82069,51.33597],[-2.82077,51.33597],[-2.82087,51.33602],[-2.82097,51.33605],[-2.82108,51.33606],[-2.82113,51.33608],[-2.82136,51.33609],[-2.82144,51.33612],[-2.82165,51.33617],[-2.82171,51.3362],[-2.82181,51.3362],[-2.8219,51.33622],[-2.82199,51.33623],[-2.82214,51.33624],[-2.8223,51.33626],[-2.82245,51.33629],[-2.82252,51.33631],[-2.82267,51.33633],[-2.8228,51.33636],[-2.82334,51.33648],[-2.82348,51.33651],[-2.82363,51.33654],[-2.82385,51.33655],[-2.82396,51.33655],[-2.82408,51.33655],[-2.82426,51.33654],[-2.82436,51.33655],[-2.8247,51.33663],[-2.8249,51.33669],[-2.82521,51.33672],[-2.82563,51.33671],[-2.82586,51.33673],[-2.82616,51.33672],[-2.82644,51.3367],[-2.82667,51.33672],[-2.82685,51.33673],[-2.82694,51.33672]]}},{"type":"Feature","properties":{"name":"Lox Yeo River","waterway":"river"},"geometry":{"type":"LineString","coordinates":[[-2.85051,51.31492],[-2.85068,51.31488],[-2.85077,51.31487],[-2.85081,51.3149],[-2.85082,51.31497],[-2.85101,51.31536],[-2.85137,51.31589],[-2.85143,51.31589],[-2.85158,51.31592],[-2.85172,51.31589],[-2.8518,51.31583],[-2.85181,51.31578],[-2.85193,51.31575],[-2.85205,51.31576],[-2.85226,51.31585],[-2.85239,51.31588],[-2.85265,51.31589],[-2.85282,51.31593],[-2.85293,51.31593],[-2.85317,51.31586],[-2.85335,51.31583],[-2.85363,51.31575],[-2.85368,51.31575],[-2.85386,51.31591],[-2.85402,51.31591],[-2.85416,51.31589],[-2.85421,51.31596],[-2.85432,51.31596],[-2.85446,51.31599],[-2.85476,51.316],[-2.85485,51.31597],[-2.85512,51.31596],[-2.85519,51.316],[-2.85524,51.31599],[-2.85526,51.31595],[-2.85528,51.31594],[-2.85531,51.31594],[-2.85533,51.31595],[-2.85535,51.316],[-2.85551,51.31603],[-2.85573,51.31595],[-2.85633,51.31594],[-2.85735,51.3159],[-2.85826,51.31601],[-2.85872,51.31622],[-2.85912,51.31639],[-2.8597,51.31665],[-2.85973,51.31665],[-2.85979,51.31663],[-2.85995,51.31656],[-2.86015,51.31651],[-2.86025,51.31655]]}},{"type":"Feature","properties":{"waterway":"stream"},"geometry":{"type":"LineString","coordinates":[[-2.84355,51.31281],[-2.84366,51.31268],[-2.84388,51.31272],[-2.84405,51.31271],[-2.84455,51.31272],[-2.84461,51.31274],[-2.84481,51.31278],[-2.84519,51.31283],[-2.84561,51.31281],[-2.84606,51.31274],[-2.84634,51.31272]]}},{"type":"Feature","properties":{"name":"Winscombe Brook","waterway":"stream"},"geometry":{"type":"LineString","coordinates":[[-2.84231,51.30998],[-2.84295,51.31047],[-2.84296,51.31054],[-2.84345,51.31083],[-2.8436,51.31089],[-2.84361,51.31105],[-2.84368,51.31115],[-2.84382,51.31147],[-2.8439,51.31153],[-2.84387,51.31166],[-2.844,51.31162],[-2.84415,51.31165],[-2.84417,51.31176],[-2.84434,51.31176],[-2.84456,51.31149],[-2.84498,51.31136],[-2.84521,51.31126],[-2.8454,51.31115],[-2.84558,51.31113],[-2.84561,51.31119],[-2.84538,51.31147],[-2.84538,51.31166],[-2.84576,51.31181],[-2.84581,51.31197],[-2.84604,51.31207],[-2.84629,51.31225],[-2.84618,51.31247],[-2.84634,51.31255],[-2.84634,51.31272],[-2.84639,51.31291],[-2.84656,51.31341],[-2.84683,51.3136],[-2.84711,51.3137],[-2.84786,51.31366],[-2.84799,51.3137],[-2.84832,51.3138],[-2.84883,51.31386],[-2.84927,51.31402],[-2.84909,51.31472]]}},{"type":"Feature","properties":{"waterway":"stream"},"geometry":{"type":"LineString","coordinates":[[-2.83206,51.30683],[-2.83232,51.3068],[-2.83261,51.30685],[-2.83297,51.30681],[-2.83303,51.30675],[-2.83341,51.30665],[-2.83348,51.30646],[-2.8337,51.3064],[-2.83401,51.30645],[-2.83441,51.3064]]}},{"type":"Feature","properties":{"waterway":"stream"},"geometry":{"type":"LineString","coordinates":[[-2.83441,51.3064],[-2.83513,51.30694],[-2.83596,51.3071],[-2.83673,51.30694],[-2.83705,51.30706],[-2.83753,51.30714],[-2.83788,51.30746],[-2.83828,51.30765],[-2.83896,51.30774],[-2.8398,51.30778],[-2.84029,51.30844],[-2.84098,51.3093],[-2.84126,51.30964],[-2.84139,51.30987],[-2.84173,51.31003],[-2.84231,51.30998]]}},{"type":"Feature","properties":{"name":"Cheddar Yeo","waterway":"stream"},"geometry":{"type":"LineString","coordinates":[[-2.76631,51.28152],[-2.76632,51.2816],[-2.76629,51.28169],[-2.76627,51.28174],[-2.76631,51.28178],[-2.76637,51.28181],[-2.76642,51.28182]]}},{"type":"Feature","properties":{"name":"Ellenge Stream","waterway":"stream"},"geometry":{"type":"LineString","coordinates":[[-2.82559,51.27462],[-2.82535,51.27483],[-2.82483,51.27581],[-2.82466,51.27618],[-2.82451,51.27649],[-2.82425,51.27721],[-2.8242,51.27728],[-2.82396,51.27766],[-2.82341,51.2785],[-2.82307,51.27895],[-2.82264,51.27948],[-2.8219,51.28008],[-2.82133,51.28054],[-2.82034,51.28151],[-2.82027,51.28159],[-2.81943,51.28245],[-2.81866,51.28322],[-2.81837,51.28351],[-2.81808,51.28376],[-2.81805,51.28378],[-2.81765,51.28407],[-2.81709,51.28459],[-2.81655,51.28451],[-2.81639,51.28449]]}},{"type":"Feature","properties":{"natural":"water"},"geometry":{"type":"Polygon","coordinates":[[[-2.85172,51.28158],[-2.85183,51.28164],[-2.85199,51.28166],[-2.85203,51.28173],[-2.8519,51.28176],[-2.85183,51.28183],[-2.85173,51.28183],[-2.85171,51.28174],[-2.85163,51.28168],[-2.85172,51.28158]]]}},{"type":"Feature","properties":{"natural":"water"},"geometry":{"type":"Polygon","coordinates":[[[-2.77319,51.28006],[-2.77318,51.28014],[-2.77312,51.28042],[-2.7732,51.28044],[-2.77349,51.28052],[-2.77354,51.28045],[-2.77358,51.28038],[-2.77358,51.28031],[-2.77353,51.28002],[-2.77344,51.28003],[-2.77336,51.28002],[-2.77319,51.28006]]]}},{"type":"Feature","properties":{"name":"East Twin Brook","waterway":"stream"},"geometry":{"type":"LineString","coordinates":[[-2.74763,51.31354],[-2.74789,51.31385],[-2.74806,51.31404],[-2.74812,51.31415],[-2.74815,51.31436],[-2.7481,51.31453],[-2.74815,51.31471],[-2.74821,51.31492],[-2.74837,51.31523],[-2.74846,51.31557],[-2.74859,51.31575],[-2.74889,51.31669],[-2.74899,51.31732],[-2.749,51.31764],[-2.74878,51.31784],[-2.7487,51.31813],[-2.74856,51.3185],[-2.74857,51.31882],[-2.74851,51.31921],[-2.7484,51.31954],[-2.74832,51.31956]]}},{"type":"Feature","properties":{"name":"West Twin Brook","waterway":"stream"},"geometry":{"type":"LineString","coordinates":[[-2.75355,51.31383],[-2.7532,51.31425],[-2.75302,51.31471],[-2.75308,51.31523],[-2.75314,51.31545],[-2.75301,51.31558],[-2.75298,51.31603],[-2.75294,51.31625],[-2.75306,51.31678],[-2.75322,51.3172],[-2.75331,51.31747],[-2.75395,51.31832],[-2.75384,51.31878],[-2.75373,51.31922],[-2.75382,51.31972],[-2.75383,51.3198],[-2.75383,51.31999],[-2.75388,51.32056],[-2.75399,51.3208],[-2.75401,51.32083],[-2.75408,51.32091],[-2.75405,51.32107],[-2.75377,51.32144],[-2.75364,51.3216],[-2.7534,51.32178],[-2.7532,51.3219]]}},{"type":"Feature","properties":{"name":"West Twin Brook","waterway":"stream"},"geometry":{"type":"LineString","coordinates":[[-2.75259,51.31375],[-2.75259,51.31423],[-2.75302,51.31471]]}},{"type":"Feature","properties":{"natural":"water"},"geometry":{"type":"Polygon","coordinates":[[[-2.79017,51.34964],[-2.79018,51.3497],[-2.79011,51.34973],[-2.78995,51.34973],[-2.78998,51.34967],[-2.79007,51.34964],[-2.79017,51.34964]]]}},{"type":"Feature","properties":{"name":"Cox's Mill Pond","natural":"water"},"geometry":{"type":"Polygon","coordinates":[[[-2.76898,51.28208],[-2.76891,51.28211],[-2.76857,51.28211],[-2.76833,51.28212],[-2.76802,51.2821],[-2.7676,51.28206],[-2.76741,51.28205],[-2.76733,51.282],[-2.76735,51.28197],[-2.76736,51.28195],[-2.7675,51.28195],[-2.76782,51.28194],[-2.76807,51.28193],[-2.7682,51.28193],[-2.76848,51.28189],[-2.76883,51.28184],[-2.76887,51.2819],[-2.76886,51.2819],[-2.76891,51.28201],[-2.76895,51.28204],[-2.76898,51.28208]]]}},{"type":"Feature","properties":{"name":"Cheddar Yeo","waterway":"river"},"geometry":{"type":"LineString","coordinates":[[-2.76916,51.28189],[-2.76992,51.2815]]}},{"type":"Feature","properties":{"name":"Cheddar Yeo","waterway":"river"},"geometry":{"type":"LineString","coordinates":[[-2.76992,51.2815],[-2.77005,51.28143],[-2.7702,51.28134],[-2.7703,51.28129],[-2.77033,51.28127],[-2.77047,51.28123],[-2.77062,51.28122],[-2.7708,51.28121],[-2.77099,51.28119],[-2.77121,51.28117],[-2.77151,51.28113],[-2.77156,51.28112],[-2.77162,51.2811],[-2.77171,51.28104]]}},{"type":"Feature","properties":{"name":"Cheddar Yeo","waterway":"river","wikipedia":"en:Cheddar Yeo"},"geometry":{"type":"LineString","coordinates":[[-2.77183,51.28094],[-2.77189,51.28088],[-2.77194,51.28085],[-2.77208,51.28083],[-2.77223,51.28085],[-2.77242,51.28082],[-2.7725,51.28079],[-2.77271,51.28074],[-2.77284,51.2806],[-2.7732,51.28044],[-2.77336,51.2801],[-2.77341,51.28001],[-2.77301,51.27929],[-2.77309,51.27888],[-2.77315,51.27868],[-2.77339,51.27859],[-2.77382,51.27845],[-2.77431,51.27841],[-2.7745,51.27833],[-2.77457,51.27825],[-2.77454,51.27812],[-2.77459,51.2777],[-2.77463,51.27763],[-2.77479,51.27738],[-2.77485,51.27726],[-2.77487,51.27719],[-2.77487,51.27711],[-2.77477,51.27699],[-2.77461,51.27697],[-2.77449,51.27693],[-2.7744,51.27683],[-2.77436,51.27659],[-2.77466,51.27631],[-2.77472,51.27617],[-2.77475,51.2761],[-2.7747,51.27591],[-2.77463,51.27582],[-2.7747,51.27561],[-2.77477,51.27538],[-2.77486,51.27522],[-2.77491,51.27514],[-2.77491,51.27501],[-2.77484,51.27493],[-2.77438,51.27462],[-2.77504,51.2739],[-2.77509,51.27363],[-2.77483,51.27303],[-2.77485,51.2726],[-2.77494,51.27235],[-2.77524,51.27221],[-2.77577,51.27219],[-2.77658,51.27202],[-2.77851,51.27181],[-2.77947,51.27169],[-2.78011,51.2716],[-2.78041,51.27159],[-2.78264,51.2713],[-2.78346,51.27124],[-2.78358,51.27123],[-2.78423,51.27107],[-2.78485,51.27074],[-2.7853,51.27056],[-2.78646,51.27027],[-2.78725,51.26985],[-2.78839,51.26956],[-2.78873,51.26946],[-2.78902,51.26935],[-2.79012,51.26883],[-2.79071,51.26838],[-2.79106,51.26819],[-2.79131,51.26804],[-2.79156,51.26784],[-2.79181,51.26769],[-2.79263,51.26737],[-2.79303,51.26721],[-2.79319,51.26713],[-2.79363,51.26686],[-2.79389,51.26668],[-2.7941,51.26656],[-2.79439,51.26647],[-2.7947,51.26635],[-2.79594,51.26592],[-2.79608,51.26586],[-2.79695,51.26552],[-2.79714,51.26547],[-2.79745,51.26544],[-2.79826,51.26552],[-2.79862,51.26555],[-2.7992,51.26549],[-2.80135,51.26531],[-2.80171,51.26534],[-2.80238,51.26563],[-2.80343,51.26563],[-2.80371,51.26566],[-2.80549,51.26585],[-2.80599,51.26594],[-2.80626,51.266],[-2.80796,51.26601],[-2.80942,51.26592],[-2.81041,51.26579],[-2.81165,51.2661],[-2.81176,51.26613],[-2.81346,51.26744],[-2.81425,51.2676],[-2.81509,51.26787],[-2.81547,51.26813],[-2.81555,51.26822],[-2.8158,51.26841],[-2.81595,51.26844],[-2.81616,51.26844],[-2.81647,51.26845],[-2.81691,51.26853],[-2.81723,51.26862],[-2.8174,51.26871],[-2.81746,51.26879],[-2.81752,51.26902],[-2.81779,51.2696],[-2.8179,51.26968],[-2.81814,51.26978],[-2.81838,51.26986],[-2.81849,51.26989],[-2.81867,51.26995],[-2.81998,51.27085],[-2.82021,51.271],[-2.82183,51.27209],[-2.82214,51.2723],[-2.82231,51.27242],[-2.82344,51.27318],[-2.8255,51.27458],[-2.82559,51.27462],[-2.82567,51.27467],[-2.82646,51.27521],[-2.82872,51.27673],[-2.82913,51.277],[-2.83178,51.27875],[-2.83297,51.27952],[-2.83428,51.2804],[-2.8348,51.28073],[-2.8367,51.28169],[-2.83758,51.28212],[-2.83818,51.28246],[-2.83957,51.28342],[-2.83968,51.28349],[-2.8407,51.28429],[-2.84146,51.28479],[-2.84186,51.28502],[-2.84534,51.28693],[-2.84581,51.28705],[-2.84598,51.28709],[-2.84742,51.28744],[-2.84787,51.28755],[-2.84934,51.28782],[-2.85019,51.28797],[-2.85058,51.28798],[-2.85216,51.28802],[-2.85245,51.28801],[-2.85315,51.28799],[-2.85325,51.28799],[-2.85488,51.28798],[-2.85593,51.2879],[-2.85701,51.2878],[-2.85725,51.28776],[-2.86128,51.28747],[-2.86173,51.28744],[-2.86208,51.28754],[-2.86227,51.28772],[-2.86233,51.28775],[-2.8631,51.28807],[-2.86399,51.28845],[-2.86428,51.28852],[-2.86474,51.28864],[-2.86529,51.28867],[-2.86551,51.28868],[-2.86621,51.2888],[-2.86633,51.28884],[-2.86641,51.28885],[-2.8669,51.289],[-2.86718,51.28902],[-2.86733,51.28901],[-2.86749,51.28897],[-2.8676,51.28897],[-2.86774,51.289],[-2.86786,51.28907],[-2.86791,51.28913],[-2.86796,51.28919],[-2.86811,51.2892],[-2.86858,51.28916],[-2.86889,51.28911],[-2.86909,51.28905]]}},{"type":"Feature","properties":{"name":"River Yeo","waterway":"river"},"geometry":{"type":"LineString","coordinates":[[-2.77171,51.28104],[-2.77183,51.28094]]}},{"type":"Feature","properties":{"name":"Towerhead Brook","waterway":"stream"},"geometry":{"type":"LineString","coordinates":[[-2.8356,51.32498],[-2.83592,51.32516],[-2.836,51.32528],[-2.83632,51.32548],[-2.83735,51.32613],[-2.83785,51.3263]]}},{"type":"Feature","properties":{"name":"Towerhead Brook","waterway":"stream"},"geometry":{"type":"LineString","coordinates":[[-2.8338,51.3245],[-2.83433,51.32477],[-2.8356,51.32498]]}},{"type":"Feature","properties":{"natural":"water"},"geometry":{"type":"Polygon","coordinates":[[[-2.76373,51.32009],[-2.76382,51.32013],[-2.76392,51.32006],[-2.76383,51.31998],[-2.76372,51.31999],[-2.7637,51.32003],[-2.76373,51.32009]]]}},{"type":"Feature","properties":{"natural":"water"},"geometry":{"type":"Polygon","coordinates":[[[-2.8115,51.33891],[-2.81131,51.3389],[-2.81122,51.33887],[-2.81118,51.33879],[-2.8112,51.33876],[-2.81144,51.33875],[-2.8115,51.3388],[-2.8115,51.33891]]]}},{"type":"Feature","properties":{"name":"Rickford Pond","natural":"water"},"geometry":{"type":"Polygon","coordinates":[[[-2.73722,51.33003],[-2.7373,51.33005],[-2.73745,51.33009],[-2.73744,51.3301],[-2.7374,51.33011],[-2.73733,51.33011],[-2.73726,51.33009],[-2.7372,51.33006],[-2.73716,51.3301],[-2.73714,51.33012],[-2.73707,51.33016],[-2.73702,51.33017],[-2.73707,51.33021],[-2.73704,51.33023],[-2.7366,51.32994],[-2.73643,51.32979],[-2.73628,51.32963],[-2.73623,51.32957],[-2.73622,51.32957],[-2.73621,51.32958],[-2.73613,51.32963],[-2.73612,51.32964],[-2.7361,51.32964],[-2.73607,51.32964],[-2.73591,51.32958],[-2.73591,51.32957],[-2.73591,51.32957],[-2.73592,51.32957],[-2.73597,51.32957],[-2.73604,51.3296],[-2.73605,51.3296],[-2.73605,51.3296],[-2.73607,51.32959],[-2.73607,51.32959],[-2.73606,51.32953],[-2.73607,51.32951],[-2.73623,51.32933],[-2.73644,51.32945],[-2.73644,51.32946],[-2.73644,51.32947],[-2.73645,51.32948],[-2.73645,51.32949],[-2.7365,51.32953],[-2.73688,51.32977],[-2.73708,51.32987],[-2.73723,51.32999],[-2.73724,51.33001],[-2.73722,51.33003]]]}},{"type":"Feature","properties":{"waterway":"stream"},"geometry":{"type":"LineString","coordinates":[[-2.7372,51.33006],[-2.73753,51.33013],[-2.73795,51.33027],[-2.7381,51.33036],[-2.73824,51.33055]]}},{"type":"Feature","properties":{"waterway":"stream"},"geometry":{"type":"LineString","coordinates":[[-2.73942,51.33257],[-2.73951,51.33261],[-2.7397,51.33272],[-2.73995,51.33278],[-2.74029,51.33304],[-2.74037,51.33324],[-2.74053,51.33348],[-2.74125,51.33424],[-2.74111,51.3345],[-2.741,51.33478],[-2.74078,51.33494],[-2.7408,51.33524],[-2.74079,51.3354]]}},{"type":"Feature","properties":{"natural":"water"},"geometry":{"type":"Polygon","coordinates":[[[-2.74107,51.33543],[-2.7409,51.33538],[-2.74079,51.3354],[-2.74069,51.33542],[-2.7405,51.33552],[-2.74049,51.33566],[-2.74059,51.33571],[-2.74064,51.33573],[-2.74101,51.33567],[-2.74113,51.33557],[-2.74107,51.33543]]]}},{"type":"Feature","properties":{"name":"Dew Pond","natural":"water"},"geometry":{"type":"Polygon","coordinates":[[[-2.74087,51.32482],[-2.74089,51.32483],[-2.7409,51.32483],[-2.74092,51.32484],[-2.74093,51.32485],[-2.74093,51.32486],[-2.74092,51.32488],[-2.74091,51.32489],[-2.7409,51.3249],[-2.74088,51.3249],[-2.74086,51.3249],[-2.74084,51.32489],[-2.74083,51.32489],[-2.74082,51.32488],[-2.74081,51.32487],[-2.74081,51.32485],[-2.74082,51.32484],[-2.74083,51.32483],[-2.74085,51.32483],[-2.74087,51.32482]]]}},{"type":"Feature","properties":{"name":"dew pond","natural":"water"},"geometry":{"type":"Polygon","coordinates":[[[-2.83595,51.3],[-2.83593,51.3],[-2.83591,51.29999],[-2.83591,51.29997],[-2.8359,51.29996],[-2.8359,51.29996],[-2.83591,51.29994],[-2.83592,51.29994],[-2.83594,51.29993],[-2.83596,51.29992],[-2.83599,51.29993],[-2.836,51.29993],[-2.83602,51.29994],[-2.83603,51.29995],[-2.83603,51.29996],[-2.83603,51.29997],[-2.83602,51.29998],[-2.83601,51.3],[-2.83599,51.3],[-2.83597,51.3],[-2.83595,51.3]]]}},{"type":"Feature","properties":{"natural":"water"},"geometry":{"type":"Polygon","coordinates":[[[-2.77801,51.30713],[-2.77803,51.307],[-2.77796,51.30699],[-2.77785,51.30701],[-2.77775,51.307],[-2.7777,51.30708],[-2.7778,51.30714],[-2.77792,51.30716],[-2.77801,51.30713]]]}},{"type":"Feature","properties":{"natural":"water"},"geometry":{"type":"Polygon","coordinates":[[[-2.79202,51.32273],[-2.79213,51.32278],[-2.79222,51.32286],[-2.79224,51.32295],[-2.79214,51.32299],[-2.79202,51.32299],[-2.79191,51.32294],[-2.79187,51.32286],[-2.79186,51.3228],[-2.7919,51.32277],[-2.79198,51.32282],[-2.79204,51.32282],[-2.79202,51.3228],[-2.79195,51.32276],[-2.79202,51.32273]]]}},{"type":"Feature","properties":{"waterway":"stream"},"geometry":{"type":"LineString","coordinates":[[-2.84461,51.31366],[-2.84494,51.31358],[-2.84522,51.31363],[-2.84529,51.31366],[-2.8454,51.31371],[-2.84555,51.31387],[-2.8458,51.31402],[-2.84621,51.31421],[-2.84656,51.31428],[-2.8467,51.31423],[-2.84713,51.31412],[-2.84734,51.31424],[-2.84761,51.31431],[-2.84766,51.3144],[-2.84801,51.31453],[-2.84826,51.3146],[-2.8484,51.31466],[-2.84856,51.31478],[-2.84867,51.31487],[-2.84874,51.31487],[-2.84897,51.31476],[-2.84909,51.31472],[-2.84936,51.3147],[-2.84937,51.31466],[-2.8495,51.31464],[-2.84972,51.31471],[-2.85006,51.31478],[-2.85022,51.31481],[-2.85051,51.31492]]}},{"type":"Feature","properties":{"natural":"water"},"geometry":{"type":"Polygon","coordinates":[[[-2.84447,51.31367],[-2.84404,51.31365],[-2.84388,51.31365],[-2.84374,51.31365],[-2.84367,51.31366],[-2.84367,51.3137],[-2.8437,51.31377],[-2.84379,51.31375],[-2.84393,51.31376],[-2.84398,51.31378],[-2.8441,51.31379],[-2.84414,51.31379],[-2.84422,51.31376],[-2.84435,51.31376],[-2.84442,51.31379],[-2.84451,51.31376],[-2.84457,51.31373],[-2.84463,51.3137],[-2.84463,51.31367],[-2.84461,51.31366],[-2.84453,51.31367],[-2.84447,51.31367]]]}},{"type":"Feature","properties":{"waterway":"stream"},"geometry":{"type":"LineString","coordinates":[[-2.77955,51.31203],[-2.77996,51.31253],[-2.78033,51.3129],[-2.78056,51.31324],[-2.7805,51.31392],[-2.78025,51.31461],[-2.7808,51.31524],[-2.78144,51.31597],[-2.78193,51.3166],[-2.78227,51.31736],[-2.78247,51.31808]]}},{"type":"Feature","properties":{"natural":"water"},"geometry":{"type":"Polygon","coordinates":[[[-2.83478,51.34151],[-2.83469,51.34122],[-2.83463,51.34118],[-2.83451,51.34119],[-2.83444,51.34122],[-2.83442,51.34126],[-2.83451,51.34154],[-2.83457,51.34155],[-2.83473,51.34154],[-2.83478,51.34151]]]}},{"type":"Feature","properties":{"natural":"water"},"geometry":{"type":"Polygon","coordinates":[[[-2.83703,51.34106],[-2.83688,51.34108],[-2.83672,51.34109],[-2.83669,51.34107],[-2.83663,51.34086],[-2.83665,51.3407],[-2.83665,51.34064],[-2.83678,51.34064],[-2.8369,51.34063],[-2.83694,51.34071],[-2.83703,51.34106]]]}},{"type":"Feature","properties":{"natural":"water"},"geometry":{"type":"Polygon","coordinates":[[[-2.835,51.34203],[-2.83501,51.34186],[-2.83496,51.34172],[-2.83492,51.34157],[-2.83475,51.3416],[-2.83447,51.34164],[-2.83439,51.34171],[-2.83434,51.34188],[-2.83433,51.34205],[-2.83437,51.34212],[-2.83449,51.34213],[-2.83494,51.34206],[-2.835,51.34203]]]}},{"type":"Feature","properties":{"natural":"water"},"geometry":{"type":"Polygon","coordinates":[[[-2.83669,51.3414],[-2.8367,51.34131],[-2.83665,51.34127],[-2.83656,51.34127],[-2.83618,51.34132],[-2.83612,51.34134],[-2.83606,51.34132],[-2.83581,51.34131],[-2.8357,51.34132],[-2.83563,51.34138],[-2.83563,51.34146],[-2.83561,51.34154],[-2.83551,51.34158],[-2.83542,51.34161],[-2.83534,51.34166],[-2.8353,51.34183],[-2.83533,51.3419],[-2.83542,51.34197],[-2.83555,51.34198],[-2.83575,51.34196],[-2.83606,51.34188],[-2.83643,51.34183],[-2.83658,51.34179],[-2.83669,51.34171],[-2.83672,51.34163],[-2.83669,51.34151],[-2.83669,51.3414]]]}},{"type":"Feature","properties":{"natural":"water"},"geometry":{"type":"Polygon","coordinates":[[[-2.83638,51.34054],[-2.8362,51.34057],[-2.83618,51.34056],[-2.83613,51.34048],[-2.83613,51.34044],[-2.83625,51.3404],[-2.83633,51.3404],[-2.83637,51.34046],[-2.8364,51.34052],[-2.83638,51.34054]]]}},{"type":"Feature","properties":{"natural":"water"},"geometry":{"type":"Polygon","coordinates":[[[-2.85205,51.34955],[-2.85199,51.34973],[-2.85192,51.34981],[-2.85182,51.34984],[-2.85171,51.34981],[-2.85137,51.34961],[-2.85127,51.34954],[-2.85131,51.34951],[-2.85148,51.34956],[-2.85186,51.34957],[-2.85188,51.34948],[-2.85183,51.34944],[-2.85177,51.34939],[-2.85168,51.3494],[-2.85154,51.34944],[-2.85151,51.34938],[-2.85179,51.34926],[-2.85198,51.34919],[-2.85201,51.34923],[-2.85216,51.34919],[-2.85223,51.34924],[-2.85211,51.34944],[-2.85205,51.34955]]]}},{"type":"Feature","properties":{"name":"Daghole Pond","natural":"water"},"geometry":{"type":"Polygon","coordinates":[[[-2.77028,51.28128],[-2.7701,51.28135],[-2.76994,51.28142],[-2.76989,51.28144],[-2.76987,51.28146],[-2.7699,51.28149],[-2.76997,51.28153],[-2.77003,51.28153],[-2.77012,51.28153],[-2.77017,51.28151],[-2.77053,51.28141],[-2.77044,51.28138],[-2.77036,51.28137],[-2.77031,51.28133],[-2.77031,51.28131],[-2.7703,51.28129],[-2.77028,51.28128]]]}},{"type":"Feature","properties":{"name":"River Axe","waterway":"river"},"geometry":{"type":"LineString","coordinates":[[-2.84554,51.27839],[-2.84568,51.27844],[-2.84605,51.27846],[-2.84686,51.27892],[-2.84734,51.2792],[-2.8477,51.27942],[-2.84871,51.27954],[-2.84974,51.27966],[-2.85116,51.27935],[-2.85193,51.27924],[-2.85214,51.27925],[-2.85238,51.27934],[-2.85252,51.27937],[-2.853,51.27946],[-2.85333,51.27949],[-2.8536,51.27957],[-2.85382,51.27966],[-2.85446,51.28009],[-2.85463,51.28041],[-2.85465,51.28077],[-2.85521,51.28117],[-2.85524,51.28141],[-2.85529,51.2817]]}},{"type":"Feature","properties":{"name":"Ellenge Stream","waterway":"stream"},"geometry":{"type":"LineString","coordinates":[[-2.80142,51.28588],[-2.80119,51.28617],[-2.80115,51.28624],[-2.80106,51.28635],[-2.80056,51.28675],[-2.80045,51.28684]]}},{"type":"Feature","properties":{"name":"Towerhead Brook","waterway":"stream"},"geometry":{"type":"LineString","coordinates":[[-2.84327,51.33224],[-2.8432,51.33233],[-2.84317,51.33236],[-2.84318,51.33241],[-2.84323,51.3325],[-2.84327,51.33257],[-2.84337,51.33266],[-2.84357,51.3328],[-2.84365,51.33287],[-2.84383,51.33309],[-2.84385,51.33313],[-2.84384,51.33329],[-2.84387,51.33334],[-2.84398,51.33338],[-2.84414,51.33342],[-2.84425,51.33343],[-2.84439,51.33344],[-2.84441,51.33348],[-2.84446,51.33351],[-2.84454,51.33352],[-2.84476,51.33353],[-2.84495,51.33356],[-2.84513,51.33357],[-2.84527,51.33361],[-2.84554,51.33368],[-2.84574,51.33376],[-2.84591,51.33377],[-2.84599,51.33378],[-2.84604,51.3338],[-2.8461,51.33386],[-2.84618,51.33387],[-2.8463,51.33387],[-2.84636,51.33388],[-2.84646,51.33393],[-2.84656,51.33399],[-2.84674,51.33403],[-2.84695,51.33405],[-2.84707,51.33406],[-2.84731,51.33406],[-2.84735,51.33405],[-2.84738,51.33404],[-2.84746,51.33408],[-2.84757,51.33412],[-2.84766,51.33411],[-2.84774,51.3341],[-2.8478,51.33413],[-2.84788,51.33417],[-2.84797,51.3342],[-2.84818,51.3342],[-2.8483,51.3342],[-2.84858,51.33424],[-2.84874,51.33426],[-2.84887,51.33428],[-2.84926,51.33437],[-2.84943,51.3344],[-2.84981,51.33453],[-2.85014,51.33462],[-2.85042,51.33473],[-2.85073,51.33486],[-2.85087,51.33489],[-2.85104,51.33494],[-2.8518,51.33526],[-2.85219,51.33539],[-2.85231,51.33542],[-2.8525,51.33547],[-2.85282,51.33552],[-2.85328,51.33559],[-2.85342,51.33562],[-2.85353,51.33567],[-2.8536,51.33571],[-2.85366,51.33581],[-2.85366,51.33595],[-2.85359,51.3362],[-2.85358,51.33626],[-2.8536,51.33646],[-2.85364,51.33661],[-2.85372,51.33688],[-2.85377,51.33704],[-2.85387,51.33732],[-2.85391,51.33744],[-2.85394,51.33753]]}},{"type":"Feature","properties":{"name":"Towerhead Brook","waterway":"stream"},"geometry":{"type":"LineString","coordinates":[[-2.85394,51.33753],[-2.854,51.3386],[-2.85403,51.33869],[-2.85404,51.33873],[-2.85416,51.33919],[-2.85466,51.33972],[-2.85498,51.34006],[-2.85505,51.34014],[-2.85522,51.34085],[-2.85543,51.34135],[-2.85539,51.34175],[-2.85539,51.3418],[-2.85545,51.34193],[-2.85553,51.34218],[-2.85558,51.34228],[-2.85574,51.34248],[-2.8559,51.34257],[-2.85611,51.34277],[-2.8564,51.34303]]}},{"type":"Feature","properties":{"waterway":"stream"},"geometry":{"type":"LineString","coordinates":[[-2.84594,51.32113],[-2.84597,51.32113],[-2.84608,51.32108],[-2.84637,51.32091],[-2.84652,51.32084],[-2.84672,51.3208],[-2.84696,51.32075],[-2.84728,51.32073],[-2.84784,51.3207],[-2.84872,51.32067]]}},{"type":"Feature","properties":{"waterway":"stream"},"geometry":{"type":"LineString","coordinates":[[-2.84872,51.32067],[-2.84904,51.32064]]}},{"type":"Feature","properties":{"waterway":"stream"},"geometry":{"type":"LineString","coordinates":[[-2.84904,51.32064],[-2.84927,51.32061],[-2.84941,51.32059],[-2.84971,51.32063],[-2.84987,51.32065],[-2.84996,51.32065],[-2.85005,51.32061],[-2.85019,51.32057],[-2.85042,51.32054],[-2.8507,51.32054],[-2.85088,51.32054],[-2.851,51.32056],[-2.85117,51.32058],[-2.85127,51.3206],[-2.85161,51.32057],[-2.85179,51.32055],[-2.85235,51.32049],[-2.85259,51.32044],[-2.85277,51.32037],[-2.85283,51.32032],[-2.85294,51.32024],[-2.85312,51.32016],[-2.85321,51.32012],[-2.85339,51.32002],[-2.85343,51.31999],[-2.85344,51.31994],[-2.85348,51.31994],[-2.85353,51.31995],[-2.85364,51.31995],[-2.85411,51.31991],[-2.85419,51.3199],[-2.85431,51.31987],[-2.85441,51.31981],[-2.8545,51.31972],[-2.85469,51.31962],[-2.85477,51.31957],[-2.8548,51.31952],[-2.85486,51.31947],[-2.85487,51.31945],[-2.85512,51.31929],[-2.85515,51.31924],[-2.85527,51.31913],[-2.85536,51.31908],[-2.85555,51.31901],[-2.8557,51.31893],[-2.85588,51.31889],[-2.85602,51.31887],[-2.85621,51.31883],[-2.8563,51.3188],[-2.85641,51.31874],[-2.8565,51.31871],[-2.85657,51.3187],[-2.85667,51.31869],[-2.85678,51.31867],[-2.85689,51.31867],[-2.85709,51.31866],[-2.85725,51.31866],[-2.85729,51.31867],[-2.85736,51.31871],[-2.85744,51.31876],[-2.85755,51.3188],[-2.85762,51.31882],[-2.85778,51.31884],[-2.85796,51.31881],[-2.85811,51.31878],[-2.8583,51.31877],[-2.85843,51.31876],[-2.85848,51.31874],[-2.85859,51.3187],[-2.85876,51.31865],[-2.85899,51.31852],[-2.85911,51.31846],[-2.85941,51.3184],[-2.85957,51.31834],[-2.85983,51.31815],[-2.85985,51.31811],[-2.85982,51.31803],[-2.85983,51.31799],[-2.85986,51.3179],[-2.85992,51.3178],[-2.86001,51.31773],[-2.86013,51.31769],[-2.86033,51.31764]]}},{"type":"Feature","properties":{"waterway":"stream"},"geometry":{"type":"LineString","coordinates":[[-2.8466,51.32211],[-2.84627,51.32207],[-2.84584,51.32198],[-2.84576,51.3217],[-2.84572,51.32148],[-2.84574,51.32132],[-2.84577,51.32127],[-2.84585,51.32119],[-2.84594,51.32113]]}},{"type":"Feature","properties":{"name":"Sandmead Rhyne","waterway":"stream"},"geometry":{"type":"LineString","coordinates":[[-2.83351,51.3444],[-2.83363,51.34456]]}},{"type":"Feature","properties":{"name":"Sandmead Rhyne","waterway":"stream"},"geometry":{"type":"LineString","coordinates":[[-2.83363,51.34456],[-2.83371,51.34463],[-2.83387,51.34478],[-2.83429,51.3454],[-2.83444,51.34564],[-2.83465,51.34588],[-2.83538,51.34678],[-2.83568,51.34727],[-2.83582,51.34744],[-2.83592,51.34759],[-2.83648,51.34855],[-2.83649,51.34858],[-2.83653,51.34865],[-2.83658,51.34875],[-2.83669,51.34888],[-2.83683,51.34909],[-2.83698,51.34935],[-2.83711,51.34954],[-2.83722,51.34967],[-2.83726,51.34978],[-2.83733,51.34988],[-2.83742,51.34996],[-2.83761,51.35023],[-2.83771,51.35055],[-2.83776,51.35072],[-2.83775,51.35112],[-2.83787,51.35156],[-2.83801,51.35191],[-2.83815,51.3525],[-2.83819,51.35269]]}},{"type":"Feature","properties":{"name":"Sandmead Rhyne","waterway":"stream"},"geometry":{"type":"LineString","coordinates":[[-2.82694,51.33672],[-2.82713,51.33674],[-2.82734,51.33676],[-2.82773,51.33677],[-2.82799,51.33679],[-2.82836,51.33682],[-2.82878,51.33683],[-2.82914,51.33682],[-2.82932,51.33683],[-2.82945,51.33686],[-2.82956,51.33694],[-2.82967,51.33703],[-2.82974,51.33717],[-2.82981,51.33758],[-2.8298,51.33769],[-2.82983,51.33806],[-2.82988,51.33813],[-2.82976,51.33862],[-2.82976,51.33869],[-2.82984,51.33884],[-2.82995,51.339],[-2.83012,51.33918],[-2.83022,51.33928],[-2.83031,51.33945],[-2.8304,51.33957],[-2.83045,51.33965],[-2.83051,51.33973],[-2.83051,51.33982],[-2.83068,51.34005],[-2.83072,51.34015],[-2.83081,51.34022],[-2.83083,51.34027],[-2.83086,51.34036],[-2.8309,51.34043],[-2.83099,51.34053],[-2.831,51.3406],[-2.83109,51.34066],[-2.83111,51.34069],[-2.83115,51.3408],[-2.83119,51.34088],[-2.83143,51.34126],[-2.8315,51.34146],[-2.83154,51.34154],[-2.83163,51.34178],[-2.8317,51.34193],[-2.8318,51.34209],[-2.83192,51.3423],[-2.83194,51.3424],[-2.83207,51.34245],[-2.83211,51.34248],[-2.83216,51.34278],[-2.83228,51.34293],[-2.83236,51.34305],[-2.83237,51.3431],[-2.83236,51.34316],[-2.8324,51.34328],[-2.83247,51.34337],[-2.83252,51.34353],[-2.83259,51.34375],[-2.83268,51.34388],[-2.83282,51.34403],[-2.83304,51.3441],[-2.83326,51.34418],[-2.8334,51.3443],[-2.83351,51.3444]]}},{"type":"Feature","properties":{"name":"Churchill Rhyne","waterway":"stream"},"geometry":{"type":"LineString","coordinates":[[-2.81036,51.34102],[-2.81023,51.34103],[-2.81021,51.34105],[-2.81018,51.34117],[-2.8101,51.34137],[-2.81008,51.34142],[-2.81021,51.34148],[-2.81029,51.3415],[-2.81052,51.34153],[-2.81086,51.3416],[-2.811,51.34164],[-2.81108,51.34166]]}},{"type":"Feature","properties":{"name":"Churchill Rhyne","waterway":"stream"},"geometry":{"type":"LineString","coordinates":[[-2.81108,51.34166],[-2.8112,51.34167],[-2.81134,51.34169],[-2.81146,51.34173],[-2.81164,51.34181],[-2.81186,51.34186],[-2.81198,51.34187],[-2.81204,51.34187],[-2.81261,51.34186],[-2.81274,51.34183],[-2.81287,51.34177],[-2.81297,51.34168],[-2.81302,51.34163],[-2.81319,51.34154],[-2.81334,51.34146],[-2.81343,51.34139],[-2.81348,51.34131],[-2.81351,51.34126],[-2.81361,51.34122],[-2.81368,51.3412],[-2.81375,51.34118],[-2.81384,51.34111],[-2.81391,51.34107],[-2.81401,51.34105],[-2.81417,51.34102],[-2.81431,51.34098],[-2.81458,51.34092],[-2.81474,51.34091],[-2.81485,51.3409],[-2.81515,51.34084],[-2.81531,51.34083],[-2.81537,51.34082],[-2.81538,51.34086],[-2.81535,51.3409],[-2.81537,51.34096],[-2.81541,51.34102],[-2.81547,51.34105],[-2.81579,51.34123],[-2.81604,51.34131],[-2.81615,51.34132],[-2.81621,51.34134],[-2.8165,51.34146],[-2.81654,51.3415],[-2.81658,51.34154],[-2.81666,51.3416],[-2.81668,51.34167],[-2.81678,51.34175],[-2.81682,51.34185],[-2.81684,51.34194],[-2.81686,51.34198],[-2.81693,51.34201],[-2.81704,51.34203],[-2.81713,51.34205],[-2.81714,51.34206],[-2.81722,51.34217],[-2.81728,51.3423],[-2.81739,51.34241],[-2.8175,51.34247],[-2.8179,51.34268],[-2.81808,51.34278],[-2.81838,51.34302],[-2.8185,51.3431],[-2.81863,51.3432],[-2.81875,51.34328],[-2.81895,51.34346],[-2.81903,51.34352],[-2.81912,51.34363],[-2.81924,51.34368],[-2.81929,51.34372],[-2.81964,51.34396],[-2.8197,51.34401],[-2.81974,51.34407],[-2.81982,51.34412],[-2.81986,51.34415],[-2.82002,51.34425],[-2.82013,51.34425],[-2.82017,51.34427],[-2.82019,51.34433],[-2.82022,51.34435],[-2.82024,51.34437],[-2.82049,51.34453],[-2.82056,51.34458],[-2.82063,51.34461],[-2.82065,51.34468],[-2.82073,51.34477],[-2.82087,51.34485],[-2.82095,51.34487],[-2.82106,51.3449],[-2.82116,51.34499],[-2.82124,51.34504],[-2.82151,51.34521],[-2.82158,51.34527],[-2.82165,51.34542],[-2.82177,51.3455],[-2.82185,51.34555],[-2.82197,51.3457],[-2.82203,51.34575],[-2.82247,51.34603],[-2.82292,51.34631],[-2.82307,51.34645],[-2.82309,51.34654],[-2.8231,51.34667],[-2.82319,51.34677],[-2.82331,51.34688],[-2.82358,51.34718],[-2.82384,51.3474],[-2.82404,51.3476],[-2.82435,51.34787],[-2.82445,51.34794],[-2.82449,51.34797],[-2.82517,51.34823],[-2.82565,51.34833],[-2.82598,51.34842],[-2.82661,51.34859],[-2.82684,51.3487],[-2.82688,51.34872],[-2.827,51.34877],[-2.82708,51.3488],[-2.82745,51.34892],[-2.8275,51.34894],[-2.82809,51.3491],[-2.82847,51.34924],[-2.82891,51.34937],[-2.82911,51.34945],[-2.82934,51.34953],[-2.82954,51.34961],[-2.83045,51.34988],[-2.83106,51.35009],[-2.83175,51.35033],[-2.83199,51.35042],[-2.83233,51.35056],[-2.83293,51.35081],[-2.83359,51.35107],[-2.8337,51.35112],[-2.83403,51.35126],[-2.83517,51.35174],[-2.83584,51.35202],[-2.83608,51.35211],[-2.83729,51.35267],[-2.83778,51.3529]]}},{"type":"Feature","properties":{"name":"Langford Brook","waterway":"stream"},"geometry":{"type":"LineString","coordinates":[[-2.77137,51.341],[-2.77138,51.34104],[-2.77144,51.34107],[-2.77145,51.34113],[-2.7714,51.34139],[-2.77144,51.34153],[-2.77128,51.34191],[-2.77121,51.34215],[-2.77114,51.34238],[-2.77117,51.34263]]}},{"type":"Feature","properties":{"name":"Langford Brook","waterway":"stream"},"geometry":{"type":"LineString","coordinates":[[-2.76813,51.33189],[-2.76817,51.3319],[-2.76829,51.33192],[-2.76839,51.33196],[-2.76846,51.33199],[-2.76862,51.33203],[-2.76874,51.33205],[-2.7689,51.33215],[-2.76899,51.33224],[-2.76901,51.33242],[-2.76907,51.33246],[-2.76913,51.33245],[-2.7692,51.33252],[-2.76927,51.33263],[-2.76923,51.33275],[-2.76915,51.33284],[-2.76904,51.33289],[-2.76891,51.3329],[-2.76883,51.33289],[-2.76874,51.33294],[-2.76871,51.33299],[-2.76874,51.33308],[-2.7688,51.33317],[-2.76885,51.33331],[-2.76888,51.33335],[-2.76899,51.33336],[-2.76905,51.33337],[-2.76923,51.33344],[-2.76942,51.33351],[-2.76959,51.33356],[-2.76975,51.33355],[-2.76982,51.33354],[-2.7699,51.33359],[-2.77001,51.33363],[-2.77022,51.33377],[-2.77043,51.33387],[-2.7706,51.33384],[-2.77076,51.33384],[-2.77085,51.33387],[-2.77092,51.334],[-2.77095,51.33407],[-2.77105,51.33409],[-2.77118,51.33416],[-2.77127,51.33419],[-2.77137,51.33426],[-2.77144,51.33431],[-2.77144,51.33439],[-2.77154,51.33444],[-2.77169,51.33456],[-2.77172,51.3346],[-2.77164,51.33469],[-2.7716,51.33478],[-2.77161,51.33487],[-2.77163,51.33507],[-2.77169,51.33521],[-2.77175,51.33531],[-2.7718,51.33537],[-2.7719,51.33538],[-2.77194,51.33542],[-2.77198,51.33549],[-2.77203,51.33556],[-2.77202,51.33559],[-2.77191,51.33574],[-2.77194,51.33579],[-2.77202,51.33584],[-2.77208,51.33591],[-2.77216,51.33594],[-2.77225,51.33598],[-2.77235,51.33599],[-2.7724,51.336],[-2.77242,51.33604],[-2.77237,51.3361],[-2.77237,51.33613],[-2.77243,51.33617],[-2.7725,51.3362],[-2.77238,51.3363],[-2.77237,51.33634],[-2.77241,51.33639],[-2.77248,51.33645],[-2.77249,51.3365],[-2.77245,51.33658],[-2.77255,51.33662],[-2.77264,51.33664],[-2.77276,51.3367],[-2.77281,51.33672],[-2.77293,51.33674],[-2.77305,51.33693],[-2.77306,51.33698],[-2.77296,51.33701],[-2.77296,51.33706],[-2.77298,51.33718],[-2.77295,51.33722],[-2.773,51.33726],[-2.77298,51.3373],[-2.77287,51.33728],[-2.7728,51.3373],[-2.77278,51.33734],[-2.77283,51.33743],[-2.77289,51.33748],[-2.77285,51.33754],[-2.77281,51.33756],[-2.77283,51.33763],[-2.77283,51.3377],[-2.77279,51.33777],[-2.7728,51.33782],[-2.77288,51.33784],[-2.7729,51.33788],[-2.77284,51.33791],[-2.77277,51.33792],[-2.77274,51.33794],[-2.77279,51.33798],[-2.77285,51.33801],[-2.77286,51.33803],[-2.77281,51.33806],[-2.77276,51.33806],[-2.77269,51.3381],[-2.77263,51.33832]]}},{"type":"Feature","properties":{"name":"Langford Brook","waterway":"stream"},"geometry":{"type":"LineString","coordinates":[[-2.77115,51.34279],[-2.77121,51.34323],[-2.7712,51.34356],[-2.7712,51.34364]]}},{"type":"Feature","properties":{"name":"Langford Brook","waterway":"stream"},"geometry":{"type":"LineString","coordinates":[[-2.77117,51.34263],[-2.77115,51.34279]]}},{"type":"Feature","properties":{"name":"Langford Brook","waterway":"stream"},"geometry":{"type":"LineString","coordinates":[[-2.76763,51.33155],[-2.76786,51.33182]]}},{"type":"Feature","properties":{"name":"Langford Brook","waterway":"stream"},"geometry":{"type":"LineString","coordinates":[[-2.77263,51.33832],[-2.77268,51.33841],[-2.77268,51.33847],[-2.77269,51.3385],[-2.77264,51.33851],[-2.77264,51.33857],[-2.77259,51.33862],[-2.77262,51.33866],[-2.77265,51.33868],[-2.7726,51.33874],[-2.77261,51.33881],[-2.77255,51.33885],[-2.77258,51.3389],[-2.77261,51.33894],[-2.77256,51.339]]}},{"type":"Feature","properties":{"name":"Langford Brook","waterway":"stream"},"geometry":{"type":"LineString","coordinates":[[-2.76769,51.33019],[-2.76766,51.33025],[-2.76767,51.33042],[-2.76767,51.33067],[-2.76759,51.33107],[-2.76759,51.33141],[-2.76763,51.33155]]}},{"type":"Feature","properties":{"name":"Congresbury Yeo","waterway":"river"},"geometry":{"type":"LineString","coordinates":[[-2.73236,51.34066],[-2.73254,51.34078],[-2.73259,51.34083],[-2.73281,51.34107],[-2.73294,51.34122],[-2.73311,51.34136],[-2.73319,51.34144],[-2.73322,51.34152],[-2.73338,51.34163],[-2.73346,51.34163],[-2.73367,51.34173],[-2.7337,51.34177],[-2.73366,51.34185],[-2.7337,51.34191],[-2.73379,51.34196],[-2.7339,51.34196],[-2.73396,51.34192],[-2.73403,51.34192],[-2.73412,51.34197],[-2.73415,51.34209],[-2.7342,51.34222],[-2.73425,51.34229],[-2.73426,51.34236],[-2.73431,51.34242],[-2.73435,51.34242],[-2.73445,51.34237],[-2.7345,51.34229],[-2.73458,51.34228],[-2.73468,51.34228],[-2.73478,51.34226],[-2.73488,51.34222],[-2.73492,51.34221],[-2.73498,51.34224],[-2.73508,51.34228],[-2.73514,51.34229],[-2.73523,51.34228],[-2.7353,51.34223],[-2.73537,51.34223],[-2.73552,51.34224],[-2.73566,51.34221],[-2.73576,51.3422],[-2.7359,51.34223],[-2.73598,51.34224],[-2.73602,51.34231],[-2.736,51.34238],[-2.736,51.34252],[-2.73597,51.34262],[-2.73596,51.34268],[-2.73599,51.34271],[-2.73611,51.34272],[-2.73617,51.34269],[-2.73618,51.34266],[-2.73624,51.34255],[-2.73631,51.34251],[-2.7364,51.34251],[-2.73644,51.34252],[-2.73645,51.34258],[-2.73644,51.34269],[-2.73635,51.34281],[-2.73629,51.34287],[-2.73628,51.3429],[-2.73632,51.3429],[-2.73652,51.34289],[-2.73664,51.34289],[-2.7369,51.34293],[-2.73701,51.34297],[-2.737,51.34301],[-2.73694,51.34307],[-2.73694,51.34311],[-2.73699,51.34333],[-2.73698,51.34347],[-2.73703,51.3435],[-2.7371,51.34349],[-2.7373,51.34344],[-2.73743,51.34342],[-2.7375,51.34342],[-2.73753,51.34345],[-2.73751,51.3435],[-2.73756,51.34357],[-2.73769,51.34367],[-2.7378,51.34369],[-2.73786,51.34368],[-2.73796,51.3437],[-2.73819,51.34383],[-2.73823,51.34385],[-2.73828,51.34396],[-2.73835,51.34398],[-2.73851,51.344],[-2.73859,51.34403],[-2.73866,51.34411],[-2.73871,51.34415],[-2.73886,51.3442],[-2.73892,51.34422],[-2.73894,51.34424],[-2.73894,51.3443],[-2.73899,51.34437],[-2.73917,51.34441],[-2.73931,51.34444],[-2.7394,51.34448],[-2.73941,51.34451],[-2.73941,51.34456],[-2.73944,51.3446],[-2.73953,51.34476],[-2.73959,51.34486],[-2.73958,51.34495],[-2.73958,51.34501],[-2.7396,51.34505],[-2.73963,51.34507],[-2.73972,51.3451],[-2.73979,51.34511],[-2.73984,51.34518],[-2.73986,51.34526],[-2.73997,51.34531],[-2.74003,51.34535],[-2.74005,51.3454],[-2.74003,51.34547],[-2.74002,51.34553],[-2.74002,51.34559],[-2.74009,51.34565],[-2.74017,51.3457],[-2.74018,51.34578],[-2.74016,51.34584],[-2.7401,51.34591],[-2.74003,51.34593],[-2.73995,51.34595],[-2.73991,51.34599],[-2.73991,51.3461],[-2.73987,51.34621],[-2.73984,51.34627],[-2.73986,51.3463],[-2.73989,51.34631],[-2.73999,51.34635],[-2.74006,51.34638],[-2.74008,51.34643],[-2.74006,51.34647],[-2.73998,51.34651],[-2.73995,51.34655],[-2.73997,51.34659],[-2.74,51.34663],[-2.74001,51.34665],[-2.73999,51.34668],[-2.73993,51.34669],[-2.73982,51.3467],[-2.73975,51.34673],[-2.73972,51.34677],[-2.73973,51.34684],[-2.73977,51.34688],[-2.73986,51.34691],[-2.73993,51.34693],[-2.74,51.34697],[-2.74007,51.347],[-2.7401,51.34702],[-2.74006,51.34706],[-2.73995,51.34708],[-2.73984,51.3471],[-2.73983,51.34714],[-2.73986,51.34718]]}},{"type":"Feature","properties":{"name":"Congresbury Yeo","waterway":"river"},"geometry":{"type":"LineString","coordinates":[[-2.74237,51.34899],[-2.74257,51.34902],[-2.74266,51.34905],[-2.7427,51.34911],[-2.74273,51.34918],[-2.74271,51.34926],[-2.74276,51.34931],[-2.74282,51.34932],[-2.7429,51.34934],[-2.74294,51.34941],[-2.74296,51.34947],[-2.74288,51.34958],[-2.74285,51.3497],[-2.74292,51.34986],[-2.74295,51.34992],[-2.74287,51.34996],[-2.74275,51.35001],[-2.74274,51.35005],[-2.74277,51.35013],[-2.74284,51.35015],[-2.74305,51.35018],[-2.74319,51.35021],[-2.74327,51.35026],[-2.74332,51.35027],[-2.74339,51.35026],[-2.74355,51.35031],[-2.74369,51.35036],[-2.74395,51.35043],[-2.74412,51.35045],[-2.74436,51.35048]]}},{"type":"Feature","properties":{"name":"Langford Brook","waterway":"stream"},"geometry":{"type":"LineString","coordinates":[[-2.7712,51.34364],[-2.77121,51.34374],[-2.77115,51.34398],[-2.77111,51.3441],[-2.77101,51.34423],[-2.77099,51.34428],[-2.77097,51.34434],[-2.77101,51.34446],[-2.77109,51.34458],[-2.77106,51.34467],[-2.77108,51.34472],[-2.77112,51.34477],[-2.77105,51.3448],[-2.77098,51.34486],[-2.77105,51.3449],[-2.77112,51.34497],[-2.77112,51.34502],[-2.77108,51.34509],[-2.77108,51.34528],[-2.77104,51.34531],[-2.77106,51.34538],[-2.77111,51.34543],[-2.77111,51.34548],[-2.77105,51.34552],[-2.77101,51.34558],[-2.77106,51.34574],[-2.77113,51.3458],[-2.77115,51.34587],[-2.77109,51.34595],[-2.771,51.34604],[-2.77086,51.34619],[-2.7708,51.34632],[-2.77078,51.34638],[-2.77088,51.34644],[-2.77094,51.34646],[-2.77097,51.34651],[-2.77091,51.3466],[-2.77087,51.34666],[-2.77086,51.3467],[-2.77087,51.34673],[-2.77097,51.34678],[-2.77106,51.34689],[-2.77109,51.34694],[-2.77113,51.34696],[-2.77117,51.34697],[-2.77123,51.34698],[-2.77122,51.34706],[-2.7712,51.34711],[-2.77125,51.34713],[-2.77134,51.34713],[-2.77143,51.34714],[-2.77144,51.34716],[-2.77144,51.34718],[-2.77135,51.34724],[-2.77132,51.34727],[-2.77137,51.34732],[-2.7714,51.34735],[-2.7715,51.34744],[-2.77157,51.34748],[-2.7716,51.34751],[-2.77166,51.34752],[-2.77173,51.34754],[-2.77175,51.34756],[-2.77175,51.3476],[-2.77174,51.34763],[-2.77177,51.34767],[-2.77187,51.34774],[-2.7719,51.34784],[-2.77188,51.34794],[-2.7718,51.34799],[-2.77172,51.34801],[-2.77164,51.34802],[-2.77162,51.34804],[-2.7716,51.34808],[-2.77163,51.34813],[-2.77172,51.34818],[-2.77177,51.34824],[-2.77177,51.34836],[-2.77174,51.34845],[-2.77176,51.34848],[-2.77183,51.34849],[-2.77188,51.34849],[-2.77193,51.34852],[-2.77208,51.34859],[-2.77207,51.34863],[-2.77205,51.34871],[-2.77192,51.34875],[-2.77184,51.34879],[-2.77182,51.34883],[-2.77184,51.34889],[-2.7718,51.34895],[-2.77172,51.34899],[-2.7717,51.34903],[-2.77176,51.34906],[-2.77181,51.34915],[-2.77188,51.34921],[-2.77191,51.34925],[-2.77192,51.3493],[-2.77187,51.34944],[-2.77181,51.34953],[-2.77181,51.34956],[-2.77179,51.3496],[-2.7717,51.34962],[-2.77166,51.34966],[-2.77158,51.34975],[-2.77157,51.34982],[-2.77157,51.3499],[-2.7715,51.34993],[-2.7715,51.34998],[-2.77151,51.35007],[-2.77153,51.35013],[-2.77161,51.35015],[-2.77168,51.35016],[-2.77168,51.35019],[-2.77162,51.35022],[-2.77152,51.35028],[-2.77146,51.35029],[-2.7714,51.35032],[-2.77138,51.35035],[-2.77141,51.35038],[-2.77148,51.35039],[-2.77155,51.35039],[-2.77168,51.35037],[-2.77175,51.35034],[-2.7718,51.35034],[-2.77186,51.3504],[-2.77192,51.35044],[-2.77226,51.35053],[-2.77236,51.35054],[-2.7724,51.35055],[-2.77243,51.3506],[-2.77248,51.35066],[-2.77255,51.35068],[-2.77264,51.35068],[-2.77272,51.35072],[-2.77279,51.35073],[-2.77281,51.35074],[-2.77284,51.35077],[-2.77304,51.35077],[-2.77318,51.3508],[-2.77323,51.35081],[-2.77331,51.35077],[-2.77333,51.35076],[-2.77338,51.35079],[-2.77343,51.35081],[-2.77349,51.35082],[-2.77354,51.35085],[-2.77355,51.35089],[-2.77352,51.351],[-2.77349,51.35107],[-2.77346,51.35115],[-2.77362,51.35122],[-2.77366,51.35128]]}},{"type":"Feature","properties":{"name":"Congresbury Yeo","waterway":"river"},"geometry":{"type":"LineString","coordinates":[[-2.72076,51.33832],[-2.72096,51.33829],[-2.72106,51.3383],[-2.72109,51.33834],[-2.72118,51.3384],[-2.72125,51.33839],[-2.72139,51.33838],[-2.72149,51.3384],[-2.72159,51.33844],[-2.72167,51.33842],[-2.72177,51.33838],[-2.72194,51.33843],[-2.72201,51.33844],[-2.72217,51.33836],[-2.72231,51.33828],[-2.72235,51.33823],[-2.7224,51.33821],[-2.72247,51.33821],[-2.7225,51.33824],[-2.7225,51.33836],[-2.7225,51.33845],[-2.72253,51.33853],[-2.72257,51.33855],[-2.72265,51.33853],[-2.72284,51.33849],[-2.72292,51.33851],[-2.72301,51.33858],[-2.72308,51.33857],[-2.72335,51.33856],[-2.72352,51.33856],[-2.7236,51.33851],[-2.72366,51.33845],[-2.72372,51.33842],[-2.72378,51.33845],[-2.72378,51.3385],[-2.72372,51.33854],[-2.72372,51.3386],[-2.72379,51.33863],[-2.72388,51.33862],[-2.72398,51.33859],[-2.72405,51.33852],[-2.72407,51.33845],[-2.72411,51.33842],[-2.72418,51.33841],[-2.72423,51.33844],[-2.72425,51.33848],[-2.72422,51.33855],[-2.7242,51.33862],[-2.72421,51.33868],[-2.72428,51.33872],[-2.72436,51.33872],[-2.72446,51.33867],[-2.72454,51.33862],[-2.72463,51.33858],[-2.72477,51.3386],[-2.72482,51.33865],[-2.72486,51.33872],[-2.72493,51.33881],[-2.72509,51.33884],[-2.72522,51.33883],[-2.72536,51.33885],[-2.72543,51.33887],[-2.72546,51.3389],[-2.72542,51.33897],[-2.72532,51.33899],[-2.72522,51.339],[-2.72518,51.33902],[-2.72519,51.33908],[-2.72526,51.33914],[-2.72529,51.33915],[-2.72541,51.33918],[-2.72568,51.33914],[-2.72581,51.33911],[-2.72583,51.33905],[-2.72578,51.33898],[-2.72575,51.33892],[-2.72576,51.33887],[-2.72581,51.33883],[-2.72588,51.33882],[-2.72597,51.33885],[-2.72612,51.33895],[-2.72619,51.33897],[-2.72632,51.33899],[-2.72638,51.33902],[-2.72645,51.33908],[-2.72654,51.33912],[-2.72663,51.33913],[-2.72673,51.33914],[-2.72677,51.33912],[-2.72677,51.33906],[-2.72675,51.33903],[-2.72674,51.33894],[-2.72677,51.3389],[-2.72686,51.33887],[-2.72693,51.33882],[-2.72695,51.33876],[-2.72697,51.33872],[-2.72706,51.33868],[-2.72716,51.33868],[-2.72721,51.33872],[-2.72724,51.33882],[-2.7273,51.33888],[-2.72738,51.33889],[-2.72743,51.33889],[-2.7275,51.33882],[-2.72754,51.33877],[-2.7276,51.33872],[-2.72776,51.33865],[-2.72786,51.33863],[-2.72798,51.33864],[-2.72808,51.33863],[-2.72817,51.3386],[-2.7283,51.33859],[-2.72838,51.33861],[-2.72842,51.33865],[-2.72846,51.3387],[-2.72857,51.33871],[-2.72874,51.33872],[-2.72886,51.33875],[-2.72896,51.33879],[-2.72904,51.33884],[-2.7291,51.33885],[-2.7292,51.33886],[-2.72929,51.33882],[-2.72941,51.33876],[-2.7295,51.33874],[-2.72965,51.33873],[-2.72975,51.33875],[-2.72982,51.33881],[-2.72985,51.33885],[-2.72996,51.33889],[-2.73001,51.33896],[-2.72998,51.33905],[-2.72997,51.33912],[-2.73003,51.33916],[-2.7301,51.33915],[-2.7302,51.33911],[-2.73028,51.33911],[-2.73042,51.33915],[-2.73048,51.3392],[-2.73048,51.33924],[-2.73055,51.33928],[-2.73065,51.33931],[-2.73079,51.33938],[-2.73091,51.3394],[-2.73104,51.33939],[-2.73113,51.33939],[-2.73122,51.3394],[-2.73125,51.33942],[-2.73122,51.33945],[-2.73117,51.33949],[-2.73118,51.33957],[-2.73125,51.33962],[-2.73135,51.3397],[-2.73152,51.33976],[-2.73161,51.33979],[-2.73165,51.33984],[-2.73163,51.33992],[-2.73161,51.33996],[-2.73161,51.34005],[-2.73165,51.3401],[-2.73173,51.34012],[-2.73182,51.34013],[-2.73188,51.34015],[-2.73192,51.34019],[-2.73192,51.34024],[-2.73192,51.34033],[-2.73194,51.34037],[-2.73217,51.34048],[-2.7323,51.34056],[-2.73236,51.34066]]}},{"type":"Feature","properties":{"name":"Congresbury Yeo","waterway":"river"},"geometry":{"type":"LineString","coordinates":[[-2.73986,51.34718],[-2.73995,51.34722],[-2.74001,51.34725],[-2.74001,51.34731],[-2.74002,51.3474],[-2.74004,51.34743],[-2.74011,51.34744],[-2.74016,51.34743],[-2.74027,51.34738],[-2.74035,51.34734],[-2.74046,51.34731],[-2.74053,51.34732],[-2.74054,51.34736],[-2.74055,51.34743],[-2.74051,51.3475],[-2.74044,51.34754],[-2.74036,51.34756],[-2.74032,51.34757],[-2.7403,51.34764],[-2.74035,51.34768],[-2.74044,51.34769],[-2.74053,51.34769],[-2.74063,51.3477],[-2.74087,51.34778],[-2.74096,51.34784],[-2.74102,51.34795],[-2.74103,51.34804],[-2.74105,51.34808],[-2.74114,51.34815],[-2.74118,51.34821],[-2.74118,51.34827],[-2.74114,51.34831],[-2.74107,51.34832],[-2.74099,51.34828],[-2.7409,51.34824],[-2.74085,51.34823],[-2.74079,51.34822],[-2.7407,51.34823],[-2.74066,51.34824],[-2.7406,51.34827],[-2.74059,51.3483],[-2.7406,51.34833],[-2.74067,51.34837],[-2.74079,51.34841],[-2.74082,51.34844],[-2.74076,51.34851],[-2.74074,51.34855],[-2.74077,51.34857],[-2.74085,51.34857],[-2.74094,51.34857],[-2.74103,51.3486],[-2.74116,51.34869],[-2.74124,51.34879],[-2.74136,51.3489],[-2.74143,51.34894],[-2.74154,51.34895],[-2.74172,51.34897],[-2.7418,51.34897],[-2.74193,51.34899],[-2.74202,51.34897],[-2.74217,51.34897],[-2.74228,51.34899],[-2.74237,51.34899]]}},{"type":"Feature","properties":{"waterway":"stream"},"geometry":{"type":"LineString","coordinates":[[-2.73832,51.33071],[-2.73834,51.33089],[-2.73837,51.33106],[-2.73845,51.33122],[-2.73855,51.33144],[-2.73869,51.33171],[-2.73873,51.33175],[-2.73892,51.33183],[-2.73907,51.33199],[-2.73912,51.33206],[-2.7391,51.33219],[-2.73909,51.33225],[-2.73909,51.3323]]}},{"type":"Feature","properties":{"waterway":"stream"},"geometry":{"type":"LineString","coordinates":[[-2.73824,51.33055],[-2.73832,51.33071]]}},{"type":"Feature","properties":{"name":"Towerhead Brook","waterway":"stream"},"geometry":{"type":"LineString","coordinates":[[-2.83785,51.3263],[-2.83821,51.32641]]}},{"type":"Feature","properties":{"name":"Ellenge Stream","waterway":"stream"},"geometry":{"type":"LineString","coordinates":[[-2.80556,51.28513],[-2.80533,51.28516]]}},{"type":"Feature","properties":{"name":"Ellenge Stream / Old River Axe","waterway":"stream"},"geometry":{"type":"LineString","coordinates":[[-2.80533,51.28516],[-2.80509,51.28517],[-2.80466,51.28522],[-2.8043,51.28524],[-2.8039,51.28526],[-2.80292,51.28524],[-2.80211,51.28518],[-2.80157,51.28514],[-2.80155,51.28526],[-2.80145,51.2853],[-2.80142,51.28537],[-2.8014,51.28544],[-2.80143,51.28559],[-2.80144,51.2858],[-2.80142,51.28588]]}},{"type":"Feature","properties":{"name":"Ellenge Stream","waterway":"stream"},"geometry":{"type":"LineString","coordinates":[[-2.81123,51.28399],[-2.81116,51.28398]]}},{"type":"Feature","properties":{"name":"Ellenge Stream","waterway":"stream"},"geometry":{"type":"LineString","coordinates":[[-2.81227,51.28383],[-2.81224,51.28384],[-2.81224,51.28387],[-2.81225,51.2839],[-2.81221,51.28391],[-2.81205,51.28392],[-2.81169,51.28391],[-2.81156,51.28394],[-2.81145,51.28397],[-2.81135,51.284],[-2.81123,51.28399]]}},{"type":"Feature","properties":{"name":"Ellenge Stream","waterway":"stream"},"geometry":{"type":"LineString","coordinates":[[-2.81234,51.28383],[-2.81227,51.28383]]}},{"type":"Feature","properties":{"name":"Ellenge Stream","waterway":"stream"},"geometry":{"type":"LineString","coordinates":[[-2.81116,51.28398],[-2.81114,51.28398],[-2.811,51.28398],[-2.81076,51.28396],[-2.81061,51.28389],[-2.8103,51.28378],[-2.81019,51.28381],[-2.81011,51.28383],[-2.80889,51.284],[-2.80873,51.2841],[-2.80846,51.2843],[-2.80807,51.28451],[-2.80769,51.28467],[-2.80732,51.28483],[-2.80662,51.28498],[-2.80595,51.28508],[-2.80556,51.28513]]}},{"type":"Feature","properties":{"natural":"water"},"geometry":{"type":"Polygon","coordinates":[[[-2.72752,51.32101],[-2.72692,51.32095],[-2.72687,51.32114],[-2.72746,51.32121],[-2.72752,51.32101]]]}},{"type":"Feature","properties":{"name":"Langford Brook","waterway":"stream"},"geometry":{"type":"LineString","coordinates":[[-2.77256,51.339],[-2.77251,51.33918]]}},{"type":"Feature","properties":{"name":"Langford Brook","waterway":"stream"},"geometry":{"type":"LineString","coordinates":[[-2.77251,51.33918],[-2.77254,51.33927],[-2.77256,51.33931],[-2.77248,51.33936],[-2.77251,51.33948],[-2.77249,51.33955],[-2.77249,51.33958],[-2.77253,51.33964],[-2.77252,51.3397],[-2.77244,51.33972],[-2.77247,51.33979],[-2.77249,51.33984],[-2.77248,51.33991],[-2.7724,51.34002],[-2.77239,51.34006],[-2.77241,51.34012],[-2.77245,51.34015],[-2.77237,51.3402],[-2.77236,51.34023],[-2.77238,51.34032],[-2.77237,51.34035],[-2.77229,51.34035],[-2.77218,51.34041],[-2.7721,51.34049],[-2.7721,51.34056],[-2.77216,51.3406],[-2.77222,51.34064],[-2.77216,51.34068],[-2.77209,51.3407],[-2.77206,51.34077],[-2.77211,51.34082],[-2.77213,51.34084],[-2.77214,51.34092],[-2.77211,51.34099],[-2.77196,51.34101],[-2.77168,51.34099],[-2.77151,51.34099],[-2.77137,51.341]]}},{"type":"Feature","properties":{"waterway":"stream"},"geometry":{"type":"LineString","coordinates":[[-2.73909,51.3323],[-2.73912,51.33234],[-2.7392,51.33243],[-2.73929,51.33252],[-2.73933,51.33254],[-2.73938,51.33256],[-2.73942,51.33257]]}},{"type":"Feature","properties":{"waterway":"stream"},"geometry":{"type":"LineString","coordinates":[[-2.83407,51.30497],[-2.83415,51.30547],[-2.83413,51.30596],[-2.83436,51.30625],[-2.83441,51.3064]]}},{"type":"Feature","properties":{"waterway":"stream"},"geometry":{"type":"LineString","coordinates":[[-2.85077,51.31487],[-2.85126,51.31491],[-2.85164,51.31493],[-2.85183,51.31487],[-2.85207,51.31487],[-2.85225,51.3148],[-2.85268,51.31484],[-2.85328,51.31487],[-2.8534,51.31489],[-2.85436,51.31478],[-2.85523,51.31463],[-2.85618,51.31444],[-2.85708,51.31422],[-2.85763,51.31411]]}},{"type":"Feature","properties":{"waterway":"stream"},"geometry":{"type":"LineString","coordinates":[[-2.72772,51.34294],[-2.72824,51.34305],[-2.73059,51.34316],[-2.73091,51.34308],[-2.73121,51.34306],[-2.73152,51.34305],[-2.73165,51.34304],[-2.73209,51.34296],[-2.73324,51.34289],[-2.73337,51.34287],[-2.73343,51.34287],[-2.73352,51.34289],[-2.73365,51.3429],[-2.73393,51.34288],[-2.734,51.34286],[-2.73406,51.34281],[-2.73407,51.34276],[-2.73407,51.34267],[-2.73432,51.34246],[-2.73435,51.34242]]}},{"type":"Feature","properties":{"waterway":"stream"},"geometry":{"type":"LineString","coordinates":[[-2.72761,51.34291],[-2.72772,51.34294]]}},{"type":"Feature","properties":{"natural":"water"},"geometry":{"type":"Polygon","coordinates":[[[-2.80488,51.29848],[-2.80432,51.29848],[-2.8043,51.29862],[-2.80374,51.29864],[-2.80372,51.29876],[-2.80339,51.29882],[-2.80344,51.29915],[-2.80379,51.29914],[-2.80411,51.29905],[-2.80472,51.29901],[-2.80469,51.2989],[-2.80495,51.29889],[-2.80488,51.29848]]]}},{"type":"Feature","properties":{"name":"Cheddar Yeo","waterway":"stream"},"geometry":{"type":"LineString","coordinates":[[-2.7667,51.28181],[-2.7668,51.2818],[-2.76693,51.28179],[-2.76698,51.28179]]}},{"type":"Feature","properties":{"name":"Cheddar Yeo","waterway":"stream"},"geometry":{"type":"LineString","coordinates":[[-2.76642,51.28182],[-2.76647,51.28182],[-2.76657,51.28182],[-2.76662,51.28181],[-2.76664,51.28181],[-2.7667,51.28181]]}},{"type":"Feature","properties":{"name":"Cheddar Yeo","waterway":"river"},"geometry":{"type":"LineString","coordinates":[[-2.76735,51.28197],[-2.76751,51.282],[-2.76793,51.28202],[-2.76826,51.28205],[-2.76868,51.28205],[-2.76889,51.28206],[-2.76895,51.28204],[-2.76903,51.28198],[-2.76907,51.28195],[-2.76912,51.28192],[-2.76916,51.28189]]}},{"type":"Feature","properties":{"name":"Cheddar Yeo","waterway":"stream"},"geometry":{"type":"LineString","coordinates":[[-2.76698,51.28179],[-2.76735,51.28197]]}},{"type":"Feature","properties":{"natural":"water"},"geometry":{"type":"Polygon","coordinates":[[[-2.73039,51.33808],[-2.73066,51.33796],[-2.73075,51.33796],[-2.7308,51.338],[-2.73081,51.33806],[-2.73071,51.33822],[-2.73064,51.33825],[-2.73049,51.33823],[-2.73043,51.3382],[-2.73039,51.33817],[-2.73039,51.33808]]]}},{"type":"Feature","properties":{"name":"Ellenge Stream","waterway":"stream"},"geometry":{"type":"LineString","coordinates":[[-2.80038,51.28689],[-2.80015,51.28706],[-2.79994,51.28716],[-2.79977,51.28736],[-2.79981,51.28749]]}},{"type":"Feature","properties":{"name":"Ellenge Stream","waterway":"stream"},"geometry":{"type":"LineString","coordinates":[[-2.80044,51.28685],[-2.80038,51.28689]]}},{"type":"Feature","properties":{"name":"Ellenge Stream","waterway":"stream"},"geometry":{"type":"LineString","coordinates":[[-2.80045,51.28684],[-2.80044,51.28685]]}},{"type":"Feature","properties":{"waterway":"stream"},"geometry":{"type":"LineString","coordinates":[[-2.84602,51.31785],[-2.8467,51.31763],[-2.84703,51.3175],[-2.84722,51.3175],[-2.84744,51.31733],[-2.84785,51.31714],[-2.84792,51.31714],[-2.84802,51.3171],[-2.84808,51.31711],[-2.8481,51.31708],[-2.84806,51.31703],[-2.84848,51.31651],[-2.84861,51.31646],[-2.84875,51.31645],[-2.85017,51.31535],[-2.85012,51.3153],[-2.85025,51.31507],[-2.85039,51.31497],[-2.85051,51.31492]]}},{"type":"Feature","properties":{"natural":"water"},"geometry":{"type":"Polygon","coordinates":[[[-2.84019,51.30792],[-2.84016,51.30796],[-2.84035,51.30815],[-2.84064,51.3085],[-2.84079,51.30853],[-2.84102,51.30851],[-2.84137,51.30843],[-2.84137,51.30841],[-2.84118,51.30835],[-2.84101,51.30827],[-2.84062,51.30808],[-2.84053,51.30807],[-2.84046,51.30801],[-2.84024,51.30792],[-2.84019,51.30792]]]}},{"type":"Feature","properties":{"natural":"water"},"geometry":{"type":"Polygon","coordinates":[[[-2.8391,51.3421],[-2.83922,51.34201],[-2.83933,51.34195],[-2.83924,51.34183],[-2.8392,51.34183],[-2.83899,51.34192],[-2.83888,51.34199],[-2.83888,51.34206],[-2.83892,51.3421],[-2.839,51.34212],[-2.8391,51.3421]]]}},{"type":"Feature","properties":{"natural":"water"},"geometry":{"type":"Polygon","coordinates":[[[-2.8394,51.34237],[-2.83936,51.34229],[-2.83923,51.34221],[-2.83922,51.34216],[-2.8393,51.34211],[-2.83939,51.34211],[-2.83952,51.34216],[-2.83964,51.34225],[-2.83966,51.34233],[-2.83961,51.34241],[-2.83953,51.34242],[-2.83946,51.34241],[-2.8394,51.34237]]]}},{"type":"Feature","properties":{"natural":"water"},"geometry":{"type":"Polygon","coordinates":[[[-2.83574,51.34092],[-2.83564,51.34072],[-2.83557,51.34071],[-2.83547,51.34067],[-2.83516,51.34075],[-2.83509,51.34083],[-2.83512,51.34093],[-2.83517,51.34098],[-2.83527,51.341],[-2.8355,51.34102],[-2.83571,51.34097],[-2.83574,51.34092]]]}},{"type":"Feature","properties":{"natural":"water"},"geometry":{"type":"Polygon","coordinates":[[[-2.79115,51.347],[-2.79189,51.34711],[-2.79171,51.34733],[-2.79114,51.34705],[-2.79115,51.347]]]}},{"type":"Feature","properties":{"natural":"water"},"geometry":{"type":"Polygon","coordinates":[[[-2.79068,51.34692],[-2.79105,51.34698],[-2.79103,51.34703],[-2.791,51.34707],[-2.79088,51.3471],[-2.79073,51.34704],[-2.79068,51.34692]]]}},{"type":"Feature","properties":{"natural":"water"},"geometry":{"type":"Polygon","coordinates":[[[-2.7328,51.28153],[-2.73284,51.2815],[-2.73274,51.28145],[-2.73271,51.28143],[-2.73267,51.28146],[-2.73269,51.28147],[-2.7328,51.28153]]]}},{"type":"Feature","properties":{"waterway":"stream"},"geometry":{"type":"LineString","coordinates":[[-2.76167,51.31622],[-2.76205,51.3163],[-2.76233,51.31631],[-2.76274,51.31643],[-2.76323,51.31688],[-2.76378,51.31715],[-2.7645,51.31752]]}},{"type":"Feature","properties":{"waterway":"stream"},"geometry":{"type":"LineString","coordinates":[[-2.76421,51.31585],[-2.76443,51.31607],[-2.76443,51.31633],[-2.76463,51.31646],[-2.76485,51.31673],[-2.76483,51.31718],[-2.7645,51.31752],[-2.76436,51.31808],[-2.76417,51.31838],[-2.76418,51.31854],[-2.76409,51.31862],[-2.76393,51.31903],[-2.76369,51.31918],[-2.76356,51.31935],[-2.76356,51.31957],[-2.76351,51.31966],[-2.76339,51.31987],[-2.7637,51.32027],[-2.76364,51.32068],[-2.76375,51.32086],[-2.76356,51.32121],[-2.76361,51.32159],[-2.76408,51.3219],[-2.76414,51.32194],[-2.76455,51.32237],[-2.76459,51.32251]]}},{"type":"Feature","properties":{"natural":"water"},"geometry":{"type":"Polygon","coordinates":[[[-2.73312,51.34325],[-2.73317,51.34324],[-2.7332,51.34323],[-2.73323,51.34322],[-2.73337,51.34316],[-2.73339,51.34314],[-2.7334,51.34313],[-2.73341,51.34311],[-2.7334,51.34309],[-2.73339,51.34306],[-2.73334,51.34297],[-2.73331,51.34293],[-2.73324,51.34289],[-2.73307,51.3428],[-2.73298,51.34277],[-2.73288,51.34274],[-2.73284,51.34273],[-2.73281,51.34272],[-2.7328,51.34272],[-2.73278,51.34271],[-2.73274,51.34271],[-2.73259,51.34272],[-2.7325,51.34274],[-2.73237,51.34277],[-2.73233,51.34278],[-2.73219,51.3428],[-2.73215,51.34281],[-2.73213,51.34283],[-2.73209,51.34287],[-2.73207,51.34288],[-2.73204,51.34289],[-2.73193,51.34292],[-2.73185,51.34294],[-2.73179,51.34297],[-2.73177,51.34298],[-2.73173,51.343],[-2.73172,51.34301],[-2.73163,51.34301],[-2.73161,51.34301],[-2.73159,51.34302],[-2.73157,51.34303],[-2.73155,51.34304],[-2.73153,51.34304],[-2.73152,51.34305],[-2.73152,51.34307],[-2.73153,51.3431],[-2.73156,51.34313],[-2.73158,51.34313],[-2.7316,51.34313],[-2.73161,51.34313],[-2.73163,51.34311],[-2.73165,51.34309],[-2.73171,51.34307],[-2.73181,51.34303],[-2.73185,51.34302],[-2.73186,51.34302],[-2.7319,51.34302],[-2.73193,51.34302],[-2.73202,51.34307],[-2.7321,51.34312],[-2.73218,51.34316],[-2.73229,51.3432],[-2.73236,51.34321],[-2.73245,51.34322],[-2.73256,51.34323],[-2.73258,51.34323],[-2.73275,51.34325],[-2.73291,51.34326],[-2.73304,51.34325],[-2.73312,51.34325]]]}},{"type":"Feature","properties":{"waterway":"stream"},"geometry":{"type":"LineString","coordinates":[[-2.75544,51.33712],[-2.75566,51.33746],[-2.75579,51.33755],[-2.75582,51.33761],[-2.7559,51.33778],[-2.75594,51.33782],[-2.75646,51.33815],[-2.75677,51.33843],[-2.75686,51.33852],[-2.75691,51.33862],[-2.75706,51.33894],[-2.75728,51.33916],[-2.75727,51.33941],[-2.75732,51.3395],[-2.75733,51.33956],[-2.75736,51.3399],[-2.7574,51.33999],[-2.75759,51.34056],[-2.75763,51.34063],[-2.75823,51.34186],[-2.75902,51.34275],[-2.76011,51.34397],[-2.75987,51.34403],[-2.76019,51.34437],[-2.76108,51.34547],[-2.76123,51.34568],[-2.76129,51.34571],[-2.76162,51.34566],[-2.76188,51.34587],[-2.76241,51.34595],[-2.76308,51.34604],[-2.76492,51.34628],[-2.76581,51.34654],[-2.76625,51.34663],[-2.76741,51.3469],[-2.76775,51.34698],[-2.76871,51.34743],[-2.76961,51.34788],[-2.77,51.34804],[-2.77022,51.34896],[-2.77055,51.34909],[-2.77047,51.34924],[-2.77037,51.34941],[-2.77058,51.34948],[-2.77113,51.34951],[-2.77137,51.34956],[-2.77146,51.34954],[-2.77181,51.34956]]}},{"type":"Feature","properties":{"waterway":"stream"},"geometry":{"type":"LineString","coordinates":[[-2.74832,51.31956],[-2.74813,51.31982],[-2.74807,51.31993],[-2.748,51.32006],[-2.74789,51.32016],[-2.74779,51.32029],[-2.74784,51.32039],[-2.748,51.32057],[-2.74831,51.32066],[-2.74973,51.32107],[-2.75091,51.32135],[-2.75114,51.32136],[-2.75226,51.3216],[-2.75244,51.32171],[-2.75251,51.32179],[-2.75261,51.32233],[-2.75248,51.32356],[-2.75255,51.32389],[-2.7528,51.32414],[-2.75338,51.32463],[-2.7534,51.32469],[-2.75332,51.32494],[-2.75321,51.32506],[-2.75289,51.32542],[-2.75287,51.32549],[-2.75284,51.32584],[-2.75287,51.3259],[-2.75301,51.32631],[-2.75301,51.32639],[-2.75303,51.32685],[-2.75299,51.32716],[-2.75294,51.3273],[-2.75269,51.32782],[-2.75238,51.32844],[-2.75226,51.32862],[-2.75192,51.32905],[-2.75147,51.3297],[-2.75137,51.32991],[-2.75134,51.33055],[-2.75149,51.33187],[-2.75209,51.33278],[-2.7528,51.33322],[-2.75422,51.33414],[-2.75513,51.33523],[-2.75549,51.33659],[-2.75544,51.33712]]}},{"type":"Feature","properties":{"waterway":"stream"},"geometry":{"type":"LineString","coordinates":[[-2.7532,51.3219],[-2.75296,51.3221],[-2.75285,51.32219],[-2.75261,51.32233]]}},{"type":"Feature","properties":{"waterway":"stream"},"geometry":{"type":"LineString","coordinates":[[-2.75407,51.32074],[-2.75399,51.3208]]}},{"type":"Feature","properties":{"natural":"water"},"geometry":{"type":"Polygon","coordinates":[[[-2.83965,51.27963],[-2.83976,51.27967],[-2.83976,51.27972],[-2.83973,51.27975],[-2.83968,51.27976],[-2.83958,51.27974],[-2.83951,51.27969],[-2.83941,51.27966],[-2.83922,51.27963],[-2.83912,51.2796],[-2.83905,51.27954],[-2.83904,51.27949],[-2.83908,51.27944],[-2.83913,51.27941],[-2.83927,51.27937],[-2.83935,51.27934],[-2.83942,51.27934],[-2.83948,51.27934],[-2.83954,51.27937],[-2.83959,51.27944],[-2.8396,51.27951],[-2.83962,51.27957],[-2.83964,51.2796],[-2.83965,51.27963]]]}},{"type":"Feature","properties":{"name":"Ellenge Stream","waterway":"stream"},"geometry":{"type":"LineString","coordinates":[[-2.81623,51.28447],[-2.81617,51.28447],[-2.81586,51.28434],[-2.81554,51.2843],[-2.81528,51.28419],[-2.81492,51.28412],[-2.81472,51.28412],[-2.81446,51.28404],[-2.81434,51.28402],[-2.81408,51.28395],[-2.81349,51.28383],[-2.81333,51.28379],[-2.81234,51.28383]]}},{"type":"Feature","properties":{"name":"Ellenge Stream","waterway":"stream"},"geometry":{"type":"LineString","coordinates":[[-2.81639,51.28449],[-2.81623,51.28447]]}},{"type":"Feature","properties":{"name":"Langford Brook","waterway":"stream"},"geometry":{"type":"LineString","coordinates":[[-2.76786,51.33182],[-2.76787,51.33183],[-2.76801,51.33187]]}},{"type":"Feature","properties":{"name":"Langford Brook","waterway":"stream"},"geometry":{"type":"LineString","coordinates":[[-2.76801,51.33187],[-2.76813,51.33189]]}},{"type":"Feature","properties":{"name":"Cheddar Vale Lions Wishing Pool","natural":"water"},"geometry":{"type":"Polygon","coordinates":[[[-2.77047,51.28126],[-2.77045,51.28122],[-2.77028,51.28128],[-2.7703,51.28129],[-2.77031,51.28131],[-2.77038,51.28128],[-2.77047,51.28126]]]}},{"type":"Feature","properties":{"natural":"water"},"geometry":{"type":"Polygon","coordinates":[[[-2.77053,51.28141],[-2.77049,51.28137],[-2.77046,51.28134],[-2.77044,51.28132],[-2.77044,51.28128],[-2.77047,51.28126],[-2.77038,51.28128],[-2.77031,51.28131],[-2.77031,51.28133],[-2.77036,51.28137],[-2.77044,51.28138],[-2.77053,51.28141]]]}},{"type":"Feature","properties":{"waterway":"stream"},"geometry":{"type":"LineString","coordinates":[[-2.77103,51.28127],[-2.77137,51.28123],[-2.77145,51.28121],[-2.77156,51.28117],[-2.77157,51.28115],[-2.77157,51.28113],[-2.77156,51.28112]]}},{"type":"Feature","properties":{"waterway":"stream"},"geometry":{"type":"LineString","coordinates":[[-2.7708,51.28121],[-2.7708,51.28123],[-2.77085,51.28127],[-2.77086,51.28129],[-2.77103,51.28127],[-2.77104,51.28124],[-2.77103,51.28123],[-2.77099,51.28119]]}},{"type":"Feature","properties":{"name":"Towerhead Brook","waterway":"stream"},"geometry":{"type":"LineString","coordinates":[[-2.83821,51.32641],[-2.83851,51.32651],[-2.83879,51.32664],[-2.839,51.32675],[-2.83937,51.32702],[-2.83951,51.32712],[-2.83957,51.32718],[-2.83959,51.3272],[-2.8396,51.32727],[-2.83965,51.32733],[-2.83997,51.3277],[-2.83998,51.32775],[-2.84005,51.32783],[-2.84012,51.32794],[-2.84023,51.32825],[-2.84027,51.32846],[-2.8403,51.32855],[-2.84029,51.32857],[-2.84026,51.32862],[-2.84026,51.32869],[-2.84024,51.32875],[-2.84025,51.32881],[-2.84028,51.32885],[-2.84031,51.32888],[-2.84032,51.3289],[-2.84032,51.32892],[-2.84034,51.32896],[-2.84043,51.32912],[-2.84043,51.32917],[-2.84048,51.32923],[-2.84063,51.32963],[-2.84064,51.32982],[-2.84069,51.33008],[-2.84074,51.33024],[-2.84087,51.33037],[-2.84092,51.33043],[-2.84097,51.33049],[-2.84098,51.33061],[-2.84105,51.33073],[-2.84119,51.33079],[-2.84127,51.3308],[-2.84134,51.33081],[-2.84138,51.33083],[-2.84138,51.33087],[-2.84136,51.33093],[-2.84141,51.331],[-2.84147,51.33107],[-2.84159,51.33113],[-2.84169,51.33123],[-2.84174,51.33129],[-2.84183,51.33134],[-2.84191,51.33137],[-2.842,51.33135],[-2.84205,51.33133],[-2.84213,51.33133],[-2.84217,51.33135],[-2.84216,51.33142],[-2.84227,51.33148],[-2.84231,51.33151],[-2.84236,51.33155],[-2.84256,51.33169],[-2.84269,51.33174],[-2.84283,51.33176],[-2.8429,51.3318],[-2.84309,51.33192],[-2.84316,51.33199],[-2.84322,51.33207]]}},{"type":"Feature","properties":{"name":"Towerhead Brook","waterway":"stream"},"geometry":{"type":"LineString","coordinates":[[-2.84322,51.33207],[-2.84327,51.33224]]}},{"type":"Feature","properties":{"natural":"water"},"geometry":{"type":"Polygon","coordinates":[[[-2.76008,51.34135],[-2.76026,51.34123],[-2.76023,51.34118],[-2.76006,51.34122],[-2.76002,51.34126],[-2.76008,51.34135]]]}},{"type":"Feature","properties":{"natural":"water"},"geometry":{"type":"Polygon","coordinates":[[[-2.81606,51.33993],[-2.81607,51.3396],[-2.81584,51.3396],[-2.81583,51.33993],[-2.81606,51.33993]]]}},{"type":"Feature","properties":{"natural":"water"},"geometry":{"type":"Polygon","coordinates":[[[-2.81659,51.33967],[-2.81642,51.33945],[-2.81619,51.33948],[-2.8162,51.33971],[-2.81659,51.33967]]]}},{"type":"Feature","properties":{"natural":"water"},"geometry":{"type":"Polygon","coordinates":[[[-2.82883,51.33527],[-2.82884,51.33524],[-2.82881,51.3352],[-2.82868,51.33518],[-2.82852,51.33517],[-2.82831,51.33519],[-2.8281,51.33521],[-2.82796,51.33521],[-2.82793,51.33524],[-2.82796,51.33526],[-2.82813,51.3353],[-2.82834,51.33537],[-2.82843,51.33538],[-2.82852,51.33538],[-2.82868,51.33532],[-2.82883,51.33527]]]}},{"type":"Feature","properties":{"natural":"water"},"geometry":{"type":"Polygon","coordinates":[[[-2.81349,51.33385],[-2.81364,51.33371],[-2.81357,51.33365],[-2.81337,51.33355],[-2.81316,51.33347],[-2.81281,51.33339],[-2.81259,51.33331],[-2.81251,51.33329],[-2.81246,51.33333],[-2.81246,51.33338],[-2.81265,51.33348],[-2.81281,51.33355],[-2.81283,51.33365],[-2.81289,51.33373],[-2.81309,51.3338],[-2.81335,51.33384],[-2.81349,51.33385]]]}},{"type":"Feature","properties":{"natural":"water"},"geometry":{"type":"Polygon","coordinates":[[[-2.83754,51.33726],[-2.83784,51.33719],[-2.83787,51.33716],[-2.83773,51.33702],[-2.83755,51.33679],[-2.83745,51.3366],[-2.83737,51.33658],[-2.83726,51.33662],[-2.83716,51.33672],[-2.83722,51.33687],[-2.83736,51.33717],[-2.83745,51.33726],[-2.83754,51.33726]]]}},{"type":"Feature","properties":{"natural":"water"},"geometry":{"type":"Polygon","coordinates":[[[-2.79082,51.33624],[-2.79088,51.33621],[-2.79088,51.33616],[-2.79081,51.33612],[-2.79077,51.33611],[-2.79072,51.33613],[-2.79068,51.33614],[-2.79067,51.33617],[-2.7907,51.3362],[-2.79072,51.33622],[-2.79074,51.33624],[-2.79077,51.33625],[-2.79082,51.33624]]]}}]}