{"type":"FeatureCollection","features":[{"type":"Feature","properties":{"leisure":"playground"},"geometry":{"type":"Point","coordinates":[-2.79883,51.31777]}},{"type":"Feature","properties":{"leisure":"picnic_table","covered":"no"},"geometry":{"type":"Point","coordinates":[-2.79604,51.28457]}},{"type":"Feature","properties":{"leisure":"picnic_table","access":"customers"},"geometry":{"type":"Point","coordinates":[-2.83762,51.2888]}},{"type":"Feature","properties":{"leisure":"playground","access":"customers"},"geometry":{"type":"Point","coordinates":[-2.7734,51.27924]}},{"type":"Feature","properties":{"leisure":"picnic_table","covered":"no"},"geometry":{"type":"Point","coordinates":[-2.76993,51.28047]}},{"type":"Feature","properties":{"leisure":"picnic_table","covered":"no"},"geometry":{"type":"Point","coordinates":[-2.76983,51.28039]}},{"type":"Feature","properties":{"leisure":"picnic_table"},"geometry":{"type":"Point","coordinates":[-2.77238,51.2807]}},{"type":"Feature","properties":{"leisure":"picnic_table"},"geometry":{"type":"Point","coordinates":[-2.77242,51.28069]}},{"type":"Feature","properties":{"leisure":"picnic_table"},"geometry":{"type":"Point","coordinates":[-2.77245,51.28064]}},{"type":"Feature","properties":{"leisure":"picnic_table"},"geometry":{"type":"Point","coordinates":[-2.77243,51.28058]}},{"type":"Feature","properties":{"leisure":"picnic_table"},"geometry":{"type":"Point","coordinates":[-2.77242,51.2806]}},{"type":"Feature","properties":{"leisure":"picnic_table"},"geometry":{"type":"Point","coordinates":[-2.77245,51.28061]}},{"type":"Feature","properties":{"leisure":"picnic_table"},"geometry":{"type":"Point","coordinates":[-2.77247,51.28059]}},{"type":"Feature","properties":{"leisure":"picnic_table"},"geometry":{"type":"Point","coordinates":[-2.77248,51.28062]}},{"type":"Feature","properties":{"leisure":"picnic_table"},"geometry":{"type":"Point","coordinates":[-2.83901,51.32987]}},{"type":"Feature","properties":{"leisure":"picnic_table","covered":"no"},"geometry":{"type":"Point","coordinates":[-2.83521,51.31563]}},{"type":"Feature","properties":{"leisure":"picnic_table","covered":"no"},"geometry":{"type":"Point","coordinates":[-2.83512,51.31549]}},{"type":"Feature","properties":{"leisure":"picnic_table","covered":"no"},"geometry":{"type":"Point","coordinates":[-2.79656,51.28488]}},{"type":"Feature","properties":{"leisure":"picnic_table","covered":"no"},"geometry":{"type":"Point","coordinates":[-2.79652,51.28486]}},{"type":"Feature","properties":{"name":"Churchill Academy and Sixth Form","leisure":"sports_centre"},"geometry":{"type":"Polygon","coordinates":[[[-2.81225,51.3374],[-2.81221,51.33733],[-2.81218,51.33734],[-2.81205,51.33713],[-2.81169,51.33722],[-2.8118,51.33738],[-2.81169,51.33741],[-2.81168,51.3374],[-2.81114,51.33754],[-2.81123,51.33768],[-2.81177,51.33754],[-2.81176,51.33753],[-2.8118,51.33752],[-2.81182,51.33755],[-2.81192,51.33752],[-2.8119,51.33749],[-2.81225,51.3374]]]}},{"type":"Feature","properties":{"name":"Mendip Spring Golf Club - Brinsea Championship Course","leisure":"golf_course","description":"18 hole Par 71 Brinsea Championship Course","website":"https://www.mendipspringgolfclub.com/"},"geometry":{"type":"LineString","coordinates":[[-2.80874,51.34806],[-2.80871,51.348],[-2.80871,51.34795],[-2.81066,51.34754],[-2.81067,51.3481],[-2.81114,51.34872],[-2.81125,51.34878],[-2.8114,51.34884],[-2.81152,51.34893],[-2.81178,51.34925],[-2.81194,51.34942],[-2.81209,51.34956],[-2.81254,51.35023],[-2.81282,51.35075],[-2.81295,51.35078],[-2.81306,51.35077],[-2.81315,51.35075],[-2.81352,51.35087],[-2.81507,51.34965],[-2.81552,51.35001],[-2.8166,51.34943],[-2.81743,51.34893],[-2.81765,51.34907],[-2.81772,51.34907],[-2.81842,51.34892],[-2.81933,51.34947],[-2.82006,51.34975],[-2.82111,51.35013],[-2.82275,51.35071],[-2.8231,51.35107],[-2.82371,51.35195],[-2.82392,51.35208],[-2.82593,51.35296],[-2.82463,51.35444],[-2.82358,51.35376],[-2.82262,51.35318],[-2.82231,51.35296],[-2.82187,51.3527],[-2.82145,51.35249],[-2.82097,51.35226],[-2.81977,51.35309],[-2.81951,51.35325],[-2.81822,51.3539],[-2.8177,51.35417],[-2.81721,51.35433],[-2.81683,51.35435],[-2.81611,51.35435],[-2.81511,51.35437],[-2.81417,51.35445],[-2.81332,51.35452],[-2.81365,51.35575],[-2.8117,51.35564],[-2.81185,51.35483],[-2.81143,51.35453],[-2.81224,51.35404],[-2.81222,51.35381],[-2.81289,51.35329],[-2.8128,51.35313],[-2.81212,51.35254],[-2.81188,51.35226],[-2.81186,51.35211],[-2.81146,51.35195],[-2.81109,51.35175],[-2.81099,51.35164],[-2.81092,51.35152],[-2.8108,51.35147],[-2.81066,51.35145],[-2.81017,51.35157],[-2.81003,51.35154],[-2.80966,51.35129],[-2.80964,51.35118],[-2.80921,51.35103],[-2.80912,51.35082],[-2.80878,51.35076],[-2.80872,51.35073],[-2.80866,51.35059],[-2.80845,51.35034],[-2.80875,51.35021],[-2.80936,51.34999],[-2.80977,51.34965],[-2.80874,51.34806]]}},{"type":"Feature","properties":{"leisure":"park"},"geometry":{"type":"Polygon","coordinates":[[[-2.83129,51.33069],[-2.83099,51.33074],[-2.83057,51.3301],[-2.83096,51.32999],[-2.83129,51.33069]]]}},{"type":"Feature","properties":{"leisure":"pitch","access":"customers","sport":"skiing"},"geometry":{"type":"Polygon","coordinates":[[[-2.81378,51.33021],[-2.81356,51.33041],[-2.81387,51.33053],[-2.81402,51.33038],[-2.81398,51.33035],[-2.81427,51.33009],[-2.81425,51.32999],[-2.81417,51.32985],[-2.8142,51.32969],[-2.81436,51.32959],[-2.81458,51.32955],[-2.81468,51.32948],[-2.81405,51.32951],[-2.81403,51.32974],[-2.81396,51.33001],[-2.81382,51.32995],[-2.81362,51.33014],[-2.81378,51.33021]]]}},{"type":"Feature","properties":{"leisure":"swimming_pool"},"geometry":{"type":"LineString","coordinates":[[-2.74901,51.33173],[-2.74899,51.33168],[-2.74884,51.3317],[-2.74885,51.33175],[-2.74901,51.33173]]}},{"type":"Feature","properties":{"leisure":"swimming_pool"},"geometry":{"type":"LineString","coordinates":[[-2.74912,51.33011],[-2.74911,51.33002],[-2.74904,51.33002],[-2.74905,51.33011],[-2.74907,51.33011],[-2.74907,51.33012],[-2.7491,51.33012],[-2.7491,51.33011],[-2.74912,51.33011]]}},{"type":"Feature","properties":{"leisure":"swimming_pool"},"geometry":{"type":"LineString","coordinates":[[-2.74841,51.3295],[-2.74841,51.32946],[-2.74826,51.32946],[-2.74827,51.32951],[-2.74841,51.3295]]}},{"type":"Feature","properties":{"leisure":"pitch","sport":"tennis"},"geometry":{"type":"Polygon","coordinates":[[[-2.7274,51.33264],[-2.72765,51.33261],[-2.72775,51.33291],[-2.7275,51.33294],[-2.7274,51.33264]]]}},{"type":"Feature","properties":{"leisure":"swimming_pool","access":"private"},"geometry":{"type":"LineString","coordinates":[[-2.82852,51.31372],[-2.82849,51.31362],[-2.82857,51.31361],[-2.82861,51.31371],[-2.82852,51.31372]]}},{"type":"Feature","properties":{"name":"Cheddar Valley Rugby Club","leisure":"pitch","sport":"rugby_union"},"geometry":{"type":"Polygon","coordinates":[[[-2.79385,51.27888],[-2.79298,51.27894],[-2.79282,51.27791],[-2.79368,51.27786],[-2.79385,51.27888]]]}},{"type":"Feature","properties":{"leisure":"pitch","sport":"tennis"},"geometry":{"type":"Polygon","coordinates":[[[-2.79257,51.27866],[-2.7918,51.27902],[-2.79149,51.27875],[-2.79225,51.2784],[-2.79257,51.27866]]]}},{"type":"Feature","properties":{"leisure":"pitch","sport":"tennis"},"geometry":{"type":"Polygon","coordinates":[[[-2.77693,51.34254],[-2.77697,51.34285],[-2.77742,51.34283],[-2.77738,51.34252],[-2.77693,51.34254]]]}},{"type":"Feature","properties":{"name":"Sharpham Road Playground","leisure":"playground","surface":"artificial_turf"},"geometry":{"type":"Polygon","coordinates":[[[-2.79285,51.27908],[-2.79275,51.27906],[-2.79273,51.27897],[-2.79268,51.27879],[-2.79281,51.27879],[-2.79285,51.27908]]]}},{"type":"Feature","properties":{"name":"Cheddar Cricket Club Pitch","leisure":"pitch","sport":"cricket","surface":"grass"},"geometry":{"type":"Polygon","coordinates":[[[-2.79158,51.28027],[-2.79217,51.28025],[-2.79247,51.2802],[-2.79256,51.28017],[-2.79262,51.28013],[-2.79265,51.28],[-2.79263,51.27966],[-2.79256,51.27932],[-2.79236,51.27919],[-2.79227,51.27915],[-2.79218,51.27913],[-2.79189,51.27916],[-2.7916,51.27924],[-2.79131,51.27935],[-2.79105,51.27946],[-2.791,51.2795],[-2.79096,51.27955],[-2.79094,51.27961],[-2.79094,51.27966],[-2.79099,51.27977],[-2.79115,51.27995],[-2.79127,51.28009],[-2.79143,51.28023],[-2.7915,51.28026],[-2.79158,51.28027]]]}},{"type":"Feature","properties":{"leisure":"playground"},"geometry":{"type":"Polygon","coordinates":[[[-2.81458,51.28654],[-2.81445,51.28626],[-2.81486,51.2862],[-2.81496,51.28625],[-2.81503,51.28641],[-2.81499,51.28647],[-2.81458,51.28654]]]}},{"type":"Feature","properties":{"name":"Rotary Park","leisure":"park","operator":"Somerset Council"},"geometry":{"type":"Polygon","coordinates":[[[-2.77053,51.28141],[-2.77049,51.28137],[-2.77046,51.28134],[-2.77044,51.28132],[-2.77044,51.28128],[-2.77047,51.28126],[-2.77055,51.28124],[-2.77062,51.28124],[-2.77075,51.28124],[-2.77082,51.28128],[-2.77084,51.28131],[-2.77084,51.28134],[-2.77053,51.28141]]]}},{"type":"Feature","properties":{"leisure":"playground","surface":"grass"},"geometry":{"type":"Polygon","coordinates":[[[-2.79358,51.33716],[-2.79337,51.3372],[-2.79304,51.33673],[-2.79308,51.33672],[-2.79312,51.33672],[-2.79328,51.33671],[-2.79332,51.33671],[-2.79334,51.33674],[-2.79345,51.33694],[-2.79358,51.33716]]]}},{"type":"Feature","properties":{"leisure":"playground","access":"yes"},"geometry":{"type":"Polygon","coordinates":[[[-2.82278,51.31416],[-2.82254,51.31418],[-2.82249,51.31418],[-2.82249,51.31406],[-2.82264,51.31397],[-2.82277,51.31404],[-2.82278,51.31416]]]}},{"type":"Feature","properties":{"leisure":"pitch","sport":"soccer","surface":"asphalt"},"geometry":{"type":"Polygon","coordinates":[[[-2.75032,51.3309],[-2.75026,51.33075],[-2.75074,51.33067],[-2.75081,51.33083],[-2.75032,51.3309]]]}},{"type":"Feature","properties":{"name":"Winscombe Bowling Club","leisure":"pitch","sport":"bowls","surface":"artificial_turf"},"geometry":{"type":"Polygon","coordinates":[[[-2.83344,51.31617],[-2.83294,51.31626],[-2.8328,51.31594],[-2.8333,51.31586],[-2.83344,51.31617]]]}},{"type":"Feature","properties":{"leisure":"swimming_pool","access":"private"},"geometry":{"type":"LineString","coordinates":[[-2.77479,51.27916],[-2.7748,51.27913],[-2.77469,51.27912],[-2.77468,51.27915],[-2.77479,51.27916]]}},{"type":"Feature","properties":{"leisure":"swimming_pool","access":"private"},"geometry":{"type":"LineString","coordinates":[[-2.77906,51.28257],[-2.77906,51.28252],[-2.77901,51.28251],[-2.779,51.28257],[-2.77906,51.28257]]}},{"type":"Feature","properties":{"leisure":"pitch","sport":"rugby_union"},"geometry":{"type":"Polygon","coordinates":[[[-2.79404,51.28054],[-2.79326,51.28056],[-2.79319,51.27959],[-2.79397,51.27957],[-2.79404,51.28054]]]}},{"type":"Feature","properties":{"leisure":"pitch","sport":"equestrian"},"geometry":{"type":"Polygon","coordinates":[[[-2.7295,51.28098],[-2.72961,51.28081],[-2.72908,51.28068],[-2.72897,51.28084],[-2.72922,51.2809],[-2.7295,51.28098]]]}},{"type":"Feature","properties":{"leisure":"park"},"geometry":{"type":"Polygon","coordinates":[[[-2.79996,51.33404],[-2.79979,51.33403],[-2.79967,51.33403],[-2.79961,51.33402],[-2.79958,51.33401],[-2.7996,51.33399],[-2.79965,51.33398],[-2.79966,51.33397],[-2.79997,51.3339],[-2.79996,51.33404]]]}},{"type":"Feature","properties":{"leisure":"pitch"},"geometry":{"type":"Polygon","coordinates":[[[-2.79198,51.29166],[-2.79195,51.29147],[-2.79144,51.29151],[-2.79146,51.29169],[-2.79198,51.29166]]]}},{"type":"Feature","properties":{"leisure":"pitch","sport":"multi","surface":"asphalt"},"geometry":{"type":"Polygon","coordinates":[[[-2.81181,51.33759],[-2.81138,51.3377],[-2.81178,51.33832],[-2.81221,51.33821],[-2.81181,51.33759]]]}},{"type":"Feature","properties":{"leisure":"pitch","sport":"multi"},"geometry":{"type":"Polygon","coordinates":[[[-2.81473,51.33722],[-2.81408,51.33689],[-2.81322,51.33757],[-2.81386,51.33789],[-2.81473,51.33722]]]}},{"type":"Feature","properties":{"leisure":"swimming_pool","access":"private"},"geometry":{"type":"LineString","coordinates":[[-2.78826,51.28053],[-2.78823,51.28049],[-2.78809,51.28053],[-2.78814,51.28059],[-2.78819,51.28058],[-2.78818,51.28057],[-2.7882,51.28057],[-2.78818,51.28056],[-2.78817,51.28056],[-2.78816,51.28056],[-2.78826,51.28053]]}},{"type":"Feature","properties":{"leisure":"pitch","sport":"tennis"},"geometry":{"type":"Polygon","coordinates":[[[-2.82973,51.30943],[-2.82962,51.30911],[-2.82939,51.30914],[-2.82949,51.30946],[-2.82973,51.30943]]]}},{"type":"Feature","properties":{"leisure":"pitch","sport":"tennis"},"geometry":{"type":"Polygon","coordinates":[[[-2.82949,51.30946],[-2.82939,51.30914],[-2.82915,51.30917],[-2.82926,51.30949],[-2.82949,51.30946]]]}},{"type":"Feature","properties":{"leisure":"pitch","sport":"tennis"},"geometry":{"type":"Polygon","coordinates":[[[-2.82902,51.30952],[-2.82892,51.3092],[-2.82868,51.30923],[-2.82879,51.30955],[-2.82902,51.30952]]]}},{"type":"Feature","properties":{"leisure":"pitch","sport":"tennis"},"geometry":{"type":"Polygon","coordinates":[[[-2.82926,51.30949],[-2.82915,51.30917],[-2.82892,51.3092],[-2.82902,51.30952],[-2.82926,51.30949]]]}},{"type":"Feature","properties":{"leisure":"pitch","sport":"tennis"},"geometry":{"type":"Polygon","coordinates":[[[-2.82856,51.30958],[-2.82845,51.30926],[-2.82822,51.30929],[-2.82832,51.30961],[-2.82856,51.30958]]]}},{"type":"Feature","properties":{"leisure":"pitch","sport":"tennis"},"geometry":{"type":"Polygon","coordinates":[[[-2.82879,51.30955],[-2.82868,51.30923],[-2.82845,51.30926],[-2.82856,51.30958],[-2.82879,51.30955]]]}},{"type":"Feature","properties":{"leisure":"pitch","sport":"rugby_union","surface":"grass"},"geometry":{"type":"Polygon","coordinates":[[[-2.83136,51.31133],[-2.83141,51.31067],[-2.82983,51.31063],[-2.82978,51.31129],[-2.83136,51.31133]]]}},{"type":"Feature","properties":{"leisure":"pitch","sport":"soccer","surface":"grass"},"geometry":{"type":"Polygon","coordinates":[[[-2.83169,51.31037],[-2.83161,51.3098],[-2.83006,51.30988],[-2.83013,51.31045],[-2.83169,51.31037]]]}},{"type":"Feature","properties":{"leisure":"pitch","sport":"rugby","surface":"grass"},"geometry":{"type":"Polygon","coordinates":[[[-2.82886,51.3107],[-2.82882,51.30991],[-2.82787,51.30993],[-2.82791,51.31071],[-2.82886,51.3107]]]}},{"type":"Feature","properties":{"leisure":"pitch","sport":"hockey;multi","surface":"artificial_turf"},"geometry":{"type":"Polygon","coordinates":[[[-2.82848,51.31132],[-2.82849,51.31129],[-2.82853,51.31085],[-2.82854,51.31077],[-2.82714,51.31072],[-2.82709,51.31126],[-2.82848,51.31132]]]}},{"type":"Feature","properties":{"leisure":"pitch","sport":"multi","surface":"grass"},"geometry":{"type":"Polygon","coordinates":[[[-2.82764,51.31197],[-2.8276,51.31144],[-2.82711,51.31146],[-2.82713,51.31199],[-2.82764,51.31197]]]}},{"type":"Feature","properties":{"leisure":"pitch","sport":"soccer","surface":"artificial_turf"},"geometry":{"type":"Polygon","coordinates":[[[-2.82849,51.31129],[-2.82889,51.31131],[-2.82893,51.31087],[-2.82853,51.31085],[-2.82849,51.31129]]]}},{"type":"Feature","properties":{"leisure":"pitch","sport":"cricket","surface":"grass"},"geometry":{"type":"Polygon","coordinates":[[[-2.83103,51.30929],[-2.83126,51.30925],[-2.83143,51.30914],[-2.83144,51.30908],[-2.83125,51.30857],[-2.83105,51.30844],[-2.83081,51.30839],[-2.83044,51.3084],[-2.83018,51.30845],[-2.83001,51.30851],[-2.82991,51.30858],[-2.8299,51.3087],[-2.82997,51.30889],[-2.83004,51.30907],[-2.83011,51.30918],[-2.83022,51.30926],[-2.83039,51.3093],[-2.83062,51.30933],[-2.83103,51.30929]]]}},{"type":"Feature","properties":{"leisure":"playground","access":"yes"},"geometry":{"type":"Polygon","coordinates":[[[-2.82999,51.30977],[-2.82979,51.3098],[-2.82978,51.30977],[-2.82947,51.30982],[-2.82944,51.30974],[-2.82991,51.30966],[-2.82997,51.30969],[-2.82999,51.30977]]]}},{"type":"Feature","properties":{"leisure":"playground","access":"yes"},"geometry":{"type":"Polygon","coordinates":[[[-2.82941,51.30984],[-2.82925,51.30987],[-2.8292,51.3099],[-2.82923,51.30996],[-2.829,51.30998],[-2.82894,51.3098],[-2.82937,51.30974],[-2.82941,51.30984]]]}},{"type":"Feature","properties":{"leisure":"pitch","sport":"equestrian"},"geometry":{"type":"Polygon","coordinates":[[[-2.78524,51.33282],[-2.78527,51.333],[-2.78468,51.33305],[-2.78465,51.33292],[-2.78465,51.33286],[-2.78524,51.33282]]]}},{"type":"Feature","properties":{"leisure":"pitch","sport":"equestrian","surface":"grass"},"geometry":{"type":"Polygon","coordinates":[[[-2.77607,51.33144],[-2.77637,51.33145],[-2.77637,51.33173],[-2.77607,51.33173],[-2.77607,51.33144]]]}},{"type":"Feature","properties":{"leisure":"pitch","sport":"tennis"},"geometry":{"type":"Polygon","coordinates":[[[-2.77693,51.33348],[-2.77717,51.33347],[-2.77722,51.33379],[-2.77698,51.3338],[-2.77693,51.33348]]]}},{"type":"Feature","properties":{"leisure":"pitch","sport":"tennis"},"geometry":{"type":"Polygon","coordinates":[[[-2.75388,51.33218],[-2.75394,51.33233],[-2.75349,51.33239],[-2.75344,51.33225],[-2.75388,51.33218]]]}},{"type":"Feature","properties":{"leisure":"pitch","sport":"equestrian"},"geometry":{"type":"Polygon","coordinates":[[[-2.74397,51.33413],[-2.7445,51.33429],[-2.74438,51.33447],[-2.74384,51.33431],[-2.74397,51.33413]]]}},{"type":"Feature","properties":{"leisure":"pitch","sport":"equestrian"},"geometry":{"type":"Polygon","coordinates":[[[-2.77866,51.30656],[-2.77922,51.30661],[-2.77918,51.30677],[-2.77863,51.30673],[-2.77866,51.30656]]]}},{"type":"Feature","properties":{"leisure":"pitch","sport":"equestrian"},"geometry":{"type":"Polygon","coordinates":[[[-2.78213,51.31424],[-2.78238,51.31417],[-2.78262,51.3145],[-2.78237,51.31457],[-2.78213,51.31424]]]}},{"type":"Feature","properties":{"leisure":"pitch","sport":"tennis"},"geometry":{"type":"Polygon","coordinates":[[[-2.78195,51.33436],[-2.782,51.33452],[-2.78153,51.3346],[-2.78147,51.33444],[-2.78195,51.33436]]]}},{"type":"Feature","properties":{"leisure":"pitch","sport":"equestrian"},"geometry":{"type":"Polygon","coordinates":[[[-2.84756,51.33189],[-2.84751,51.33172],[-2.84696,51.33179],[-2.84701,51.33196],[-2.84756,51.33189]]]}},{"type":"Feature","properties":{"leisure":"pitch","sport":"equestrian"},"geometry":{"type":"Polygon","coordinates":[[[-2.81873,51.33813],[-2.81894,51.33817],[-2.8188,51.33846],[-2.81859,51.33842],[-2.81873,51.33813]]]}},{"type":"Feature","properties":{"leisure":"pitch","sport":"equestrian"},"geometry":{"type":"Polygon","coordinates":[[[-2.78375,51.3483],[-2.78331,51.34834],[-2.78327,51.34817],[-2.78383,51.34812],[-2.78387,51.34829],[-2.78375,51.3483]]]}},{"type":"Feature","properties":{"leisure":"pitch","access":"private","sport":"tennis"},"geometry":{"type":"Polygon","coordinates":[[[-2.77549,51.34177],[-2.7754,51.3415],[-2.77515,51.34153],[-2.77524,51.3418],[-2.77549,51.34177]]]}},{"type":"Feature","properties":{"leisure":"garden","access":"private"},"geometry":{"type":"Polygon","coordinates":[[[-2.83097,51.30754],[-2.8308,51.30755],[-2.83078,51.30743],[-2.83049,51.30744],[-2.8305,51.30756],[-2.83046,51.30761],[-2.8304,51.30763],[-2.83028,51.30764],[-2.83023,51.30761],[-2.83023,51.30758],[-2.83015,51.30756],[-2.8303,51.30735],[-2.83039,51.30737],[-2.83049,51.30708],[-2.83041,51.30707],[-2.83055,51.30671],[-2.83067,51.30632],[-2.83067,51.30619],[-2.83072,51.3062],[-2.83096,51.30749],[-2.83097,51.30754]]]}},{"type":"Feature","properties":{"leisure":"pitch","sport":"tennis"},"geometry":{"type":"Polygon","coordinates":[[[-2.84555,51.29296],[-2.84561,51.2928],[-2.8455,51.29279],[-2.84548,51.29278],[-2.84511,51.29273],[-2.84506,51.2929],[-2.84555,51.29296]]]}},{"type":"Feature","properties":{"leisure":"garden"},"geometry":{"type":"Polygon","coordinates":[[[-2.84592,51.29303],[-2.84603,51.29304],[-2.84603,51.29301],[-2.84616,51.29301],[-2.84619,51.293],[-2.84624,51.29274],[-2.84628,51.2925],[-2.84611,51.29249],[-2.84593,51.29245],[-2.84591,51.29248],[-2.8459,51.2925],[-2.846,51.29255],[-2.84594,51.29259],[-2.8459,51.29263],[-2.84569,51.29259],[-2.84565,51.29269],[-2.84552,51.29268],[-2.84549,51.29271],[-2.84547,51.29274],[-2.84548,51.29278],[-2.8455,51.29279],[-2.8455,51.29275],[-2.84551,51.29272],[-2.84553,51.29269],[-2.84564,51.2927],[-2.84564,51.29274],[-2.84589,51.29277],[-2.84593,51.29278],[-2.84593,51.29288],[-2.84596,51.29288],[-2.84595,51.29293],[-2.84593,51.29293],[-2.84592,51.29303]]]}},{"type":"Feature","properties":{"leisure":"garden"},"geometry":{"type":"Polygon","coordinates":[[[-2.84674,51.29335],[-2.84675,51.29335],[-2.84681,51.29335],[-2.84686,51.29335],[-2.84687,51.29323],[-2.84663,51.29321],[-2.84663,51.29322],[-2.84652,51.29321],[-2.84652,51.2933],[-2.84652,51.29331],[-2.84661,51.29331],[-2.84661,51.29329],[-2.84674,51.29329],[-2.84674,51.29335]]]}},{"type":"Feature","properties":{"leisure":"garden"},"geometry":{"type":"Polygon","coordinates":[[[-2.85289,51.29266],[-2.85289,51.29268],[-2.8528,51.29291],[-2.85217,51.2928],[-2.85194,51.29276],[-2.85189,51.29259],[-2.85122,51.29256],[-2.85123,51.29242],[-2.85203,51.29249],[-2.8521,51.29257],[-2.85228,51.29265],[-2.85244,51.29269],[-2.85254,51.29269],[-2.8526,51.29266],[-2.85263,51.29266],[-2.85263,51.29264],[-2.85261,51.29261],[-2.85261,51.2926],[-2.85267,51.29263],[-2.85268,51.29263],[-2.85289,51.29266]]]}},{"type":"Feature","properties":{"leisure":"garden"},"geometry":{"type":"Polygon","coordinates":[[[-2.85268,51.29263],[-2.85267,51.29263],[-2.85261,51.2926],[-2.8526,51.29259],[-2.8526,51.29257],[-2.85256,51.29256],[-2.85255,51.29251],[-2.85245,51.29249],[-2.85245,51.2925],[-2.85241,51.2925],[-2.85238,51.29253],[-2.85231,51.29255],[-2.85227,51.29254],[-2.85228,51.29252],[-2.85223,51.29251],[-2.85206,51.29248],[-2.85231,51.29239],[-2.85235,51.2924],[-2.85251,51.29241],[-2.85252,51.29243],[-2.85253,51.29246],[-2.8526,51.29246],[-2.85261,51.29256],[-2.85262,51.29257],[-2.85268,51.29263]]]}},{"type":"Feature","properties":{"leisure":"garden"},"geometry":{"type":"Polygon","coordinates":[[[-2.85235,51.2924],[-2.85231,51.29239],[-2.85238,51.29224],[-2.85244,51.29224],[-2.85245,51.29218],[-2.8525,51.29219],[-2.85254,51.29212],[-2.8525,51.2921],[-2.85239,51.29209],[-2.85237,51.29212],[-2.85229,51.2921],[-2.85232,51.29201],[-2.85268,51.29203],[-2.85265,51.29211],[-2.85258,51.29213],[-2.85257,51.29217],[-2.85263,51.29223],[-2.85259,51.29232],[-2.85252,51.29235],[-2.85245,51.29238],[-2.85235,51.2924]]]}},{"type":"Feature","properties":{"leisure":"swimming_pool"},"geometry":{"type":"LineString","coordinates":[[-2.85339,51.29204],[-2.85341,51.292],[-2.85328,51.29197],[-2.85326,51.29201],[-2.85339,51.29204]]}},{"type":"Feature","properties":{"leisure":"pitch","sport":"tennis"},"geometry":{"type":"Polygon","coordinates":[[[-2.80365,51.33237],[-2.80388,51.33234],[-2.80397,51.33264],[-2.80373,51.33266],[-2.80365,51.33237]]]}},{"type":"Feature","properties":{"leisure":"garden"},"geometry":{"type":"Polygon","coordinates":[[[-2.84511,51.29273],[-2.84493,51.29284],[-2.84491,51.29292],[-2.84494,51.29298],[-2.8454,51.29303],[-2.84538,51.29306],[-2.8456,51.29327],[-2.84577,51.29341],[-2.84595,51.29343],[-2.84643,51.29343],[-2.84651,51.29335],[-2.84652,51.29331],[-2.84652,51.2933],[-2.84652,51.29321],[-2.84652,51.2932],[-2.84625,51.29317],[-2.84616,51.29311],[-2.84617,51.29309],[-2.84614,51.29309],[-2.84602,51.29308],[-2.84591,51.29307],[-2.84592,51.29303],[-2.84555,51.29302],[-2.84555,51.29297],[-2.84506,51.2929],[-2.84511,51.29273]]]}},{"type":"Feature","properties":{"name":"Chedder Reservoir Pump Track","leisure":"track","sport":"cycling"},"geometry":{"type":"LineString","coordinates":[[-2.79394,51.27919],[-2.79394,51.27932],[-2.79392,51.27938],[-2.7939,51.27942],[-2.79384,51.27943],[-2.79365,51.27943],[-2.79361,51.27942],[-2.7936,51.27942],[-2.79358,51.27941],[-2.79357,51.27938],[-2.79351,51.27926],[-2.79349,51.27923],[-2.79349,51.27921],[-2.7935,51.2792],[-2.79352,51.27919],[-2.79356,51.27919],[-2.79369,51.27918],[-2.79381,51.27918],[-2.79387,51.27919],[-2.79388,51.2792],[-2.79388,51.27923],[-2.79385,51.27924],[-2.79382,51.27925],[-2.79378,51.27924],[-2.79372,51.27922],[-2.79367,51.27921],[-2.79364,51.27921],[-2.79361,51.27922],[-2.79357,51.27926],[-2.79357,51.27927],[-2.79358,51.27928],[-2.79365,51.27929],[-2.79377,51.27928],[-2.79385,51.27928],[-2.79389,51.27929],[-2.7939,51.2793],[-2.79389,51.27932],[-2.79386,51.27934],[-2.79383,51.27934],[-2.79377,51.27933],[-2.7937,51.27932],[-2.79365,51.27932],[-2.79361,51.27933],[-2.7936,51.27934],[-2.79361,51.27936],[-2.79364,51.27937],[-2.79369,51.27937],[-2.79377,51.27937],[-2.79384,51.27937],[-2.79387,51.27938],[-2.79388,51.2794],[-2.79386,51.27941],[-2.79384,51.27943]]}},{"type":"Feature","properties":{"leisure":"pitch","sport":"equestrian"},"geometry":{"type":"Polygon","coordinates":[[[-2.81176,51.28115],[-2.81171,51.28098],[-2.81102,51.28106],[-2.81108,51.28123],[-2.81176,51.28115]]]}},{"type":"Feature","properties":{"leisure":"pitch","sport":"equestrian"},"geometry":{"type":"Polygon","coordinates":[[[-2.81171,51.28151],[-2.81165,51.28134],[-2.81111,51.28141],[-2.81116,51.28158],[-2.81171,51.28151]]]}},{"type":"Feature","properties":{"leisure":"swimming_pool","access":"private"},"geometry":{"type":"LineString","coordinates":[[-2.81278,51.28839],[-2.81274,51.28829],[-2.81267,51.2883],[-2.8127,51.2884],[-2.81278,51.28839]]}},{"type":"Feature","properties":{"leisure":"swimming_pool","access":"private"},"geometry":{"type":"LineString","coordinates":[[-2.82035,51.28861],[-2.82035,51.28859],[-2.82029,51.28859],[-2.82029,51.28861],[-2.82035,51.28861]]}},{"type":"Feature","properties":{"leisure":"pitch","sport":"equestrian"},"geometry":{"type":"Polygon","coordinates":[[[-2.81391,51.28895],[-2.81391,51.28891],[-2.81385,51.28885],[-2.81333,51.28888],[-2.81335,51.28904],[-2.81387,51.28901],[-2.81391,51.28895]]]}},{"type":"Feature","properties":{"leisure":"pitch","sport":"equestrian"},"geometry":{"type":"Polygon","coordinates":[[[-2.84413,51.28811],[-2.84426,51.28775],[-2.8439,51.2877],[-2.84378,51.28806],[-2.84413,51.28811]]]}},{"type":"Feature","properties":{"leisure":"pitch","sport":"equestrian"},"geometry":{"type":"Polygon","coordinates":[[[-2.84677,51.2862],[-2.847,51.28587],[-2.84673,51.2858],[-2.84651,51.28613],[-2.84677,51.2862]]]}},{"type":"Feature","properties":{"leisure":"pitch","access":"private","sport":"tennis"},"geometry":{"type":"Polygon","coordinates":[[[-2.76828,51.33257],[-2.7682,51.33241],[-2.76784,51.33249],[-2.76769,51.33252],[-2.76777,51.33267],[-2.76828,51.33257]]]}},{"type":"Feature","properties":{"leisure":"swimming_pool","access":"private"},"geometry":{"type":"LineString","coordinates":[[-2.76799,51.33239],[-2.76797,51.33234],[-2.76781,51.33237],[-2.76783,51.33242],[-2.76799,51.33239]]}},{"type":"Feature","properties":{"leisure":"pitch","sport":"equestrian"},"geometry":{"type":"Polygon","coordinates":[[[-2.84486,51.28998],[-2.84501,51.28984],[-2.84454,51.28963],[-2.84439,51.28978],[-2.84486,51.28998]]]}},{"type":"Feature","properties":{"leisure":"swimming_pool","access":"private"},"geometry":{"type":"LineString","coordinates":[[-2.8453,51.2895],[-2.8453,51.28944],[-2.84524,51.28944],[-2.84523,51.2895],[-2.8453,51.2895]]}},{"type":"Feature","properties":{"leisure":"swimming_pool","access":"private"},"geometry":{"type":"LineString","coordinates":[[-2.78867,51.28627],[-2.78869,51.28627],[-2.78871,51.28627],[-2.78873,51.28627],[-2.78875,51.28627],[-2.78876,51.28626],[-2.78876,51.28625],[-2.78874,51.28623],[-2.78873,51.28622],[-2.78871,51.28621],[-2.78868,51.28621],[-2.78864,51.28621],[-2.78862,51.28622],[-2.7886,51.28623],[-2.78859,51.28624],[-2.78858,51.28625],[-2.78858,51.28626],[-2.78859,51.28626],[-2.78861,51.28627],[-2.78864,51.28626],[-2.78865,51.28626],[-2.78866,51.28626],[-2.78867,51.28627]]}},{"type":"Feature","properties":{"leisure":"playground"},"geometry":{"type":"Polygon","coordinates":[[[-2.79036,51.28124],[-2.79039,51.28124],[-2.79056,51.28116],[-2.79057,51.28108],[-2.79061,51.28104],[-2.79061,51.28101],[-2.79058,51.281],[-2.79054,51.28099],[-2.7905,51.281],[-2.79026,51.28111],[-2.79024,51.28113],[-2.79025,51.28114],[-2.79036,51.28124]]]}},{"type":"Feature","properties":{"leisure":"pitch","sport":"equestrian"},"geometry":{"type":"Polygon","coordinates":[[[-2.77957,51.28739],[-2.77952,51.28721],[-2.77893,51.28728],[-2.77899,51.28747],[-2.77957,51.28739]]]}},{"type":"Feature","properties":{"leisure":"pitch","sport":"tennis"},"geometry":{"type":"Polygon","coordinates":[[[-2.73999,51.33578],[-2.73979,51.33551],[-2.73957,51.33557],[-2.73978,51.33585],[-2.73999,51.33578]]]}},{"type":"Feature","properties":{"leisure":"swimming_pool","access":"private"},"geometry":{"type":"LineString","coordinates":[[-2.74132,51.33621],[-2.74128,51.33616],[-2.74112,51.3362],[-2.74116,51.33625],[-2.74132,51.33621]]}},{"type":"Feature","properties":{"leisure":"pitch","sport":"equestrian"},"geometry":{"type":"Polygon","coordinates":[[[-2.78366,51.31282],[-2.78283,51.31281],[-2.78283,51.31263],[-2.78366,51.31264],[-2.78366,51.31282]]]}},{"type":"Feature","properties":{"leisure":"pitch","access":"private","sport":"tennis"},"geometry":{"type":"Polygon","coordinates":[[[-2.8011,51.31346],[-2.80117,51.31378],[-2.80093,51.3138],[-2.80086,51.31348],[-2.8011,51.31346]]]}},{"type":"Feature","properties":{"leisure":"swimming_pool","access":"private"},"geometry":{"type":"LineString","coordinates":[[-2.80142,51.31316],[-2.80142,51.3132],[-2.80126,51.31321],[-2.80126,51.31316],[-2.80142,51.31316]]}},{"type":"Feature","properties":{"leisure":"playground"},"geometry":{"type":"Polygon","coordinates":[[[-2.82649,51.33425],[-2.82655,51.33418],[-2.82649,51.33412],[-2.82641,51.33406],[-2.82622,51.33397],[-2.82613,51.33392],[-2.82601,51.33383],[-2.82592,51.33377],[-2.82568,51.33381],[-2.82579,51.33431],[-2.82592,51.3343],[-2.82637,51.33425],[-2.82649,51.33425]]]}},{"type":"Feature","properties":{"leisure":"garden"},"geometry":{"type":"Polygon","coordinates":[[[-2.80252,51.28776],[-2.80249,51.28775],[-2.80248,51.28774],[-2.80246,51.28773],[-2.80233,51.28773],[-2.80232,51.28774],[-2.80231,51.28775],[-2.80232,51.28781],[-2.80219,51.28782],[-2.80215,51.28767],[-2.80235,51.28768],[-2.80241,51.2877],[-2.80245,51.2877],[-2.80249,51.28773],[-2.80252,51.28776]]]}},{"type":"Feature","properties":{"leisure":"swimming_pool"},"geometry":{"type":"LineString","coordinates":[[-2.82004,51.28875],[-2.82004,51.28876],[-2.82003,51.28876],[-2.82003,51.28876],[-2.82002,51.28876],[-2.82002,51.28876],[-2.82001,51.28876],[-2.82001,51.28876],[-2.82,51.28875],[-2.82,51.28875],[-2.82,51.28874],[-2.82001,51.28874],[-2.82001,51.28874],[-2.82002,51.28874],[-2.82003,51.28874],[-2.82003,51.28874],[-2.82004,51.28874],[-2.82004,51.28874],[-2.82004,51.28875],[-2.82004,51.28875]]}},{"type":"Feature","properties":{"leisure":"swimming_pool"},"geometry":{"type":"LineString","coordinates":[[-2.81101,51.28659],[-2.811,51.2866],[-2.811,51.2866],[-2.81099,51.2866],[-2.81098,51.2866],[-2.81098,51.2866],[-2.81097,51.2866],[-2.81097,51.28659],[-2.81097,51.28659],[-2.81097,51.28658],[-2.81097,51.28658],[-2.81098,51.28657],[-2.81099,51.28657],[-2.81099,51.28657],[-2.811,51.28657],[-2.811,51.28658],[-2.81101,51.28658],[-2.81101,51.28659],[-2.81101,51.28659],[-2.81101,51.28659]]}},{"type":"Feature","properties":{"leisure":"swimming_pool"},"geometry":{"type":"LineString","coordinates":[[-2.81209,51.28659],[-2.81205,51.28658],[-2.81205,51.28656],[-2.81207,51.28654],[-2.8121,51.28655],[-2.81211,51.28657],[-2.81209,51.28659]]}},{"type":"Feature","properties":{"leisure":"pitch","sport":"tennis"},"geometry":{"type":"Polygon","coordinates":[[[-2.76824,51.34105],[-2.76798,51.34108],[-2.7679,51.34079],[-2.76817,51.34076],[-2.76824,51.34105]]]}},{"type":"Feature","properties":{"leisure":"pitch","sport":"tennis"},"geometry":{"type":"Polygon","coordinates":[[[-2.76447,51.33866],[-2.76453,51.33852],[-2.76405,51.33844],[-2.76399,51.33859],[-2.76447,51.33866]]]}},{"type":"Feature","properties":{"leisure":"swimming_pool"},"geometry":{"type":"LineString","coordinates":[[-2.81593,51.28716],[-2.81587,51.28715],[-2.81589,51.28708],[-2.81594,51.28708],[-2.81593,51.28716]]}},{"type":"Feature","properties":{"leisure":"pitch","sport":"equestrian"},"geometry":{"type":"Polygon","coordinates":[[[-2.77487,51.33116],[-2.7743,51.33113],[-2.77428,51.33131],[-2.77485,51.33134],[-2.77487,51.33116]]]}},{"type":"Feature","properties":{"leisure":"pitch","sport":"equestrian"},"geometry":{"type":"Polygon","coordinates":[[[-2.77424,51.33317],[-2.77423,51.33262],[-2.77454,51.33262],[-2.77455,51.33317],[-2.77424,51.33317]]]}},{"type":"Feature","properties":{"leisure":"pitch","sport":"equestrian"},"geometry":{"type":"Polygon","coordinates":[[[-2.8004,51.33323],[-2.80023,51.33287],[-2.79991,51.33293],[-2.80008,51.33329],[-2.8004,51.33323]]]}},{"type":"Feature","properties":{"leisure":"pitch","sport":"equestrian"},"geometry":{"type":"Polygon","coordinates":[[[-2.8031,51.33627],[-2.80319,51.33601],[-2.80265,51.33594],[-2.80256,51.3362],[-2.8031,51.33627]]]}},{"type":"Feature","properties":{"leisure":"pitch","sport":"equestrian"},"geometry":{"type":"Polygon","coordinates":[[[-2.80792,51.33772],[-2.80802,51.33755],[-2.80747,51.33743],[-2.80738,51.3376],[-2.80792,51.33772]]]}},{"type":"Feature","properties":{"leisure":"swimming_pool"},"geometry":{"type":"LineString","coordinates":[[-2.78487,51.34751],[-2.78487,51.3475],[-2.78502,51.34748],[-2.78503,51.34753],[-2.78488,51.34755],[-2.78488,51.34754],[-2.78487,51.34754],[-2.78487,51.34754],[-2.78486,51.34753],[-2.78486,51.34753],[-2.78485,51.34753],[-2.78485,51.34752],[-2.78486,51.34752],[-2.78486,51.34752],[-2.78487,51.34751],[-2.78487,51.34751]]}},{"type":"Feature","properties":{"leisure":"pitch","sport":"tennis"},"geometry":{"type":"Polygon","coordinates":[[[-2.78518,51.34766],[-2.78507,51.34736],[-2.78532,51.34732],[-2.78544,51.34762],[-2.78518,51.34766]]]}},{"type":"Feature","properties":{"leisure":"swimming_pool"},"geometry":{"type":"LineString","coordinates":[[-2.78418,51.34805],[-2.78418,51.34804],[-2.78424,51.34805],[-2.78423,51.34812],[-2.78417,51.34812],[-2.78418,51.34807],[-2.78417,51.34807],[-2.78417,51.34807],[-2.78416,51.34807],[-2.78416,51.34806],[-2.78416,51.34806],[-2.78416,51.34806],[-2.78416,51.34805],[-2.78416,51.34805],[-2.78417,51.34805],[-2.78417,51.34805],[-2.78418,51.34805]]}},{"type":"Feature","properties":{"leisure":"pitch","sport":"tennis"},"geometry":{"type":"Polygon","coordinates":[[[-2.78054,51.34841],[-2.78066,51.34826],[-2.78018,51.3481],[-2.78005,51.34825],[-2.78054,51.34841]]]}},{"type":"Feature","properties":{"leisure":"swimming_pool"},"geometry":{"type":"LineString","coordinates":[[-2.82081,51.33776],[-2.82079,51.33775],[-2.82083,51.33767],[-2.8209,51.33769],[-2.82086,51.33776],[-2.82085,51.33776],[-2.82084,51.33776],[-2.82084,51.33777],[-2.82084,51.33777],[-2.82083,51.33777],[-2.82082,51.33777],[-2.82082,51.33777],[-2.82081,51.33777],[-2.82081,51.33777],[-2.82081,51.33776],[-2.82081,51.33776],[-2.82081,51.33776]]}},{"type":"Feature","properties":{"leisure":"pitch","sport":"tennis"},"geometry":{"type":"Polygon","coordinates":[[[-2.84845,51.33094],[-2.84838,51.33079],[-2.84791,51.33087],[-2.84798,51.33103],[-2.84845,51.33094]]]}},{"type":"Feature","properties":{"leisure":"swimming_pool"},"geometry":{"type":"LineString","coordinates":[[-2.82689,51.32363],[-2.82689,51.32362],[-2.82691,51.32362],[-2.82692,51.32361],[-2.82692,51.32359],[-2.82691,51.32358],[-2.8269,51.32358],[-2.82689,51.32358],[-2.82688,51.32357],[-2.82672,51.32358],[-2.82672,51.32359],[-2.8267,51.32359],[-2.82669,51.3236],[-2.8267,51.32362],[-2.82671,51.32363],[-2.82673,51.32363],[-2.82673,51.32364],[-2.82689,51.32363]]}},{"type":"Feature","properties":{"leisure":"pitch","sport":"tennis"},"geometry":{"type":"Polygon","coordinates":[[[-2.8266,51.32411],[-2.82667,51.32383],[-2.8264,51.32381],[-2.82633,51.32409],[-2.8266,51.32411]]]}},{"type":"Feature","properties":{"leisure":"swimming_pool"},"geometry":{"type":"LineString","coordinates":[[-2.83654,51.32419],[-2.83652,51.32415],[-2.8364,51.32417],[-2.83642,51.32421],[-2.83654,51.32419]]}},{"type":"Feature","properties":{"leisure":"swimming_pool"},"geometry":{"type":"LineString","coordinates":[[-2.83394,51.31894],[-2.83394,51.31894],[-2.83394,51.31894],[-2.83394,51.31893],[-2.83395,51.31893],[-2.83395,51.31893],[-2.83396,51.31893],[-2.83396,51.31893],[-2.83396,51.31893],[-2.83397,51.31893],[-2.83397,51.31894],[-2.83397,51.31894],[-2.83398,51.31894],[-2.834,51.319],[-2.83393,51.31901],[-2.83392,51.31897],[-2.83392,51.31894],[-2.83394,51.31894]]}},{"type":"Feature","properties":{"leisure":"pitch","sport":"equestrian"},"geometry":{"type":"Polygon","coordinates":[[[-2.8474,51.31035],[-2.84743,51.31018],[-2.84688,51.31013],[-2.84685,51.3103],[-2.8474,51.31035]]]}},{"type":"Feature","properties":{"leisure":"pitch","sport":"tennis"},"geometry":{"type":"Polygon","coordinates":[[[-2.84324,51.30597],[-2.8433,51.30572],[-2.84308,51.3057],[-2.84302,51.30595],[-2.84324,51.30597]]]}},{"type":"Feature","properties":{"leisure":"swimming_pool"},"geometry":{"type":"LineString","coordinates":[[-2.82744,51.30884],[-2.82743,51.3088],[-2.82727,51.30882],[-2.82729,51.30886],[-2.82744,51.30884]]}},{"type":"Feature","properties":{"leisure":"swimming_pool"},"geometry":{"type":"LineString","coordinates":[[-2.82624,51.3046],[-2.82624,51.30459],[-2.82624,51.30458],[-2.82622,51.30457],[-2.82615,51.30456],[-2.82613,51.30457],[-2.82612,51.30459],[-2.82613,51.3046],[-2.82615,51.3046],[-2.82618,51.3046],[-2.8262,51.30461],[-2.82622,51.30461],[-2.82624,51.3046]]}},{"type":"Feature","properties":{"leisure":"pitch","sport":"equestrian"},"geometry":{"type":"Polygon","coordinates":[[[-2.8234,51.31042],[-2.82347,51.31035],[-2.82341,51.31025],[-2.82334,51.31023],[-2.82328,51.31022],[-2.82288,51.31028],[-2.82285,51.31031],[-2.82283,51.31036],[-2.82287,51.31045],[-2.82297,51.31048],[-2.8234,51.31042]]]}},{"type":"Feature","properties":{"leisure":"pitch","sport":"equestrian"},"geometry":{"type":"Polygon","coordinates":[[[-2.82011,51.31255],[-2.82004,51.31221],[-2.81962,51.31224],[-2.81969,51.31258],[-2.82011,51.31255]]]}},{"type":"Feature","properties":{"name":"Mendip Spring Golf Club - Lakeside Course","leisure":"golf_course","description":"9 hole Par 34 Lakeside Course","website":"https://www.mendipspringgolfclub.com/"},"geometry":{"type":"LineString","coordinates":[[-2.80662,51.3512],[-2.80548,51.35113],[-2.80427,51.35097],[-2.80295,51.35084],[-2.80164,51.35046],[-2.80206,51.35],[-2.80209,51.34996],[-2.80251,51.34939],[-2.80275,51.34898],[-2.80296,51.34858],[-2.80324,51.34807],[-2.80483,51.34793],[-2.80561,51.34792],[-2.80647,51.34785],[-2.80672,51.34783],[-2.8073,51.34778],[-2.80778,51.34785],[-2.80781,51.34797],[-2.80818,51.34807],[-2.8086,51.34804],[-2.80871,51.348],[-2.80874,51.34806],[-2.80977,51.34965],[-2.80936,51.34999],[-2.80875,51.35021],[-2.80845,51.35034],[-2.80807,51.3501],[-2.80734,51.35021],[-2.80731,51.35026],[-2.80754,51.35087],[-2.80742,51.35099],[-2.80714,51.35124],[-2.80695,51.3512],[-2.80681,51.3512],[-2.80662,51.3512]]}}]}