{"type":"FeatureCollection","features":[{"type":"Feature","properties":{"FID":6585,"PARNCP24CD":"E04008644","PARNCP24NM":"Shipham","PARNCP24NW":" ","BNG_E":345334,"BNG_N":157555,"LONG":-2.78574,"LAT":51.31446,"Shape__Area":7358755.37714386,"Shape__Length":13034.433723453545,"GlobalID":"178c2409-0091-4804-b745-e443b9b49bd6"},"geometry":{"type":"Polygon","coordinates":[[[-2.80645,51.32611],[-2.80203,51.32653],[-2.79979,51.32613],[-2.79848,51.32693],[-2.79764,51.32669],[-2.79723,51.32584],[-2.79565,51.32488],[-2.79524,51.32529],[-2.7911,51.32511],[-2.78928,51.32463],[-2.78638,51.32474],[-2.7854,51.32415],[-2.77822,51.32352],[-2.77292,51.32341],[-2.76863,51.32371],[-2.7651,51.32245],[-2.76461,51.32256],[-2.76356,51.32162],[-2.76335,51.3199],[-2.76486,51.31682],[-2.76388,51.31505],[-2.76355,51.31339],[-2.76563,51.30903],[-2.76698,51.30733],[-2.76795,51.30742],[-2.77161,51.30677],[-2.78294,51.30716],[-2.78945,51.30666],[-2.79407,51.3067],[-2.79693,51.30592],[-2.79588,51.3028],[-2.7993,51.30212],[-2.80697,51.30197],[-2.81024,51.30142],[-2.80997,51.30559],[-2.81082,51.30737],[-2.81223,51.30899],[-2.81207,51.3107],[-2.81033,51.31131],[-2.80725,51.31173],[-2.80782,51.31484],[-2.80902,51.3154],[-2.81013,51.31552],[-2.81052,51.31714],[-2.81198,51.31727],[-2.81273,51.3183],[-2.81429,51.31832],[-2.81487,51.31875],[-2.81794,51.31902],[-2.81818,51.32034],[-2.81874,51.32032],[-2.81886,51.32073],[-2.8189,51.32127],[-2.81841,51.3213],[-2.81904,51.3227],[-2.81851,51.32277],[-2.81875,51.32519],[-2.81857,51.32638],[-2.81422,51.32709],[-2.81214,51.32714],[-2.81089,51.32669],[-2.80645,51.32611]]]}}]}