{"type":"FeatureCollection","features":[{"type":"Feature","properties":{"name":"Pond, E end Lippiatt Lane, Shipham","source":"Somerset HER","url":"https://www.somersetheritage.org.uk/record/11535"},"geometry":{"type":"Polygon","coordinates":[[[-2.7828,51.313352],[-2.782872,51.313319],[-2.782874,51.313285],[-2.782855,51.31325],[-2.782816,51.313228],[-2.782739,51.313222],[-2.782655,51.313259],[-2.782643,51.313302],[-2.782662,51.313349],[-2.782707,51.313363],[-2.7828,51.313352]]]}},{"type":"Feature","properties":{"name":"Stock pond, Winscombe Drove, Shipham","source":"Somerset HER","url":"https://www.somersetheritage.org.uk/record/11927"},"geometry":{"type":"Polygon","coordinates":[[[-2.809483,51.304438],[-2.809559,51.304477],[-2.809721,51.304491],[-2.809933,51.304494],[-2.810032,51.304458],[-2.810149,51.30432],[-2.810146,51.304191],[-2.810095,51.304106],[-2.809975,51.30404],[-2.809794,51.304014],[-2.809676,51.30403],[-2.80957,51.30407],[-2.80949,51.304137],[-2.809462,51.304286],[-2.809483,51.304438]]]}},{"type":"Feature","properties":{"name":"Pond, Blackdown, Priddy","source":"Somerset HER","url":"https://www.somersetheritage.org.uk/record/14073"},"geometry":{"type":"Polygon","coordinates":[[[-2.758224,51.30987],[-2.758,51.310016],[-2.757814,51.310031],[-2.757703,51.310005],[-2.757808,51.30981],[-2.758018,51.309862],[-2.758224,51.30987]]]}},{"type":"Feature","properties":{"name":"Pond, Blackdown, Priddy","source":"Somerset HER","url":"https://www.somersetheritage.org.uk/record/14075"},"geometry":{"type":"Polygon","coordinates":[[[-2.76505,51.31071],[-2.764905,51.310692],[-2.764889,51.310678],[-2.764895,51.310639],[-2.764933,51.310594],[-2.765027,51.310606],[-2.765029,51.310656],[-2.76506,51.310705],[-2.76505,51.31071]]]}},{"type":"Feature","properties":{"name":"Dewpond, N of Longbottom, Shipham","source":"Somerset HER","url":"https://www.somersetheritage.org.uk/record/21087"},"geometry":{"type":"Polygon","coordinates":[[[-2.787687,51.309421],[-2.787728,51.309476],[-2.787832,51.309483],[-2.787928,51.309465],[-2.787956,51.309423],[-2.787935,51.309379],[-2.787886,51.309348],[-2.787819,51.309346],[-2.787687,51.309385],[-2.787687,51.309421]]]}},{"type":"Feature","properties":{"name":"Dewpond, Cuckhill, Shipham","source":"Somerset HER","url":"https://www.somersetheritage.org.uk/record/21088"},"geometry":{"type":"Polygon","coordinates":[[[-2.79345,51.309964],[-2.793467,51.309983],[-2.793506,51.309989],[-2.793536,51.309979],[-2.793545,51.309959],[-2.79349,51.309937],[-2.79345,51.309964]]]}},{"type":"Feature","properties":{"name":"Dewpond, N of Manchester Farm, Shipham","source":"Somerset HER","url":"https://www.somersetheritage.org.uk/record/21089"},"geometry":{"type":"Polygon","coordinates":[[[-2.792983,51.308945],[-2.793017,51.308997],[-2.793097,51.309016],[-2.793173,51.308991],[-2.793198,51.308937],[-2.793162,51.308891],[-2.793081,51.308873],[-2.793015,51.308893],[-2.792983,51.308945]]]}},{"type":"Feature","properties":{"name":"Dewpond, W of Longbottom Farm, Shipham","source":"Somerset HER","url":"https://www.somersetheritage.org.uk/record/21092"},"geometry":{"type":"Polygon","coordinates":[[[-2.782325,51.307223],[-2.782359,51.307278],[-2.782444,51.307304],[-2.782544,51.307279],[-2.78258,51.307224],[-2.782542,51.307165],[-2.782457,51.307141],[-2.782363,51.307164],[-2.782325,51.307223]]]}},{"type":"Feature","properties":{"name":"Dew pond, Fry's Hill, Axbridge","source":"Somerset HER","url":"https://www.somersetheritage.org.uk/record/21342"},"geometry":{"type":"Polygon","coordinates":[[[-2.811307,51.298348],[-2.811033,51.298359],[-2.810897,51.298413],[-2.810874,51.298588],[-2.810975,51.29865],[-2.811238,51.298661],[-2.811375,51.298634],[-2.811463,51.298564],[-2.811493,51.298501],[-2.811471,51.298416],[-2.81138,51.298357],[-2.811307,51.298348]]]}},{"type":"Feature","properties":{"name":"Dewpond, N of Callow Drove, Shipham","source":"Somerset HER","url":"https://www.somersetheritage.org.uk/record/21346"},"geometry":{"type":"Polygon","coordinates":[[[-2.805463,51.303168],[-2.805541,51.30316],[-2.805581,51.30312],[-2.805685,51.303123],[-2.805764,51.303103],[-2.8058,51.303029],[-2.805791,51.302988],[-2.805731,51.302968],[-2.8056,51.302968],[-2.805542,51.303009],[-2.805528,51.303066],[-2.805406,51.303079],[-2.805391,51.303095],[-2.80539,51.303143],[-2.805463,51.303168]]]}},{"type":"Feature","properties":{"name":"Dewpond, W of Cuck Hill, Shipham","source":"Somerset HER","url":"https://www.somersetheritage.org.uk/record/21348"},"geometry":{"type":"Polygon","coordinates":[[[-2.799208,51.306873],[-2.799232,51.306856],[-2.799086,51.306773],[-2.797372,51.30602],[-2.79712,51.306032],[-2.797124,51.306064],[-2.797286,51.306082],[-2.79884,51.306775],[-2.798814,51.306804],[-2.798851,51.306834],[-2.798949,51.306854],[-2.79904,51.306834],[-2.799168,51.30688],[-2.799208,51.306873]]]}}]}