{"type":"FeatureCollection","features":[{"type":"Feature","properties":{"ROW_TYPE":"Bridleway · AX 10/42"},"geometry":{"type":"LineString","coordinates":[[-2.76164,51.32086],[-2.76159,51.32074],[-2.76154,51.32064],[-2.76156,51.32052],[-2.76154,51.32033],[-2.76151,51.32007],[-2.7615,51.31996],[-2.76152,51.31986],[-2.76153,51.31982],[-2.76159,51.31971],[-2.76169,51.31955],[-2.76178,51.31942],[-2.76184,51.31931],[-2.76188,51.31927],[-2.76196,51.31922],[-2.76204,51.31916],[-2.76212,51.31911],[-2.76217,51.31906],[-2.76223,51.31897],[-2.7623,51.31889],[-2.76232,51.31886],[-2.76235,51.3188],[-2.76237,51.31875],[-2.7624,51.31871],[-2.76242,51.31867],[-2.7624,51.3186],[-2.76239,51.31851],[-2.76229,51.31839]]}},{"type":"Feature","properties":{"ROW_TYPE":"Bridleway · AX 10/42"},"geometry":{"type":"LineString","coordinates":[[-2.76268,51.32224],[-2.76254,51.32219],[-2.76227,51.32213],[-2.7621,51.32209],[-2.76205,51.32208],[-2.762,51.32205],[-2.76196,51.322],[-2.76189,51.32193],[-2.7618,51.32185],[-2.76175,51.32182],[-2.76174,51.32177],[-2.76173,51.32157],[-2.76171,51.32136],[-2.7617,51.32117],[-2.76168,51.32101],[-2.76167,51.32094],[-2.76164,51.32086]]}},{"type":"Feature","properties":{"ROW_TYPE":"Bridleway · AX 10/59"},"geometry":{"type":"LineString","coordinates":[[-2.75696,51.32151],[-2.75696,51.32151],[-2.75716,51.32155],[-2.75764,51.32158],[-2.75791,51.32161],[-2.75815,51.32163],[-2.75848,51.32168],[-2.75876,51.32173],[-2.75912,51.32174],[-2.75941,51.32178],[-2.75968,51.32178],[-2.76003,51.32181],[-2.7603,51.32184],[-2.76067,51.32188],[-2.76098,51.32192],[-2.76124,51.32201],[-2.76205,51.32208]]}},{"type":"Feature","properties":{"ROW_TYPE":"Bridleway · AX 10/41"},"geometry":{"type":"LineString","coordinates":[[-2.76119,51.32208],[-2.76122,51.32205],[-2.76126,51.322],[-2.76131,51.32196],[-2.76141,51.32186],[-2.76152,51.32176],[-2.76157,51.3217],[-2.7616,51.32162],[-2.76161,51.32156],[-2.76162,51.32138],[-2.76162,51.32125],[-2.76162,51.32117],[-2.7616,51.32107],[-2.7616,51.32101],[-2.76162,51.32092],[-2.76164,51.32086]]}},{"type":"Feature","properties":{"ROW_TYPE":"Bridleway · AX 10/41"},"geometry":{"type":"LineString","coordinates":[[-2.75555,51.32452],[-2.75571,51.32436],[-2.75585,51.32422],[-2.75596,51.32411],[-2.75615,51.32394],[-2.75634,51.32378],[-2.75644,51.3237],[-2.75655,51.32362],[-2.75666,51.32355],[-2.75679,51.32346],[-2.75689,51.3234],[-2.75702,51.32334],[-2.75712,51.32329],[-2.7573,51.32322],[-2.75743,51.32317],[-2.75763,51.32311],[-2.75791,51.32306],[-2.75828,51.32299],[-2.75846,51.32296],[-2.75882,51.32286],[-2.75916,51.32275],[-2.75953,51.32262],[-2.75986,51.32251],[-2.76028,51.32237],[-2.76066,51.32225],[-2.7611,51.32212],[-2.76119,51.32208]]}},{"type":"Feature","properties":{"ROW_TYPE":"Bridleway · AX 10/43"},"geometry":{"type":"LineString","coordinates":[[-2.75756,51.3155],[-2.75761,51.3155],[-2.75767,51.31553],[-2.75775,51.31557],[-2.75782,51.31561],[-2.75798,51.3157],[-2.75824,51.31583],[-2.75849,51.31595],[-2.75883,51.31613],[-2.75909,51.31626],[-2.75921,51.31632],[-2.75934,51.31639],[-2.75962,51.31653],[-2.75979,51.31662],[-2.76006,51.31682],[-2.76021,51.31693],[-2.76034,51.31702],[-2.76044,51.3171],[-2.76053,51.31717],[-2.76065,51.31727],[-2.76084,51.31744],[-2.76101,51.31757],[-2.76125,51.31776],[-2.76148,51.31793],[-2.76157,51.31801],[-2.76164,51.31806],[-2.76173,51.31811],[-2.76191,51.3182],[-2.76201,51.31826],[-2.76213,51.31831],[-2.76229,51.31839]]}},{"type":"Feature","properties":{"ROW_TYPE":"Bridleway · AX 10/43"},"geometry":{"type":"LineString","coordinates":[[-2.76364,51.31938],[-2.76359,51.31932],[-2.76352,51.31928],[-2.76346,51.31924],[-2.76335,51.31913],[-2.7632,51.31899],[-2.76313,51.31895],[-2.76306,51.31887],[-2.76302,51.3188],[-2.76296,51.31876],[-2.76291,51.31871],[-2.76278,51.31862],[-2.76262,51.31853],[-2.76248,51.31846],[-2.76234,51.3184],[-2.76229,51.31839]]}},{"type":"Feature","properties":{"ROW_TYPE":"Bridleway · AX 10/61"},"geometry":{"type":"LineString","coordinates":[[-2.75898,51.30828],[-2.75901,51.3083],[-2.75909,51.30833],[-2.75931,51.3084],[-2.75956,51.3085],[-2.7599,51.30863],[-2.76008,51.3087],[-2.76011,51.30871],[-2.76017,51.30873],[-2.76033,51.30875],[-2.7605,51.30879],[-2.76065,51.30882],[-2.76083,51.30886],[-2.76091,51.30889],[-2.76096,51.30894],[-2.761,51.30897],[-2.76107,51.30899],[-2.76112,51.30902],[-2.76115,51.30905],[-2.76119,51.30915],[-2.76126,51.30928],[-2.76131,51.30938],[-2.76149,51.30962],[-2.76158,51.30974],[-2.76176,51.30999],[-2.76186,51.31009],[-2.76207,51.31026],[-2.76226,51.31042],[-2.76241,51.31055],[-2.76263,51.31074],[-2.76283,51.31089],[-2.76291,51.31096],[-2.76296,51.31101],[-2.76301,51.31105],[-2.76308,51.31109],[-2.76324,51.31117],[-2.76341,51.31127],[-2.76359,51.31136],[-2.76377,51.31148],[-2.76391,51.31157],[-2.76403,51.31168],[-2.7641,51.31174],[-2.76415,51.31181],[-2.76417,51.31186],[-2.76424,51.31193]]}},{"type":"Feature","properties":{"ROW_TYPE":"Bridleway · AX 10/48"},"geometry":{"type":"LineString","coordinates":[[-2.76372,51.31338],[-2.7633,51.31337],[-2.76282,51.31335],[-2.76223,51.31333],[-2.76203,51.31332],[-2.76194,51.31331],[-2.76174,51.31329],[-2.76142,51.31327],[-2.7612,51.31326],[-2.76106,51.31326],[-2.76094,51.31327],[-2.76077,51.31328],[-2.76066,51.31328],[-2.7605,51.31327],[-2.76037,51.31326],[-2.76026,51.31326],[-2.75987,51.31326],[-2.75944,51.31326],[-2.7592,51.31326],[-2.75904,51.31325],[-2.75878,51.31324],[-2.75869,51.31324],[-2.75848,51.31321],[-2.75811,51.31317],[-2.75779,51.31314],[-2.75765,51.31312],[-2.75747,51.31311],[-2.75731,51.3131],[-2.75722,51.31309],[-2.75716,51.31309]]}},{"type":"Feature","properties":{"ROW_TYPE":"Footpath · AX 25/17"},"geometry":{"type":"LineString","coordinates":[[-2.79281,51.31291],[-2.79297,51.31297],[-2.79309,51.31304],[-2.79321,51.31311],[-2.79337,51.31317],[-2.79357,51.31322],[-2.79377,51.31326],[-2.79452,51.3131],[-2.79453,51.31314],[-2.79457,51.31323],[-2.79458,51.31326],[-2.79459,51.31332],[-2.79465,51.31343],[-2.79479,51.31344],[-2.79516,51.31347],[-2.79521,51.3136],[-2.79524,51.3136],[-2.79537,51.31375]]}},{"type":"Feature","properties":{"ROW_TYPE":"Bridleway · AX 25/35"},"geometry":{"type":"LineString","coordinates":[[-2.79442,51.3244],[-2.7941,51.32445],[-2.79385,51.32448],[-2.79368,51.32451],[-2.79358,51.32452],[-2.7935,51.32454],[-2.79329,51.32458],[-2.79311,51.32462],[-2.79287,51.32467],[-2.79265,51.32474],[-2.79254,51.32477],[-2.79221,51.32492]]}},{"type":"Feature","properties":{"ROW_TYPE":"Bridleway · AX 25/43"},"geometry":{"type":"LineString","coordinates":[[-2.80979,51.32289],[-2.80973,51.32283],[-2.80958,51.32272],[-2.80954,51.32267],[-2.80946,51.32258],[-2.80942,51.32245],[-2.80917,51.32097],[-2.80911,51.32091],[-2.809,51.3209],[-2.80889,51.32087]]}},{"type":"Feature","properties":{"ROW_TYPE":"Bridleway · AX 25/45"},"geometry":{"type":"LineString","coordinates":[[-2.80979,51.32289],[-2.80981,51.32297],[-2.80982,51.32308],[-2.80985,51.32328],[-2.80991,51.32356],[-2.80997,51.32391],[-2.81018,51.32473],[-2.81028,51.32512],[-2.8104,51.32553],[-2.81051,51.32582],[-2.81062,51.32602],[-2.81069,51.32624],[-2.81076,51.3263],[-2.81083,51.32635],[-2.81085,51.32642],[-2.81084,51.32665],[-2.81084,51.32673]]}},{"type":"Feature","properties":{"ROW_TYPE":"Footpath · AX 25/44"},"geometry":{"type":"LineString","coordinates":[[-2.80979,51.32289],[-2.80986,51.32292],[-2.80995,51.32293],[-2.81086,51.32293],[-2.81099,51.32294],[-2.81108,51.32294],[-2.81179,51.32313],[-2.8122,51.32324]]}},{"type":"Feature","properties":{"ROW_TYPE":"Footpath · AX 25/44"},"geometry":{"type":"LineString","coordinates":[[-2.8122,51.32324],[-2.81231,51.32327],[-2.81292,51.32336],[-2.81295,51.32337],[-2.81302,51.32342],[-2.81314,51.3236],[-2.81321,51.32375],[-2.81325,51.32384],[-2.81334,51.32405],[-2.81344,51.32422],[-2.81351,51.32432],[-2.81377,51.32466],[-2.8139,51.32481],[-2.81423,51.32507],[-2.81456,51.32533],[-2.81462,51.32534],[-2.81472,51.32535],[-2.81482,51.32534],[-2.81512,51.32529],[-2.81552,51.32516],[-2.81599,51.32503],[-2.81616,51.32499],[-2.81623,51.32498],[-2.81634,51.32499],[-2.81639,51.32501],[-2.81644,51.32506],[-2.81659,51.32525],[-2.81676,51.3255],[-2.81679,51.32559],[-2.81681,51.32563],[-2.81684,51.3257],[-2.81699,51.32606],[-2.81702,51.3261],[-2.81711,51.32618],[-2.81719,51.32622],[-2.81732,51.32626],[-2.81745,51.32627],[-2.81758,51.32628],[-2.81767,51.3263],[-2.81783,51.32637]]}},{"type":"Feature","properties":{"ROW_TYPE":"Bridleway · AX 29/66"},"geometry":{"type":"LineString","coordinates":[[-2.81084,51.32673],[-2.811,51.32677],[-2.81124,51.32684],[-2.81148,51.32693],[-2.81176,51.32706],[-2.81193,51.32712],[-2.81207,51.32717],[-2.81217,51.3272]]}},{"type":"Feature","properties":{"ROW_TYPE":"Bridleway · AX 29/66"},"geometry":{"type":"LineString","coordinates":[[-2.81084,51.32673],[-2.81065,51.32671],[-2.81042,51.32668],[-2.81026,51.32667],[-2.81013,51.32665],[-2.80977,51.32658],[-2.80944,51.32649],[-2.80911,51.32643],[-2.80865,51.32638],[-2.80843,51.32633],[-2.80812,51.32623],[-2.80795,51.3262],[-2.80759,51.32619],[-2.80737,51.32617],[-2.80716,51.32615],[-2.80686,51.32611],[-2.8066,51.32612],[-2.80648,51.32613]]}},{"type":"Feature","properties":{"ROW_TYPE":"Bridleway · AX 14/70"},"geometry":{"type":"LineString","coordinates":[[-2.80648,51.32613],[-2.80623,51.32612],[-2.806,51.32614],[-2.80581,51.32617],[-2.80557,51.3262],[-2.80534,51.32622],[-2.80485,51.32625],[-2.80438,51.32627],[-2.80405,51.32631],[-2.80366,51.32637],[-2.8033,51.32642],[-2.80301,51.32645],[-2.80287,51.32647],[-2.80256,51.3265],[-2.80217,51.32653],[-2.8019,51.32655],[-2.80167,51.32653],[-2.80146,51.32649],[-2.80112,51.32641],[-2.80075,51.32635],[-2.80032,51.32621],[-2.80015,51.32614],[-2.79994,51.32613]]}},{"type":"Feature","properties":{"ROW_TYPE":"Restricted Byway · AX 25/46"},"geometry":{"type":"LineString","coordinates":[[-2.80593,51.32193],[-2.80588,51.32199],[-2.80571,51.3221],[-2.80563,51.32219],[-2.80552,51.32231],[-2.80545,51.32242],[-2.80539,51.32256],[-2.80533,51.32276],[-2.80526,51.32287],[-2.80514,51.32305],[-2.80498,51.32326],[-2.80486,51.32342],[-2.80473,51.32351],[-2.8045,51.32366],[-2.80439,51.32376],[-2.80433,51.32387],[-2.80427,51.32406],[-2.80413,51.3244],[-2.80407,51.32456],[-2.80382,51.32478],[-2.80361,51.32493],[-2.80337,51.32503],[-2.80318,51.32509],[-2.80285,51.32517],[-2.80245,51.32524],[-2.80196,51.32529],[-2.80157,51.32534],[-2.80131,51.32539],[-2.8011,51.32545],[-2.80085,51.32552],[-2.80066,51.32558],[-2.80046,51.32566],[-2.80032,51.32575],[-2.80016,51.32588],[-2.8,51.32601],[-2.79994,51.32613]]}},{"type":"Feature","properties":{"ROW_TYPE":"Restricted Byway · AX 14/13A"},"geometry":{"type":"LineString","coordinates":[[-2.79994,51.32613],[-2.79976,51.32622],[-2.79957,51.32633],[-2.79935,51.32648],[-2.79917,51.32661],[-2.79904,51.32674],[-2.79891,51.32691]]}},{"type":"Feature","properties":{"ROW_TYPE":"Bridleway · AX 25/35"},"geometry":{"type":"LineString","coordinates":[[-2.79221,51.32492],[-2.79206,51.32496],[-2.79189,51.32501],[-2.79177,51.32507],[-2.79169,51.32511]]}},{"type":"Feature","properties":{"ROW_TYPE":"Bridleway · AX 14/11"},"geometry":{"type":"LineString","coordinates":[[-2.79525,51.3253],[-2.7949,51.32524],[-2.79467,51.32519],[-2.79441,51.32516],[-2.79412,51.32516],[-2.79382,51.32516],[-2.7933,51.32518],[-2.79281,51.32515],[-2.79211,51.32512],[-2.79169,51.32511]]}},{"type":"Feature","properties":{"ROW_TYPE":"Bridleway · AX 14/11"},"geometry":{"type":"LineString","coordinates":[[-2.79169,51.32511],[-2.79124,51.32507],[-2.79063,51.325],[-2.78975,51.3249]]}},{"type":"Feature","properties":{"ROW_TYPE":"Bridleway · AX 25/37"},"geometry":{"type":"LineString","coordinates":[[-2.7855,51.32423],[-2.78552,51.32402],[-2.78554,51.32363],[-2.78574,51.32302],[-2.78578,51.3229],[-2.78577,51.32229],[-2.78577,51.32208],[-2.7858,51.32189],[-2.78585,51.32166],[-2.78583,51.32161],[-2.78578,51.32152],[-2.78565,51.32138],[-2.78562,51.32128],[-2.78565,51.32092],[-2.78566,51.32082],[-2.78565,51.3207],[-2.78558,51.32048],[-2.78555,51.32021]]}},{"type":"Feature","properties":{"ROW_TYPE":"Bridleway · AX 25/39"},"geometry":{"type":"LineString","coordinates":[[-2.78555,51.32021],[-2.78555,51.32015],[-2.78549,51.32009],[-2.78526,51.31991],[-2.78505,51.31976]]}},{"type":"Feature","properties":{"ROW_TYPE":"Bridleway · AX 25/53"},"geometry":{"type":"LineString","coordinates":[[-2.77938,51.32241],[-2.77949,51.32247],[-2.7796,51.32254],[-2.77974,51.32264],[-2.77995,51.32272],[-2.7801,51.32275],[-2.78029,51.32275],[-2.78055,51.32271],[-2.78093,51.32264],[-2.78123,51.32259],[-2.7815,51.32256],[-2.78193,51.3225],[-2.78217,51.32244],[-2.78261,51.3223],[-2.78283,51.32221],[-2.78298,51.32217],[-2.7833,51.32211],[-2.78354,51.32207],[-2.78376,51.32201],[-2.78423,51.32191],[-2.78428,51.32189]]}},{"type":"Feature","properties":{"ROW_TYPE":"Bridleway · AX 25/53"},"geometry":{"type":"LineString","coordinates":[[-2.78428,51.32189],[-2.78435,51.32189],[-2.78444,51.3219],[-2.78454,51.32193],[-2.78464,51.32197],[-2.78471,51.32199],[-2.78478,51.322],[-2.78488,51.32199],[-2.78499,51.32193],[-2.78511,51.32179],[-2.7852,51.32162],[-2.78528,51.3214],[-2.78532,51.32117],[-2.78534,51.32098],[-2.78536,51.32075],[-2.78536,51.32055],[-2.78537,51.32044],[-2.78538,51.32037],[-2.7854,51.32035],[-2.78549,51.32033],[-2.78555,51.32015]]}},{"type":"Feature","properties":{"ROW_TYPE":"Bridleway · AX 25/49"},"geometry":{"type":"LineString","coordinates":[[-2.78428,51.32189],[-2.78401,51.3218],[-2.78381,51.32169],[-2.78372,51.32163],[-2.78368,51.32156],[-2.78365,51.32147],[-2.78367,51.32135],[-2.78368,51.32124],[-2.78365,51.32116],[-2.78359,51.32108],[-2.78352,51.32099],[-2.78342,51.32089],[-2.78331,51.32082],[-2.78319,51.32075],[-2.78308,51.3207],[-2.78276,51.3206],[-2.78248,51.3205],[-2.78208,51.32039],[-2.78175,51.3203],[-2.78167,51.32027],[-2.78154,51.32017],[-2.78127,51.31995],[-2.78122,51.31985],[-2.78122,51.31979]]}},{"type":"Feature","properties":{"ROW_TYPE":"Bridleway · AX 25/50"},"geometry":{"type":"LineString","coordinates":[[-2.78122,51.31979],[-2.78126,51.31976],[-2.7813,51.31968],[-2.7813,51.31965],[-2.78118,51.31955],[-2.78087,51.31928],[-2.78068,51.31914],[-2.78046,51.31897],[-2.78029,51.31882],[-2.78022,51.31874],[-2.77996,51.3185],[-2.77971,51.31828],[-2.77951,51.31808],[-2.77925,51.3179],[-2.77878,51.31748],[-2.77851,51.31724],[-2.77816,51.31697],[-2.77772,51.31665],[-2.77736,51.31634],[-2.77705,51.31609],[-2.77691,51.31598],[-2.77684,51.31593],[-2.77652,51.3158],[-2.77623,51.31568],[-2.77604,51.31559],[-2.7759,51.31551],[-2.77562,51.31533],[-2.77556,51.3153],[-2.77516,51.31501],[-2.77491,51.31486],[-2.77467,51.31473],[-2.77444,51.31462],[-2.77418,51.3145],[-2.7738,51.31428],[-2.77359,51.31414]]}},{"type":"Feature","properties":{"ROW_TYPE":"Bridleway · AX 25/52"},"geometry":{"type":"LineString","coordinates":[[-2.77938,51.32241],[-2.77935,51.32246],[-2.77933,51.32259],[-2.77935,51.32284],[-2.77936,51.32301],[-2.77935,51.32319],[-2.77938,51.32327],[-2.77943,51.32333],[-2.77953,51.32341],[-2.77968,51.3235],[-2.77995,51.32364],[-2.78009,51.32373]]}},{"type":"Feature","properties":{"ROW_TYPE":"Bridleway · AX 25/52"},"geometry":{"type":"LineString","coordinates":[[-2.77938,51.32241],[-2.77938,51.32227],[-2.7794,51.32202],[-2.7794,51.32196],[-2.77939,51.32193],[-2.77937,51.32192],[-2.77931,51.32189],[-2.77923,51.32184],[-2.77919,51.32179],[-2.77917,51.32173],[-2.77915,51.32159],[-2.77912,51.3214],[-2.7791,51.32131],[-2.77898,51.32107],[-2.77883,51.32083],[-2.77882,51.32072],[-2.77879,51.32068],[-2.77865,51.32057],[-2.77839,51.32042],[-2.77832,51.32037],[-2.77801,51.32009],[-2.77792,51.32],[-2.77782,51.31994],[-2.77765,51.31979],[-2.7775,51.31964],[-2.77749,51.31959],[-2.77757,51.31949],[-2.77721,51.31934],[-2.77706,51.31928],[-2.77637,51.31913],[-2.77603,51.31904],[-2.7758,51.31897],[-2.77551,51.31887],[-2.77506,51.31866],[-2.77467,51.31851],[-2.77429,51.31832],[-2.77394,51.31814],[-2.77374,51.31803],[-2.77347,51.31782],[-2.77323,51.31762],[-2.77288,51.31732],[-2.77268,51.3171],[-2.77256,51.31693],[-2.77251,51.31683],[-2.77246,51.31677],[-2.77211,51.31636],[-2.7719,51.31617],[-2.77167,51.31599],[-2.77142,51.31583],[-2.77118,51.31568],[-2.77101,51.3156],[-2.77078,51.31551],[-2.77066,51.31549],[-2.77043,51.31548],[-2.77028,51.31546],[-2.77005,51.31542],[-2.76982,51.31537],[-2.76958,51.31529],[-2.76938,51.31523],[-2.76927,51.31518],[-2.76904,51.31509],[-2.76888,51.31505],[-2.76871,51.31502],[-2.76863,51.31502],[-2.76856,51.315],[-2.76816,51.31492],[-2.76761,51.3148],[-2.76705,51.31471],[-2.76685,51.31467],[-2.76625,51.3145],[-2.76603,51.31438],[-2.76586,51.31431],[-2.76578,51.31427],[-2.76547,51.31405],[-2.76537,51.31399]]}},{"type":"Feature","properties":{"ROW_TYPE":"Bridleway · AX 25/52"},"geometry":{"type":"LineString","coordinates":[[-2.76537,51.31399],[-2.76523,51.3139],[-2.76484,51.31376],[-2.7647,51.31372],[-2.76434,51.31358],[-2.76419,51.31353],[-2.76389,51.31344],[-2.76377,51.31341],[-2.7636,51.31337]]}},{"type":"Feature","properties":{"ROW_TYPE":"Bridleway · AX 25/59"},"geometry":{"type":"LineString","coordinates":[[-2.77938,51.32241],[-2.77935,51.32242],[-2.77932,51.32244],[-2.77926,51.32248],[-2.77912,51.32257],[-2.77896,51.32267],[-2.77883,51.32272],[-2.77872,51.32274],[-2.7785,51.32275],[-2.77835,51.32275],[-2.7781,51.32271],[-2.77779,51.32267],[-2.77747,51.32262],[-2.77725,51.32259],[-2.77712,51.32257],[-2.77707,51.32256],[-2.777,51.32256],[-2.77685,51.32257],[-2.77675,51.32256],[-2.77659,51.32254],[-2.77615,51.32251],[-2.77583,51.32249],[-2.77556,51.32248],[-2.77536,51.32248],[-2.77494,51.3225],[-2.77465,51.32247],[-2.77455,51.32247],[-2.77435,51.32248],[-2.77422,51.32251],[-2.77396,51.32259],[-2.77371,51.32271],[-2.77339,51.32287],[-2.77317,51.32293],[-2.77281,51.32302],[-2.77258,51.32308],[-2.77242,51.32313],[-2.7722,51.32321],[-2.77194,51.32335],[-2.77172,51.32344],[-2.77156,51.32351],[-2.77154,51.32352],[-2.7715,51.32353],[-2.77141,51.32355],[-2.7713,51.32356],[-2.7712,51.32358],[-2.77101,51.32362],[-2.77092,51.32365],[-2.7704,51.32368],[-2.76998,51.32369],[-2.76953,51.32368],[-2.76924,51.32367],[-2.76901,51.3236],[-2.76877,51.32353],[-2.76863,51.32348],[-2.76835,51.32339],[-2.76806,51.32327],[-2.76793,51.32317],[-2.76775,51.32307]]}},{"type":"Feature","properties":{"ROW_TYPE":"Bridleway · AX 25/57"},"geometry":{"type":"LineString","coordinates":[[-2.76813,51.32367],[-2.76792,51.32344],[-2.76786,51.32334],[-2.76775,51.32307]]}},{"type":"Feature","properties":{"ROW_TYPE":"Bridleway · AX 25/58"},"geometry":{"type":"LineString","coordinates":[[-2.76775,51.32307],[-2.7676,51.32294],[-2.76745,51.32281],[-2.76724,51.32262],[-2.76711,51.32248],[-2.76674,51.3222],[-2.76654,51.32208],[-2.7664,51.32195],[-2.76608,51.32163],[-2.76584,51.32142],[-2.76563,51.32127],[-2.76554,51.32121],[-2.76532,51.32099],[-2.76518,51.32088],[-2.76503,51.32077],[-2.76475,51.32059],[-2.76458,51.32046],[-2.76428,51.32021],[-2.76414,51.32009],[-2.764,51.31994],[-2.76396,51.31988],[-2.76393,51.31983],[-2.76389,51.31971],[-2.76386,51.31966],[-2.76381,51.31962],[-2.76377,51.31957],[-2.76375,51.3195],[-2.76373,51.31945],[-2.76358,51.31931]]}},{"type":"Feature","properties":{"ROW_TYPE":"Bridleway · AX 25/57"},"geometry":{"type":"LineString","coordinates":[[-2.76775,51.32307],[-2.7677,51.32291],[-2.76762,51.32274],[-2.76756,51.32264],[-2.76711,51.32213],[-2.76692,51.3219],[-2.76664,51.32162],[-2.76646,51.32132],[-2.76628,51.32101],[-2.76624,51.32094],[-2.76599,51.32072],[-2.76585,51.32053],[-2.76575,51.32035],[-2.76569,51.32024],[-2.76567,51.32021],[-2.76568,51.32012],[-2.76545,51.31965],[-2.76544,51.31959],[-2.76545,51.31941],[-2.76545,51.31936],[-2.76543,51.31928],[-2.76544,51.31909],[-2.76545,51.31893],[-2.76542,51.31873],[-2.7654,51.31853],[-2.76546,51.31832],[-2.76553,51.31811],[-2.76558,51.3179],[-2.76566,51.31776],[-2.76569,51.31766],[-2.7657,51.31744],[-2.76568,51.3173],[-2.76567,51.31719],[-2.76576,51.31686],[-2.76582,51.31673],[-2.76591,51.31631],[-2.76594,51.31622],[-2.76594,51.31615],[-2.7659,51.3157],[-2.76587,51.3155],[-2.76583,51.31539],[-2.76574,51.31511],[-2.76569,51.31497],[-2.76576,51.31486],[-2.76577,51.31482],[-2.76575,51.31479],[-2.76572,51.31476],[-2.76569,51.31474],[-2.76562,51.31472],[-2.76557,51.31466],[-2.76551,51.31439],[-2.76537,51.31399]]}},{"type":"Feature","properties":{"ROW_TYPE":"Bridleway · AX 25/57"},"geometry":{"type":"LineString","coordinates":[[-2.76537,51.31399],[-2.76533,51.31384],[-2.76529,51.31363],[-2.76525,51.31347]]}},{"type":"Feature","properties":{"ROW_TYPE":"Bridleway · AX 25/57"},"geometry":{"type":"LineString","coordinates":[[-2.76525,51.31347],[-2.76525,51.31346],[-2.76517,51.31333],[-2.76508,51.31312],[-2.76499,51.31289],[-2.76495,51.31277],[-2.76489,51.31265],[-2.76481,51.31253],[-2.76459,51.31226],[-2.76454,51.31222],[-2.76447,51.31219],[-2.76439,51.31211],[-2.7643,51.31199],[-2.76424,51.31193]]}},{"type":"Feature","properties":{"ROW_TYPE":"Footpath · AX 25/64"},"geometry":{"type":"LineString","coordinates":[[-2.79958,51.31468],[-2.79936,51.31446],[-2.79924,51.31434],[-2.79921,51.3143],[-2.79903,51.31428],[-2.79881,51.31423]]}},{"type":"Feature","properties":{"ROW_TYPE":"Footpath · AX 25/26"},"geometry":{"type":"LineString","coordinates":[[-2.80129,51.3173],[-2.8014,51.3171],[-2.80147,51.31696],[-2.80152,51.31677],[-2.80157,51.31662],[-2.80161,51.31638],[-2.80163,51.31627],[-2.80164,51.31596],[-2.80163,51.31581]]}},{"type":"Feature","properties":{"ROW_TYPE":"Footpath · AX 25/26"},"geometry":{"type":"LineString","coordinates":[[-2.80163,51.31581],[-2.80161,51.31568],[-2.80152,51.31553],[-2.80151,51.31542],[-2.80153,51.31534],[-2.80158,51.31528]]}},{"type":"Feature","properties":{"ROW_TYPE":"Footpath · AX 25/26"},"geometry":{"type":"LineString","coordinates":[[-2.80136,51.31519],[-2.80136,51.31515],[-2.80134,51.31513],[-2.80132,51.31512],[-2.80138,51.31509],[-2.80142,51.31504],[-2.80143,51.315],[-2.80153,51.31499],[-2.80159,51.31494],[-2.80161,51.31489],[-2.80154,51.31456],[-2.80138,51.31428],[-2.80137,51.31425],[-2.80128,51.31416],[-2.80126,51.31402],[-2.80122,51.31397]]}},{"type":"Feature","properties":{"ROW_TYPE":"Footpath · AX 25/28"},"geometry":{"type":"LineString","coordinates":[[-2.80381,51.31558],[-2.80363,51.31559],[-2.80326,51.3156],[-2.80288,51.31561],[-2.8026,51.31563],[-2.80234,51.31563],[-2.80213,51.31563],[-2.80201,51.31563],[-2.80192,51.31564],[-2.80178,51.31569],[-2.80168,51.31577],[-2.80163,51.31581]]}},{"type":"Feature","properties":{"ROW_TYPE":"Footpath · AX 25/14"},"geometry":{"type":"LineString","coordinates":[[-2.80111,51.31512],[-2.80136,51.31519],[-2.80147,51.31527],[-2.80158,51.31528]]}},{"type":"Feature","properties":{"ROW_TYPE":"Footpath · AX 25/14"},"geometry":{"type":"LineString","coordinates":[[-2.80158,51.31528],[-2.80175,51.3153],[-2.80221,51.31537],[-2.80241,51.31539],[-2.80256,51.31539],[-2.80275,51.3154],[-2.80297,51.31543],[-2.80325,51.31546],[-2.80363,51.31554],[-2.80381,51.31558]]}},{"type":"Feature","properties":{"ROW_TYPE":"Footpath · AX 25/14"},"geometry":{"type":"LineString","coordinates":[[-2.80381,51.31558],[-2.80396,51.31558],[-2.80416,51.31559],[-2.8045,51.31561],[-2.80474,51.3156],[-2.80503,51.31558],[-2.80533,51.31555],[-2.8056,51.31552],[-2.80587,51.31545],[-2.80608,51.3154],[-2.80657,51.31532],[-2.80672,51.31529],[-2.80707,51.31525],[-2.80729,51.31524],[-2.80756,51.31521],[-2.80783,51.31516]]}},{"type":"Feature","properties":{"ROW_TYPE":"Footpath · AX 25/15"},"geometry":{"type":"LineString","coordinates":[[-2.80783,51.31516],[-2.80785,51.31513],[-2.80791,51.31513],[-2.80804,51.31513],[-2.80827,51.31519],[-2.80862,51.3153],[-2.809,51.31543],[-2.80926,51.31549],[-2.80947,51.31553],[-2.80973,51.31554],[-2.81012,51.31555]]}},{"type":"Feature","properties":{"ROW_TYPE":"Footpath · AX 25/16"},"geometry":{"type":"LineString","coordinates":[[-2.80783,51.31516],[-2.80789,51.31536],[-2.80796,51.31557],[-2.80803,51.31567],[-2.80809,51.3157],[-2.80824,51.31574],[-2.80854,51.31582],[-2.80907,51.31595],[-2.80945,51.31605],[-2.8097,51.3161],[-2.8099,51.31614],[-2.81013,51.31617],[-2.81024,51.31623],[-2.81032,51.31629],[-2.81035,51.31634],[-2.81038,51.31645],[-2.81041,51.31673],[-2.81039,51.31681],[-2.81035,51.31692],[-2.81031,51.317],[-2.81025,51.31706],[-2.81014,51.3171],[-2.81001,51.31712],[-2.80976,51.31713],[-2.80955,51.31714],[-2.80929,51.31713],[-2.80918,51.31714],[-2.80909,51.31716],[-2.80904,51.31719],[-2.80903,51.31722]]}},{"type":"Feature","properties":{"ROW_TYPE":"Footpath · AX 25/16"},"geometry":{"type":"LineString","coordinates":[[-2.80903,51.31722],[-2.809,51.31739],[-2.80901,51.3176],[-2.80902,51.3177],[-2.80905,51.31788],[-2.80913,51.31815],[-2.80915,51.31831],[-2.80919,51.31862],[-2.80923,51.31905],[-2.80922,51.31931],[-2.80918,51.31968]]}},{"type":"Feature","properties":{"ROW_TYPE":"Footpath · AX 29/75"},"geometry":{"type":"LineString","coordinates":[[-2.80783,51.31516],[-2.8078,51.31504],[-2.80771,51.31483],[-2.80765,51.31466],[-2.80761,51.31448],[-2.80759,51.3144],[-2.80755,51.31428],[-2.80754,51.31408],[-2.8076,51.31382]]}},{"type":"Feature","properties":{"ROW_TYPE":"Footpath · AX 29/75"},"geometry":{"type":"LineString","coordinates":[[-2.8076,51.31382],[-2.80764,51.31362],[-2.80769,51.31339],[-2.80772,51.31321],[-2.80773,51.31305],[-2.80774,51.31295],[-2.8077,51.31286],[-2.80763,51.31266],[-2.80755,51.31248],[-2.8074,51.31224],[-2.80724,51.31207],[-2.8071,51.31191],[-2.80704,51.31185],[-2.807,51.31178],[-2.807,51.31164],[-2.80699,51.31158],[-2.80697,51.31156],[-2.80692,51.31155],[-2.80676,51.31153],[-2.80634,51.3115],[-2.80614,51.31147],[-2.80602,51.31144],[-2.80589,51.3114],[-2.80566,51.31132],[-2.80527,51.31115],[-2.80496,51.31103],[-2.80474,51.31094],[-2.80457,51.3109],[-2.80425,51.31085],[-2.80405,51.31083],[-2.80389,51.3108],[-2.80348,51.31068],[-2.80337,51.31064],[-2.80327,51.31053],[-2.80315,51.31042],[-2.80297,51.31022],[-2.80286,51.31011],[-2.80278,51.31006],[-2.80246,51.30991]]}},{"type":"Feature","properties":{"ROW_TYPE":"Footpath · AX 29/74"},"geometry":{"type":"LineString","coordinates":[[-2.80823,51.3059],[-2.80826,51.30617],[-2.80828,51.30651],[-2.80832,51.30685],[-2.80832,51.30716],[-2.8083,51.30766],[-2.80814,51.3077],[-2.80744,51.30791],[-2.80683,51.3081],[-2.80604,51.30834],[-2.80581,51.30842],[-2.80554,51.30855],[-2.80504,51.30879],[-2.80447,51.30907],[-2.80422,51.30918],[-2.80326,51.3096],[-2.80264,51.30984],[-2.80246,51.30991]]}},{"type":"Feature","properties":{"ROW_TYPE":"Footpath · AX 25/23"},"geometry":{"type":"LineString","coordinates":[[-2.80246,51.30991],[-2.80206,51.31008],[-2.802,51.31014],[-2.80195,51.31018],[-2.80187,51.31023],[-2.80185,51.31033],[-2.80187,51.31052],[-2.80186,51.31055],[-2.8018,51.31063],[-2.80175,51.31072],[-2.80175,51.31089],[-2.8017,51.31126],[-2.80167,51.31135],[-2.80164,51.31139],[-2.80159,51.31141],[-2.80151,51.31142],[-2.80134,51.31145],[-2.80116,51.31148],[-2.80103,51.31153]]}},{"type":"Feature","properties":{"ROW_TYPE":"Footpath · AX 25/25"},"geometry":{"type":"LineString","coordinates":[[-2.80003,51.31301],[-2.80041,51.31254],[-2.80056,51.31233],[-2.80066,51.31213],[-2.80075,51.31187],[-2.80088,51.31169],[-2.80095,51.31154]]}},{"type":"Feature","properties":{"ROW_TYPE":"Footpath · AX 25/25"},"geometry":{"type":"LineString","coordinates":[[-2.80095,51.31154],[-2.80082,51.31142],[-2.80068,51.31131],[-2.80058,51.31123],[-2.80044,51.31115],[-2.80029,51.3111]]}},{"type":"Feature","properties":{"ROW_TYPE":"Footpath · AX 25/19"},"geometry":{"type":"LineString","coordinates":[[-2.80081,51.31095],[-2.80062,51.31106],[-2.80042,51.31109],[-2.80029,51.3111],[-2.80016,51.31111],[-2.79977,51.31111],[-2.7996,51.31109],[-2.7994,51.31104]]}},{"type":"Feature","properties":{"ROW_TYPE":"Footpath · AX 25/19"},"geometry":{"type":"LineString","coordinates":[[-2.7994,51.31104],[-2.7992,51.31102],[-2.79905,51.31101],[-2.79894,51.31101]]}},{"type":"Feature","properties":{"ROW_TYPE":"Footpath · AX 25/19"},"geometry":{"type":"LineString","coordinates":[[-2.79894,51.31101],[-2.79874,51.31102],[-2.79857,51.31104],[-2.79828,51.31108],[-2.79812,51.31109],[-2.7978,51.31111],[-2.79724,51.31111],[-2.79675,51.31111],[-2.79661,51.31111],[-2.79647,51.31117],[-2.79633,51.31121],[-2.79619,51.31124],[-2.79599,51.31126],[-2.79577,51.31129],[-2.7957,51.3113],[-2.79563,51.31129],[-2.79544,51.31127],[-2.79517,51.31122],[-2.79473,51.31116],[-2.79405,51.31114],[-2.79394,51.31116],[-2.79382,51.31121],[-2.79353,51.31132],[-2.79344,51.31135],[-2.79334,51.31136],[-2.79327,51.3114],[-2.79325,51.31142],[-2.79318,51.3115],[-2.79306,51.31168]]}},{"type":"Feature","properties":{"ROW_TYPE":"Footpath · AX 25/9"},"geometry":{"type":"LineString","coordinates":[[-2.7994,51.31104],[-2.79938,51.31099],[-2.79934,51.31088],[-2.79929,51.3108],[-2.79933,51.31061],[-2.79933,51.31049],[-2.7993,51.31046],[-2.79926,51.31044],[-2.79916,51.3104],[-2.79911,51.31035],[-2.79903,51.31018],[-2.79893,51.30996],[-2.79892,51.30994],[-2.79896,51.30984],[-2.79897,51.30979],[-2.79896,51.3096],[-2.79894,51.30944],[-2.79892,51.30934],[-2.79895,51.30929],[-2.79899,51.30916],[-2.79898,51.30903],[-2.79901,51.30902]]}},{"type":"Feature","properties":{"ROW_TYPE":"Footpath · AX 25/10"},"geometry":{"type":"LineString","coordinates":[[-2.80003,51.31301],[-2.80055,51.3128],[-2.8007,51.31277],[-2.80081,51.31277],[-2.80092,51.31277],[-2.80105,51.3128],[-2.80117,51.31285],[-2.80117,51.31287]]}},{"type":"Feature","properties":{"ROW_TYPE":"Footpath · AX 25/10"},"geometry":{"type":"LineString","coordinates":[[-2.80117,51.31287],[-2.80121,51.31288],[-2.80135,51.3129],[-2.80157,51.31292],[-2.80197,51.31296],[-2.80213,51.31297],[-2.8022,51.313],[-2.80263,51.31313],[-2.80279,51.3132],[-2.80289,51.31325],[-2.80293,51.3133],[-2.80297,51.31338],[-2.80303,51.31341],[-2.80307,51.31342],[-2.80318,51.31344],[-2.80331,51.31349],[-2.80343,51.31354],[-2.80347,51.31357],[-2.80355,51.31366],[-2.80359,51.31371],[-2.80369,51.31375],[-2.80373,51.31376],[-2.8038,51.31377],[-2.80384,51.31379],[-2.80389,51.31381],[-2.80396,51.31393],[-2.80398,51.31394],[-2.80402,51.31397],[-2.80416,51.314],[-2.80432,51.31403],[-2.80442,51.31406],[-2.80451,51.3141]]}},{"type":"Feature","properties":{"ROW_TYPE":"Footpath · AX 25/13"},"geometry":{"type":"LineString","coordinates":[[-2.80117,51.31287],[-2.80118,51.31291],[-2.8012,51.31296],[-2.80119,51.313],[-2.80116,51.31305],[-2.80115,51.31312],[-2.80115,51.31316],[-2.80115,51.3132],[-2.80111,51.31324],[-2.80107,51.31328],[-2.80106,51.31331],[-2.8011,51.31342],[-2.80115,51.31354],[-2.80116,51.31364],[-2.80118,51.31371],[-2.80121,51.31377],[-2.80121,51.31385],[-2.8012,51.31392],[-2.80122,51.31397]]}},{"type":"Feature","properties":{"ROW_TYPE":"Footpath · AX 25/12"},"geometry":{"type":"LineString","coordinates":[[-2.80122,51.31397],[-2.80104,51.31397],[-2.80057,51.31397],[-2.79999,51.31396],[-2.79996,51.31391],[-2.79992,51.31388],[-2.79974,51.31379],[-2.79962,51.31374]]}},{"type":"Feature","properties":{"ROW_TYPE":"Footpath · AX 25/12"},"geometry":{"type":"LineString","coordinates":[[-2.80451,51.3141],[-2.8043,51.31414],[-2.80397,51.31411],[-2.80373,51.31406],[-2.8035,51.31403],[-2.80314,51.31401],[-2.80296,51.31401],[-2.80276,51.31402],[-2.80266,51.31401],[-2.80246,51.31396],[-2.80233,51.31395],[-2.80204,51.31395],[-2.8018,51.31394],[-2.80173,51.31399],[-2.80153,51.31399],[-2.80138,51.31401],[-2.80131,51.314],[-2.80122,51.31397]]}},{"type":"Feature","properties":{"ROW_TYPE":"Footpath · AX 25/11"},"geometry":{"type":"LineString","coordinates":[[-2.80761,51.31448],[-2.80731,51.31454],[-2.80664,51.31468],[-2.80635,51.3146],[-2.8062,51.31455],[-2.8061,51.31454],[-2.806,51.31452],[-2.80589,51.31449],[-2.80552,51.31435],[-2.80527,51.31428],[-2.80491,51.31419],[-2.80471,51.31413],[-2.80451,51.3141]]}},{"type":"Feature","properties":{"ROW_TYPE":"Footpath · AX 25/32"},"geometry":{"type":"LineString","coordinates":[[-2.8058,51.32182],[-2.80576,51.32146],[-2.80575,51.32131],[-2.80572,51.32123],[-2.80568,51.32108],[-2.80559,51.32091]]}},{"type":"Feature","properties":{"ROW_TYPE":"Footpath · AX 25/31"},"geometry":{"type":"LineString","coordinates":[[-2.80582,51.32079],[-2.80559,51.32091],[-2.80539,51.32098],[-2.80508,51.32102],[-2.80473,51.32104],[-2.80436,51.32108],[-2.804,51.32108],[-2.80382,51.32107],[-2.80362,51.32102],[-2.8035,51.321],[-2.80335,51.32102],[-2.80313,51.32103],[-2.80233,51.32103],[-2.80175,51.32102],[-2.80121,51.32101],[-2.80067,51.32101],[-2.7999,51.32101],[-2.79949,51.321],[-2.79911,51.32099],[-2.79872,51.32097],[-2.79838,51.32099]]}},{"type":"Feature","properties":{"ROW_TYPE":"Bridleway · AX 25/33"},"geometry":{"type":"LineString","coordinates":[[-2.7983,51.321],[-2.79781,51.32099],[-2.79754,51.321],[-2.79712,51.321],[-2.79681,51.32102],[-2.7964,51.32106],[-2.79584,51.32112],[-2.79539,51.32117],[-2.79516,51.32118],[-2.7949,51.32119],[-2.79461,51.32117],[-2.79425,51.32113],[-2.79395,51.3211],[-2.79339,51.32104],[-2.79329,51.32104],[-2.79272,51.32099],[-2.7924,51.32095],[-2.79216,51.3209],[-2.79195,51.32085],[-2.79179,51.32083],[-2.79141,51.32077],[-2.79118,51.32072],[-2.79099,51.32068],[-2.79077,51.32064],[-2.79054,51.32062],[-2.78992,51.32062]]}},{"type":"Feature","properties":{"ROW_TYPE":"Footpath · AX 25/34"},"geometry":{"type":"LineString","coordinates":[[-2.79871,51.31984],[-2.79813,51.3197],[-2.79784,51.31963],[-2.7974,51.31951],[-2.79727,51.31946],[-2.79706,51.31945],[-2.79687,51.31941],[-2.79649,51.31931],[-2.79612,51.31922],[-2.79579,51.31916],[-2.79553,51.31908],[-2.79544,51.31906],[-2.79528,51.31905],[-2.79517,51.31904],[-2.79506,51.31901],[-2.795,51.31893],[-2.79495,51.31886],[-2.79486,51.31879],[-2.79474,51.31875],[-2.79466,51.31872],[-2.79452,51.31863],[-2.79436,51.31856],[-2.79419,51.31848],[-2.79391,51.31838],[-2.79341,51.31824],[-2.79326,51.31819],[-2.79308,51.31815],[-2.79291,51.31808],[-2.79258,51.318],[-2.79233,51.31795],[-2.79211,51.3179],[-2.79179,51.3178],[-2.79155,51.31774],[-2.79136,51.31766],[-2.79104,51.31755],[-2.79086,51.31751],[-2.79059,51.31746]]}},{"type":"Feature","properties":{"ROW_TYPE":"Bridleway · AX 15/19"},"geometry":{"type":"LineString","coordinates":[[-2.84687,51.29981],[-2.84666,51.2998],[-2.84625,51.29983],[-2.84563,51.29986],[-2.84522,51.29988],[-2.8449,51.2999],[-2.84449,51.2999],[-2.84402,51.29992],[-2.84336,51.29998],[-2.84289,51.30002],[-2.84238,51.30007],[-2.84213,51.30009],[-2.84178,51.30013],[-2.84126,51.30016],[-2.84082,51.3002],[-2.84026,51.30023],[-2.83974,51.30025],[-2.83941,51.30027],[-2.83874,51.30031],[-2.83827,51.30033],[-2.83755,51.30037],[-2.83711,51.3004],[-2.8368,51.30039],[-2.83654,51.30041],[-2.83634,51.30042],[-2.83614,51.30045],[-2.83599,51.30046],[-2.83573,51.30046],[-2.83553,51.30045],[-2.8354,51.30044],[-2.83529,51.30044],[-2.83509,51.3005],[-2.835,51.30052],[-2.83459,51.30053],[-2.83393,51.30056],[-2.83284,51.3006],[-2.83243,51.30062],[-2.83228,51.3006],[-2.83216,51.3006],[-2.83202,51.3006],[-2.83191,51.3006],[-2.83171,51.30059],[-2.83145,51.3006],[-2.83137,51.30063],[-2.83106,51.30076]]}},{"type":"Feature","properties":{"ROW_TYPE":"Bridleway · AX 15/12"},"geometry":{"type":"LineString","coordinates":[[-2.83137,51.30063],[-2.83136,51.30058],[-2.8313,51.30037],[-2.83129,51.30026],[-2.8313,51.30018],[-2.83133,51.30012],[-2.83139,51.30007],[-2.83154,51.30004],[-2.83174,51.29999],[-2.83187,51.29995],[-2.83195,51.29991],[-2.832,51.29986],[-2.83212,51.29976],[-2.83224,51.29964],[-2.83232,51.29962],[-2.83246,51.29959],[-2.83272,51.29956],[-2.83291,51.29957],[-2.83351,51.2996],[-2.83406,51.29964],[-2.83461,51.29968],[-2.83516,51.29972],[-2.8354,51.29973],[-2.83557,51.29958],[-2.83569,51.29945],[-2.83575,51.29934],[-2.8359,51.29906],[-2.83606,51.29878],[-2.8361,51.29869],[-2.83614,51.29863],[-2.83619,51.29858],[-2.83623,51.29852],[-2.83633,51.29833],[-2.83633,51.29826],[-2.83627,51.29809],[-2.83629,51.29805],[-2.83635,51.29791],[-2.83643,51.2977],[-2.83646,51.29763],[-2.83652,51.29756],[-2.83657,51.29751],[-2.83664,51.29734],[-2.83669,51.29722],[-2.83674,51.29715],[-2.83681,51.29688],[-2.83695,51.29636],[-2.83702,51.2961],[-2.83704,51.29603],[-2.83713,51.29586],[-2.83714,51.29583],[-2.83711,51.29575],[-2.83712,51.29572],[-2.83714,51.29566],[-2.83726,51.29531],[-2.83732,51.29509],[-2.83738,51.29485],[-2.83742,51.29468],[-2.83741,51.29458],[-2.83739,51.29435],[-2.83736,51.29416],[-2.83734,51.29397],[-2.83732,51.29369],[-2.83734,51.29349],[-2.83741,51.29326],[-2.83749,51.29313],[-2.83747,51.29299],[-2.83743,51.29279],[-2.83742,51.2926],[-2.83741,51.29245],[-2.83739,51.2924],[-2.83725,51.29213],[-2.83701,51.29166],[-2.83692,51.29146],[-2.8368,51.29121],[-2.83672,51.29106],[-2.83666,51.29092],[-2.83658,51.29083],[-2.83647,51.29069],[-2.83641,51.2906],[-2.83636,51.29049],[-2.83635,51.29044],[-2.83647,51.2902],[-2.83658,51.29003],[-2.83652,51.28998],[-2.83636,51.2897],[-2.83625,51.28948],[-2.83616,51.28932],[-2.83608,51.28921]]}},{"type":"Feature","properties":{"ROW_TYPE":"Footpath · AX 1/21"},"geometry":{"type":"LineString","coordinates":[[-2.83027,51.3005],[-2.82997,51.30034],[-2.82976,51.3002],[-2.82956,51.30001],[-2.82948,51.29989],[-2.82937,51.29962],[-2.82922,51.29921],[-2.82917,51.29904],[-2.82914,51.29884],[-2.82912,51.29874],[-2.82906,51.29857],[-2.82902,51.29849],[-2.82901,51.29843],[-2.82901,51.29819],[-2.829,51.29803],[-2.82899,51.29793],[-2.82901,51.2978],[-2.82912,51.29761],[-2.82924,51.29738],[-2.82928,51.29726],[-2.82929,51.29714],[-2.8293,51.29704],[-2.82933,51.29692],[-2.82938,51.29682],[-2.82949,51.29661],[-2.82954,51.29643],[-2.82957,51.29628],[-2.82966,51.29593],[-2.82972,51.29578],[-2.82975,51.29574],[-2.82975,51.29566]]}},{"type":"Feature","properties":{"ROW_TYPE":"Bridleway · AX 29/37"},"geometry":{"type":"LineString","coordinates":[[-2.82777,51.30086],[-2.82746,51.30081],[-2.82718,51.30082],[-2.82691,51.30088]]}},{"type":"Feature","properties":{"ROW_TYPE":"Footpath · AX 1/20"},"geometry":{"type":"LineString","coordinates":[[-2.82691,51.30088],[-2.82684,51.30082],[-2.82663,51.30079],[-2.82632,51.3008],[-2.8261,51.30079],[-2.82599,51.30079]]}},{"type":"Feature","properties":{"ROW_TYPE":"Footpath · AX 1/19"},"geometry":{"type":"LineString","coordinates":[[-2.82599,51.30079],[-2.8264,51.30062],[-2.82686,51.30042],[-2.82704,51.30031],[-2.82716,51.30023],[-2.82729,51.30012],[-2.82739,51.30001],[-2.82749,51.29988],[-2.82757,51.29969],[-2.82763,51.29949],[-2.82768,51.29932],[-2.8277,51.29915],[-2.82774,51.29904],[-2.82782,51.2987],[-2.82786,51.29851],[-2.82789,51.29841],[-2.82793,51.29833],[-2.82806,51.29816],[-2.82825,51.2979],[-2.82836,51.29778],[-2.82837,51.29767],[-2.82848,51.29738],[-2.82857,51.29713],[-2.8286,51.29705]]}},{"type":"Feature","properties":{"ROW_TYPE":"Footpath · AX 1/19"},"geometry":{"type":"LineString","coordinates":[[-2.8286,51.29705],[-2.82863,51.29675],[-2.82864,51.29655],[-2.82874,51.29634],[-2.82894,51.29601],[-2.82905,51.29577],[-2.82921,51.29522],[-2.82932,51.29475],[-2.8294,51.29436],[-2.82946,51.29404],[-2.82948,51.29361],[-2.82947,51.29337]]}},{"type":"Feature","properties":{"ROW_TYPE":"Footpath · AX 29/32"},"geometry":{"type":"LineString","coordinates":[[-2.81037,51.30657],[-2.81024,51.30627],[-2.80991,51.30578],[-2.80983,51.30566]]}},{"type":"Feature","properties":{"ROW_TYPE":"Footpath · AX 25/22"},"geometry":{"type":"LineString","coordinates":[[-2.79654,51.31434],[-2.79658,51.31466],[-2.79656,51.31472],[-2.79645,51.31512],[-2.7963,51.31553]]}},{"type":"Feature","properties":{"ROW_TYPE":"Bridleway · AX 25/29"},"geometry":{"type":"LineString","coordinates":[[-2.80582,51.32079],[-2.80569,51.32068],[-2.8054,51.32026],[-2.80527,51.32014],[-2.80495,51.31981],[-2.80466,51.31957],[-2.8043,51.31939],[-2.80396,51.31922],[-2.8034,51.31895],[-2.80327,51.3189],[-2.80285,51.31869],[-2.80247,51.31849],[-2.80214,51.31833],[-2.80142,51.31793],[-2.8013,51.31789],[-2.80102,51.3178],[-2.80071,51.31767],[-2.80029,51.31748],[-2.80003,51.31735],[-2.79973,51.31719],[-2.7995,51.31707],[-2.79924,51.31694],[-2.79904,51.31684],[-2.79887,51.31672],[-2.79877,51.31661],[-2.79863,51.31646],[-2.79863,51.31641],[-2.79869,51.31629]]}},{"type":"Feature","properties":{"ROW_TYPE":"Footpath · AX 25/30"},"geometry":{"type":"LineString","coordinates":[[-2.79827,51.31685],[-2.79845,51.31688],[-2.79861,51.31692],[-2.79879,51.317],[-2.79889,51.31709],[-2.79896,51.31718],[-2.79907,51.31734],[-2.79911,51.3174],[-2.79929,51.31745],[-2.79954,51.31755],[-2.79976,51.31764],[-2.79988,51.31771],[-2.80007,51.31782],[-2.80032,51.31799],[-2.80052,51.3181],[-2.80069,51.31821],[-2.80082,51.31831],[-2.80102,51.31846],[-2.80115,51.31858],[-2.80135,51.31871],[-2.80157,51.31885],[-2.80171,51.31893],[-2.80188,51.319],[-2.80206,51.31908],[-2.80231,51.31913],[-2.80245,51.31919],[-2.80258,51.31926],[-2.80272,51.31936],[-2.80279,51.3194],[-2.80302,51.31952],[-2.80309,51.31957],[-2.80316,51.31968],[-2.80321,51.31972],[-2.80335,51.31982],[-2.80348,51.31991],[-2.80359,51.32001],[-2.80366,51.32005],[-2.80384,51.32012],[-2.804,51.32019],[-2.80406,51.32021],[-2.80409,51.32027],[-2.80422,51.32034],[-2.80457,51.3205],[-2.8048,51.32061],[-2.80492,51.32064],[-2.80496,51.3207],[-2.80499,51.32071],[-2.80506,51.32071],[-2.80511,51.32071],[-2.80517,51.32072],[-2.80532,51.32077],[-2.80546,51.32081],[-2.80557,51.32081],[-2.80578,51.3208],[-2.80582,51.32079]]}},{"type":"Feature","properties":{"ROW_TYPE":"Footpath · AX 25/18"},"geometry":{"type":"LineString","coordinates":[[-2.79396,51.31447],[-2.79379,51.31436],[-2.79361,51.31399],[-2.79354,51.31383],[-2.79355,51.31378],[-2.79356,51.31376],[-2.79335,51.31359],[-2.79324,51.31346],[-2.79316,51.3134],[-2.79305,51.31331],[-2.79291,51.31316],[-2.79289,51.31314],[-2.79289,51.31304],[-2.79281,51.31291]]}},{"type":"Feature","properties":{"ROW_TYPE":"Footpath · AX 25/18"},"geometry":{"type":"LineString","coordinates":[[-2.79281,51.31291],[-2.79277,51.31289],[-2.79273,51.31287],[-2.7927,51.31283],[-2.79268,51.31279]]}},{"type":"Feature","properties":{"ROW_TYPE":"Footpath · AX 25/20"},"geometry":{"type":"LineString","coordinates":[[-2.79268,51.31279],[-2.79257,51.31275],[-2.79253,51.31274],[-2.79244,51.31273],[-2.79228,51.31272],[-2.79223,51.31269],[-2.79219,51.31267],[-2.79216,51.31265],[-2.79208,51.31266],[-2.79203,51.31265],[-2.79194,51.31262],[-2.79187,51.31261],[-2.79178,51.31261],[-2.7916,51.31265],[-2.79147,51.31268],[-2.79118,51.3127],[-2.79097,51.31272],[-2.79087,51.31272],[-2.79072,51.31271],[-2.79059,51.31274],[-2.79038,51.31278],[-2.79017,51.31279]]}},{"type":"Feature","properties":{"ROW_TYPE":"Footpath · AX 25/20"},"geometry":{"type":"LineString","coordinates":[[-2.79017,51.31279],[-2.79005,51.31283],[-2.78991,51.31291],[-2.78981,51.31296],[-2.78974,51.31299],[-2.78973,51.31301],[-2.78977,51.31305]]}},{"type":"Feature","properties":{"ROW_TYPE":"Footpath · AX 25/21"},"geometry":{"type":"LineString","coordinates":[[-2.79306,51.31168],[-2.79279,51.31161],[-2.79264,51.31157],[-2.79253,51.31157],[-2.79239,51.31155],[-2.79224,51.31151],[-2.79207,51.31146],[-2.79187,51.31142],[-2.79158,51.31139],[-2.79134,51.31138],[-2.79112,51.31138],[-2.79096,51.31141],[-2.79079,51.31144],[-2.79062,51.31152],[-2.79059,51.3116],[-2.79059,51.31173],[-2.79063,51.31187],[-2.7907,51.31201],[-2.79082,51.31222],[-2.79086,51.31231],[-2.79084,51.31242],[-2.79077,51.3125],[-2.7907,51.31256],[-2.79047,51.31266],[-2.79017,51.31279]]}},{"type":"Feature","properties":{"ROW_TYPE":"Footpath · AX 25/6"},"geometry":{"type":"LineString","coordinates":[[-2.79073,51.31422],[-2.79025,51.31391],[-2.79011,51.31378],[-2.78997,51.31364],[-2.78992,51.31353],[-2.78988,51.31345],[-2.78988,51.31337],[-2.78988,51.31326],[-2.78977,51.31305]]}},{"type":"Feature","properties":{"ROW_TYPE":"Bridleway · AX 25/1"},"geometry":{"type":"LineString","coordinates":[[-2.79073,51.31422],[-2.79049,51.31418],[-2.79017,51.31413],[-2.78938,51.31404],[-2.78869,51.31397],[-2.788,51.31386],[-2.7876,51.31379],[-2.78746,51.31376],[-2.78718,51.31373],[-2.78704,51.31372],[-2.78635,51.3137],[-2.78599,51.31367],[-2.78572,51.31364],[-2.78434,51.31353],[-2.78332,51.31347],[-2.78308,51.31346],[-2.78296,51.31347]]}},{"type":"Feature","properties":{"ROW_TYPE":"Bridleway · AX 25/47"},"geometry":{"type":"LineString","coordinates":[[-2.78912,51.31853],[-2.78904,51.31846],[-2.78888,51.31818],[-2.78877,51.31806],[-2.78864,51.31794],[-2.78843,51.31779],[-2.7881,51.31758],[-2.788,51.31749],[-2.78787,51.31735],[-2.78773,51.31718],[-2.78749,51.31694],[-2.78731,51.31678],[-2.78709,51.31664],[-2.78691,51.31653],[-2.7866,51.31637],[-2.78627,51.31621],[-2.78598,51.31604],[-2.78553,51.31575],[-2.78519,51.31553],[-2.78478,51.31527],[-2.78438,51.31499],[-2.78417,51.31485],[-2.78399,51.31474],[-2.78384,51.31461],[-2.78381,51.31458]]}},{"type":"Feature","properties":{"ROW_TYPE":"Bridleway · AX 25/47"},"geometry":{"type":"LineString","coordinates":[[-2.78382,51.31458],[-2.78362,51.3143],[-2.78334,51.31398],[-2.7832,51.3138],[-2.78296,51.31346]]}},{"type":"Feature","properties":{"ROW_TYPE":"Bridleway · AX 25/2"},"geometry":{"type":"LineString","coordinates":[[-2.78296,51.31347],[-2.78269,51.31332],[-2.78198,51.31305],[-2.78107,51.31274],[-2.78056,51.31254],[-2.78033,51.31245],[-2.78013,51.31244],[-2.78,51.31243]]}},{"type":"Feature","properties":{"ROW_TYPE":"Bridleway · AX 25/8"},"geometry":{"type":"LineString","coordinates":[[-2.78296,51.31346],[-2.7829,51.31338],[-2.78281,51.31325],[-2.78266,51.31314],[-2.78257,51.31306],[-2.78237,51.3128],[-2.78213,51.31255],[-2.78196,51.31238],[-2.78179,51.31222],[-2.78169,51.31212],[-2.78147,51.31177],[-2.7814,51.31162],[-2.7814,51.31146],[-2.7814,51.31135],[-2.78136,51.3113],[-2.78125,51.31121],[-2.78107,51.31108],[-2.78039,51.31064],[-2.77994,51.31034],[-2.7797,51.31019],[-2.77951,51.31002],[-2.77944,51.30994],[-2.77926,51.30972],[-2.77897,51.30933],[-2.77882,51.30916],[-2.77876,51.30909],[-2.77865,51.30899],[-2.77848,51.30881],[-2.77838,51.30873],[-2.77808,51.30851],[-2.77773,51.30825],[-2.77753,51.30811],[-2.77747,51.30807],[-2.77737,51.30799],[-2.77712,51.30778],[-2.77687,51.30757],[-2.77682,51.3075]]}},{"type":"Feature","properties":{"ROW_TYPE":"Bridleway · AX 25/8"},"geometry":{"type":"LineString","coordinates":[[-2.77682,51.3075],[-2.77665,51.30736],[-2.77654,51.30723],[-2.77636,51.30702],[-2.77623,51.30685],[-2.77621,51.30682]]}},{"type":"Feature","properties":{"ROW_TYPE":"Footpath · AX 25/7"},"geometry":{"type":"LineString","coordinates":[[-2.78977,51.31305],[-2.78963,51.313],[-2.78942,51.31297],[-2.78884,51.31285],[-2.78872,51.31279],[-2.7885,51.31265],[-2.7884,51.31257],[-2.78836,51.31251],[-2.78837,51.31233],[-2.78834,51.31223],[-2.78821,51.31213],[-2.78811,51.31207],[-2.78749,51.31183],[-2.78699,51.31164],[-2.78672,51.31151],[-2.78645,51.31135],[-2.78619,51.31118],[-2.78614,51.31117],[-2.78602,51.31113],[-2.78585,51.31109],[-2.78579,51.31106],[-2.78574,51.31103],[-2.78536,51.31094],[-2.78524,51.3109],[-2.78498,51.31078],[-2.78491,51.31075],[-2.78462,51.31068],[-2.78453,51.31065],[-2.78423,51.31053],[-2.78406,51.31049],[-2.78395,51.31043],[-2.78382,51.31038],[-2.78353,51.31029],[-2.78324,51.31021],[-2.78306,51.31015],[-2.78289,51.31007],[-2.78251,51.30992],[-2.7823,51.30983],[-2.78215,51.30975],[-2.78204,51.30969],[-2.78199,51.30964],[-2.78192,51.30956],[-2.78172,51.30942],[-2.78149,51.30931],[-2.78109,51.30912],[-2.78094,51.30905],[-2.7807,51.30897],[-2.78058,51.30891],[-2.78042,51.30881],[-2.78015,51.30868],[-2.77999,51.30862],[-2.77978,51.30856],[-2.77951,51.3085],[-2.77932,51.30846],[-2.77901,51.30838],[-2.77874,51.3083],[-2.77851,51.30821],[-2.77824,51.3081],[-2.77784,51.30795],[-2.7775,51.3078],[-2.77712,51.30764],[-2.77697,51.30757],[-2.77682,51.3075]]}},{"type":"Feature","properties":{"ROW_TYPE":"Bridleway · AX 25/40"},"geometry":{"type":"LineString","coordinates":[[-2.7893,51.31922],[-2.78895,51.3193],[-2.78806,51.31956],[-2.78783,51.31959],[-2.78759,51.31962],[-2.7875,51.31966],[-2.78744,51.31967],[-2.78741,51.31968],[-2.78737,51.31968]]}},{"type":"Feature","properties":{"ROW_TYPE":"Bridleway · AX 25/40"},"geometry":{"type":"LineString","coordinates":[[-2.78737,51.31968],[-2.78731,51.31969],[-2.78722,51.3197],[-2.78714,51.31971],[-2.787,51.31975],[-2.78685,51.31979],[-2.78677,51.31981],[-2.78669,51.31982],[-2.78656,51.31983],[-2.78637,51.3198],[-2.78604,51.31974],[-2.78584,51.31969],[-2.78555,51.31959],[-2.78536,51.31951],[-2.78523,51.31945],[-2.78505,51.31941],[-2.78486,51.31937],[-2.78473,51.31934],[-2.78457,51.3193]]}},{"type":"Feature","properties":{"ROW_TYPE":"Bridleway · AX 25/41"},"geometry":{"type":"LineString","coordinates":[[-2.78505,51.31976],[-2.78503,51.31973],[-2.78496,51.31965],[-2.78479,51.31949],[-2.78469,51.31939],[-2.78457,51.3193]]}},{"type":"Feature","properties":{"ROW_TYPE":"Bridleway · AX 25/41"},"geometry":{"type":"LineString","coordinates":[[-2.78457,51.3193],[-2.78438,51.31919],[-2.78414,51.31908],[-2.7838,51.31894],[-2.78355,51.31885],[-2.78346,51.31882],[-2.78332,51.3188],[-2.78315,51.31874],[-2.78306,51.3187],[-2.783,51.31867],[-2.78294,51.31862],[-2.78288,51.31855],[-2.78281,51.31839],[-2.78278,51.31832],[-2.78274,51.31828]]}},{"type":"Feature","properties":{"ROW_TYPE":"Bridleway · AX 25/39"},"geometry":{"type":"LineString","coordinates":[[-2.78505,51.31976],[-2.78487,51.31972],[-2.7846,51.31966],[-2.78436,51.31961],[-2.78411,51.31956],[-2.7838,51.3195],[-2.78359,51.31946],[-2.78338,51.31942],[-2.78329,51.3194],[-2.7832,51.31934],[-2.78306,51.31927],[-2.78301,51.31922],[-2.78294,51.3191],[-2.78288,51.31902],[-2.78283,51.3189],[-2.78282,51.31885],[-2.78279,51.3188],[-2.78276,51.31875],[-2.78272,51.31869],[-2.78271,51.31856],[-2.78271,51.31839],[-2.78274,51.31828]]}},{"type":"Feature","properties":{"ROW_TYPE":"Bridleway · AX 25/39"},"geometry":{"type":"LineString","coordinates":[[-2.78274,51.31828],[-2.78275,51.3182],[-2.78273,51.318],[-2.78271,51.31782],[-2.7827,51.31768],[-2.78268,51.31762],[-2.78266,51.31753],[-2.78261,51.31744],[-2.78257,51.31737],[-2.78251,51.31715],[-2.78247,51.3171],[-2.7824,51.31699],[-2.78223,51.31668],[-2.78209,51.31646],[-2.78198,51.3163],[-2.78184,51.31611],[-2.78162,51.31587],[-2.7815,51.31575],[-2.78139,51.31563],[-2.78125,51.31549],[-2.78112,51.31535],[-2.781,51.3152],[-2.78085,51.31502],[-2.78075,51.31481],[-2.78066,51.31463],[-2.78065,51.31455],[-2.78067,51.3145],[-2.78084,51.31417],[-2.78087,51.3141],[-2.7809,51.31404],[-2.78092,51.31395],[-2.78091,51.31384],[-2.7809,51.31368],[-2.78089,51.31346],[-2.78088,51.31342],[-2.78086,51.31338],[-2.78076,51.31321],[-2.78064,51.31302],[-2.78057,51.31291],[-2.78049,51.31282],[-2.7803,51.31267],[-2.78,51.31243]]}},{"type":"Feature","properties":{"ROW_TYPE":"Bridleway · AX 25/5"},"geometry":{"type":"LineString","coordinates":[[-2.78,51.31243],[-2.7799,51.31249],[-2.77986,51.31254],[-2.77983,51.31262],[-2.77984,51.31266],[-2.77999,51.31285],[-2.78005,51.31291],[-2.78007,51.31299],[-2.78006,51.31302],[-2.78003,51.31308],[-2.77998,51.31315],[-2.77977,51.31331],[-2.77964,51.31339],[-2.77952,51.31347],[-2.77935,51.31358],[-2.77925,51.31365],[-2.77908,51.31379],[-2.77892,51.3139],[-2.77873,51.31408],[-2.77868,51.31412],[-2.77862,51.31417],[-2.77845,51.31426],[-2.77802,51.31449],[-2.77793,51.31451],[-2.77788,51.31452],[-2.77784,51.31452],[-2.77772,51.3145],[-2.77761,51.31449],[-2.77709,51.31441],[-2.77692,51.31439],[-2.77686,51.31438],[-2.77644,51.31442],[-2.77622,51.31443],[-2.77613,51.31444],[-2.77597,51.31445],[-2.77574,51.31446],[-2.77542,51.31444],[-2.77514,51.31443],[-2.77495,51.31442],[-2.77475,51.31439],[-2.77442,51.31431],[-2.77397,51.3142],[-2.77378,51.31416],[-2.77359,51.31414]]}},{"type":"Feature","properties":{"ROW_TYPE":"Bridleway · AX 25/5"},"geometry":{"type":"LineString","coordinates":[[-2.77359,51.31414],[-2.77338,51.31412],[-2.77321,51.31409],[-2.77305,51.31405],[-2.77266,51.31394],[-2.77238,51.31388],[-2.77217,51.31383],[-2.77196,51.3138],[-2.77144,51.31374],[-2.77105,51.3137],[-2.77073,51.31366],[-2.77036,51.31361],[-2.77004,51.31357],[-2.76995,51.31356],[-2.76981,51.31352],[-2.76959,51.31345],[-2.7694,51.31341],[-2.76934,51.31339],[-2.76916,51.31338],[-2.76894,51.31335],[-2.76844,51.31335],[-2.7682,51.31336],[-2.76799,51.31335],[-2.76791,51.31334],[-2.76772,51.31335],[-2.76759,51.31336],[-2.76738,51.31334],[-2.76696,51.31341],[-2.76656,51.31346],[-2.76641,51.31348],[-2.76602,51.3135],[-2.7657,51.3135],[-2.7655,51.3135],[-2.76539,51.31349],[-2.76525,51.31347]]}},{"type":"Feature","properties":{"ROW_TYPE":"Bridleway · AX 25/5"},"geometry":{"type":"LineString","coordinates":[[-2.76525,51.31347],[-2.76511,51.31347],[-2.76448,51.31341],[-2.76421,51.31339],[-2.76361,51.31337]]}},{"type":"Feature","properties":{"ROW_TYPE":"Bridleway · AX 25/3"},"geometry":{"type":"LineString","coordinates":[[-2.78,51.31243],[-2.78001,51.31241],[-2.7799,51.31222],[-2.77989,51.31218],[-2.77987,51.31215],[-2.77968,51.31203],[-2.77954,51.31194],[-2.77941,51.31185],[-2.77928,51.31176],[-2.77916,51.31166],[-2.77898,51.31151],[-2.77881,51.31137],[-2.7786,51.3112],[-2.77834,51.31103],[-2.77813,51.3109],[-2.77772,51.3106],[-2.77746,51.31042],[-2.77716,51.31025],[-2.77698,51.31012],[-2.77674,51.31002],[-2.77658,51.30996],[-2.77639,51.30991],[-2.77618,51.30986],[-2.77599,51.30982],[-2.77577,51.30979],[-2.77551,51.30976],[-2.7753,51.30973],[-2.77512,51.30965],[-2.77499,51.3096],[-2.77479,51.30954],[-2.77468,51.30943],[-2.77458,51.30938],[-2.77448,51.30936],[-2.77414,51.30922],[-2.77387,51.30912],[-2.77371,51.30906],[-2.77347,51.30893],[-2.77315,51.30883],[-2.77296,51.30878],[-2.77252,51.30866],[-2.77231,51.30861],[-2.77212,51.30857],[-2.77144,51.3084],[-2.77104,51.3083],[-2.7705,51.30819],[-2.77035,51.30818],[-2.7702,51.30817],[-2.76968,51.30802],[-2.76937,51.30797],[-2.7692,51.30794],[-2.76872,51.30783],[-2.76823,51.30765],[-2.76801,51.30759],[-2.76775,51.30755],[-2.76742,51.3075],[-2.7673,51.30747],[-2.76711,51.30744],[-2.76697,51.30742]]}},{"type":"Feature","properties":{"ROW_TYPE":"Bridleway · AX 13/21"},"geometry":{"type":"LineString","coordinates":[[-2.76161,51.30501],[-2.76146,51.30513],[-2.76138,51.30519],[-2.76133,51.30522]]}},{"type":"Feature","properties":{"ROW_TYPE":"Bridleway · AX 13/21"},"geometry":{"type":"LineString","coordinates":[[-2.76133,51.30522],[-2.76115,51.30533],[-2.7608,51.30584],[-2.76017,51.30667]]}},{"type":"Feature","properties":{"ROW_TYPE":"Bridleway · AX 13/21"},"geometry":{"type":"LineString","coordinates":[[-2.76017,51.30667],[-2.75934,51.30777],[-2.75908,51.30812],[-2.759,51.30823],[-2.75899,51.30828]]}},{"type":"Feature","properties":{"ROW_TYPE":"Footpath · AX 13/23"},"geometry":{"type":"LineString","coordinates":[[-2.7665,51.29956],[-2.76639,51.29933],[-2.76626,51.29909],[-2.76612,51.2988],[-2.76601,51.29858],[-2.76588,51.29829],[-2.76576,51.298],[-2.76566,51.29776],[-2.76557,51.29754],[-2.76543,51.29725],[-2.76537,51.29712],[-2.76533,51.29704],[-2.76531,51.29699],[-2.76522,51.29688],[-2.76505,51.29666],[-2.76488,51.29643],[-2.76477,51.29629],[-2.76465,51.29612],[-2.76452,51.29595],[-2.76444,51.29584],[-2.76439,51.29578],[-2.76437,51.29578],[-2.76435,51.29578],[-2.76377,51.29598],[-2.76343,51.2961],[-2.76342,51.2961],[-2.76341,51.29609],[-2.76332,51.29586],[-2.76322,51.29561],[-2.76313,51.2954],[-2.76305,51.2952],[-2.763,51.29506],[-2.76294,51.29492],[-2.76285,51.29471],[-2.7628,51.29457],[-2.76273,51.29439],[-2.76267,51.29423],[-2.76262,51.29406],[-2.76256,51.29389],[-2.76245,51.29354],[-2.76239,51.29346],[-2.76236,51.29338],[-2.7623,51.29316],[-2.7622,51.29288],[-2.7622,51.29287],[-2.76219,51.29282],[-2.76219,51.2928],[-2.76217,51.29275],[-2.76218,51.29274],[-2.76228,51.29271],[-2.76299,51.29252],[-2.76335,51.29241],[-2.76383,51.29228],[-2.76411,51.2922],[-2.76441,51.29211],[-2.76469,51.29203],[-2.76487,51.29198],[-2.76513,51.2919],[-2.76545,51.29181],[-2.76572,51.29173],[-2.76618,51.2916],[-2.76645,51.29152],[-2.76721,51.2913],[-2.76725,51.29129],[-2.7673,51.29129],[-2.76788,51.29123],[-2.76822,51.29118],[-2.76838,51.29116],[-2.76871,51.29114],[-2.76903,51.29111],[-2.76933,51.29109],[-2.76988,51.29104],[-2.77012,51.29102],[-2.77014,51.29102],[-2.77016,51.29101],[-2.7702,51.29091],[-2.77023,51.29076],[-2.77028,51.29056],[-2.77032,51.2904],[-2.7704,51.29006],[-2.77047,51.28975],[-2.77052,51.28955],[-2.77054,51.28949],[-2.77054,51.28948],[-2.77049,51.28945],[-2.77044,51.28941],[-2.77044,51.28941],[-2.77092,51.28877],[-2.77112,51.28852]]}},{"type":"Feature","properties":{"ROW_TYPE":"Footpath · AX 1/20"},"geometry":{"type":"LineString","coordinates":[[-2.82599,51.30079],[-2.82539,51.30078],[-2.82491,51.30077],[-2.82467,51.30076],[-2.82451,51.30077],[-2.82414,51.30082],[-2.82334,51.30087],[-2.82274,51.3009],[-2.82243,51.30092],[-2.82228,51.30093],[-2.82215,51.30096],[-2.82199,51.30102],[-2.82188,51.30105],[-2.82181,51.30106],[-2.82174,51.30106],[-2.82158,51.30101],[-2.82136,51.30096],[-2.82084,51.30082],[-2.82071,51.30082],[-2.82058,51.30082],[-2.82042,51.30085],[-2.81993,51.30095],[-2.81983,51.30096],[-2.81972,51.30095],[-2.81913,51.30087],[-2.81907,51.30087],[-2.81885,51.30089],[-2.81827,51.30099],[-2.81736,51.30106],[-2.81625,51.30116],[-2.8152,51.30121],[-2.81423,51.30125],[-2.81361,51.30128],[-2.8133,51.30129],[-2.81264,51.30127],[-2.81175,51.30131]]}},{"type":"Feature","properties":{"ROW_TYPE":"Footpath · AX 13/7"},"geometry":{"type":"LineString","coordinates":[[-2.80695,51.30194],[-2.80687,51.30192],[-2.80693,51.30204],[-2.80721,51.30302],[-2.80743,51.30378],[-2.80744,51.30391],[-2.80738,51.304],[-2.80723,51.30407],[-2.80528,51.30424],[-2.80505,51.30416],[-2.8048,51.30412],[-2.80437,51.30408],[-2.80384,51.30406],[-2.80261,51.3042],[-2.8024,51.30425],[-2.80076,51.30421],[-2.80041,51.30395],[-2.80036,51.30385],[-2.80019,51.30226],[-2.80016,51.30203],[-2.80016,51.30199],[-2.79952,51.30201],[-2.79935,51.30202],[-2.79914,51.30205],[-2.79885,51.30212],[-2.79842,51.30222],[-2.79821,51.30225],[-2.79815,51.30226],[-2.79799,51.30232],[-2.79789,51.30234],[-2.79747,51.30243],[-2.79718,51.30247],[-2.79688,51.30252],[-2.79658,51.30257],[-2.79605,51.30266],[-2.79587,51.30269]]}},{"type":"Feature","properties":{"ROW_TYPE":"Footpath · AX 13/6"},"geometry":{"type":"LineString","coordinates":[[-2.80687,51.30192],[-2.80686,51.30183],[-2.80682,51.30125],[-2.80676,51.30062],[-2.80671,51.29997],[-2.80669,51.29977],[-2.80667,51.29966],[-2.80666,51.29951],[-2.80661,51.29898],[-2.80658,51.29869],[-2.80652,51.29801],[-2.80649,51.2978],[-2.80648,51.2973],[-2.80645,51.29715],[-2.80645,51.29709]]}},{"type":"Feature","properties":{"ROW_TYPE":"Footpath · AX 13/6"},"geometry":{"type":"LineString","coordinates":[[-2.80645,51.29709],[-2.80643,51.29669],[-2.80635,51.29586],[-2.80632,51.29529]]}},{"type":"Feature","properties":{"ROW_TYPE":"Footpath · AX 1/10"},"geometry":{"type":"LineString","coordinates":[[-2.80627,51.2924],[-2.80624,51.29248],[-2.80623,51.29256],[-2.80622,51.29263],[-2.80624,51.2928],[-2.80625,51.29293],[-2.80628,51.29299],[-2.80633,51.29309],[-2.80635,51.29314],[-2.80642,51.29338],[-2.80649,51.29361],[-2.80651,51.29371],[-2.80652,51.29377],[-2.8065,51.29382],[-2.80642,51.29398],[-2.8063,51.29422],[-2.80621,51.2944],[-2.80616,51.29454],[-2.80616,51.29465],[-2.80619,51.29473],[-2.80625,51.29489],[-2.80632,51.29506],[-2.80636,51.29516],[-2.80636,51.29521],[-2.80636,51.29524],[-2.80638,51.29528]]}},{"type":"Feature","properties":{"ROW_TYPE":"Footpath · AX 13/13"},"geometry":{"type":"LineString","coordinates":[[-2.78496,51.29214],[-2.78511,51.29233],[-2.78527,51.29257],[-2.78542,51.29273],[-2.78547,51.29284],[-2.78548,51.29292],[-2.7855,51.29304],[-2.78551,51.29312],[-2.78556,51.29319],[-2.78562,51.29327],[-2.78566,51.29339],[-2.78576,51.29358],[-2.78585,51.29385],[-2.78599,51.29407],[-2.7861,51.29427],[-2.78623,51.29448],[-2.78634,51.29463],[-2.78647,51.29478],[-2.78654,51.29489],[-2.78662,51.29499],[-2.7867,51.29509],[-2.78674,51.29512],[-2.78678,51.29515],[-2.78683,51.29517],[-2.78685,51.29519],[-2.78687,51.29523],[-2.78691,51.29531],[-2.78693,51.29534],[-2.78698,51.29539],[-2.78704,51.29543],[-2.78709,51.29551]]}},{"type":"Feature","properties":{"ROW_TYPE":"Footpath · AX 13/13"},"geometry":{"type":"LineString","coordinates":[[-2.78709,51.29551],[-2.78674,51.29566],[-2.7865,51.29578],[-2.78624,51.29586],[-2.78617,51.29588],[-2.78614,51.29591],[-2.78605,51.29598]]}},{"type":"Feature","properties":{"ROW_TYPE":"Footpath · AX 13/13"},"geometry":{"type":"LineString","coordinates":[[-2.78605,51.29598],[-2.78612,51.29618],[-2.78622,51.2964],[-2.78634,51.2966],[-2.7864,51.29665],[-2.78658,51.29682],[-2.78662,51.29685],[-2.78675,51.29688],[-2.78687,51.29689]]}},{"type":"Feature","properties":{"ROW_TYPE":"Footpath · AX 13/13"},"geometry":{"type":"LineString","coordinates":[[-2.78687,51.29689],[-2.78744,51.29686],[-2.78775,51.29685],[-2.78798,51.29686]]}},{"type":"Feature","properties":{"ROW_TYPE":"Footpath · AX 13/13"},"geometry":{"type":"LineString","coordinates":[[-2.78798,51.29686],[-2.78818,51.29704],[-2.78822,51.29707],[-2.78827,51.29716],[-2.78835,51.29731],[-2.78842,51.29743],[-2.78849,51.2976],[-2.78855,51.29774],[-2.78861,51.2978],[-2.78866,51.29788],[-2.78874,51.29796],[-2.78882,51.29803],[-2.7889,51.2981],[-2.78899,51.29817],[-2.78912,51.29823],[-2.78927,51.2983],[-2.78936,51.29841],[-2.78955,51.29851],[-2.78969,51.29859],[-2.7898,51.29866],[-2.7899,51.29881]]}},{"type":"Feature","properties":{"ROW_TYPE":"Footpath · AX 13/8A"},"geometry":{"type":"LineString","coordinates":[[-2.79197,51.29869],[-2.79187,51.29883],[-2.79182,51.2989],[-2.79175,51.29899],[-2.7917,51.29906],[-2.79174,51.2993],[-2.79175,51.29943],[-2.79175,51.29948]]}},{"type":"Feature","properties":{"ROW_TYPE":"Footpath · AX 13/8A"},"geometry":{"type":"LineString","coordinates":[[-2.79175,51.29948],[-2.7917,51.29953],[-2.79163,51.29963],[-2.79161,51.29968],[-2.79155,51.29975]]}},{"type":"Feature","properties":{"ROW_TYPE":"Footpath · AX 13/8"},"geometry":{"type":"LineString","coordinates":[[-2.79197,51.29869],[-2.79173,51.29857],[-2.79152,51.29839],[-2.79135,51.29818],[-2.79093,51.29774]]}},{"type":"Feature","properties":{"ROW_TYPE":"Footpath · AX 13/8"},"geometry":{"type":"LineString","coordinates":[[-2.79093,51.29774],[-2.79087,51.29758],[-2.79075,51.29734],[-2.7907,51.29723],[-2.79068,51.29713],[-2.79067,51.29699],[-2.79065,51.29689],[-2.7906,51.29668],[-2.79062,51.29652],[-2.79058,51.29617],[-2.79058,51.29595],[-2.79057,51.29582],[-2.79057,51.29575],[-2.79059,51.29562],[-2.79058,51.2954],[-2.79061,51.2952],[-2.79064,51.29505],[-2.79085,51.2948],[-2.79103,51.29467],[-2.79118,51.29453],[-2.7914,51.2943],[-2.79148,51.29423],[-2.79175,51.29411],[-2.79222,51.29388],[-2.79251,51.29377],[-2.7927,51.2937],[-2.79282,51.29363],[-2.79292,51.29354],[-2.793,51.29345],[-2.7932,51.29333],[-2.79341,51.29316],[-2.79349,51.2931],[-2.79368,51.29298],[-2.79385,51.2929],[-2.79396,51.29282],[-2.79411,51.29264],[-2.79427,51.29237]]}},{"type":"Feature","properties":{"ROW_TYPE":"Footpath · AX 13/10"},"geometry":{"type":"LineString","coordinates":[[-2.78886,51.29546],[-2.78882,51.29523],[-2.78886,51.29498],[-2.78907,51.29465],[-2.78916,51.29443],[-2.78923,51.2942],[-2.78923,51.294],[-2.78924,51.29389]]}},{"type":"Feature","properties":{"ROW_TYPE":"Bridleway · AX 13/16"},"geometry":{"type":"LineString","coordinates":[[-2.78099,51.29323],[-2.78082,51.2936],[-2.78073,51.2938],[-2.78063,51.29401],[-2.78038,51.29441],[-2.78025,51.29463],[-2.78012,51.29489],[-2.77992,51.29518],[-2.77977,51.29535],[-2.77959,51.29553],[-2.77927,51.29579],[-2.77902,51.29599],[-2.77872,51.29619],[-2.7784,51.29639],[-2.77811,51.29653],[-2.77776,51.29669],[-2.77735,51.29686],[-2.77703,51.297],[-2.77657,51.29717],[-2.77612,51.29733],[-2.77568,51.29746],[-2.77524,51.29756],[-2.77464,51.29767],[-2.77418,51.29775],[-2.77403,51.29779]]}},{"type":"Feature","properties":{"ROW_TYPE":"Bridleway · AX 13/16"},"geometry":{"type":"LineString","coordinates":[[-2.77403,51.29779],[-2.76985,51.29835]]}},{"type":"Feature","properties":{"ROW_TYPE":"Restricted Byway · AX 13/105"},"geometry":{"type":"LineString","coordinates":[[-2.7665,51.29956],[-2.76684,51.29935],[-2.76729,51.29911],[-2.76773,51.29886],[-2.76821,51.29866],[-2.76828,51.29863],[-2.76845,51.29859],[-2.76895,51.2985],[-2.76979,51.29836],[-2.76985,51.29835]]}},{"type":"Feature","properties":{"ROW_TYPE":"Restricted Byway · AX 13/105"},"geometry":{"type":"LineString","coordinates":[[-2.7665,51.29956],[-2.7661,51.29995]]}},{"type":"Feature","properties":{"ROW_TYPE":"Footpath · AX 13/92"},"geometry":{"type":"LineString","coordinates":[[-2.76611,51.29995],[-2.76558,51.29985],[-2.76468,51.29968],[-2.76367,51.29948],[-2.76255,51.29926],[-2.76209,51.29918],[-2.7615,51.29912],[-2.76087,51.29908],[-2.76002,51.29901],[-2.75991,51.29902],[-2.75984,51.29903],[-2.7597,51.29902],[-2.75947,51.29897],[-2.75917,51.29893],[-2.75884,51.2989],[-2.75871,51.29891],[-2.75858,51.29891],[-2.75841,51.29892],[-2.75831,51.29893],[-2.75824,51.29893],[-2.75807,51.29889],[-2.75764,51.29881],[-2.75732,51.29876],[-2.75704,51.29874],[-2.75641,51.29869],[-2.75567,51.29867],[-2.75531,51.29863],[-2.75474,51.29857],[-2.75418,51.2985],[-2.75352,51.29844],[-2.75332,51.29843],[-2.75307,51.2984],[-2.75256,51.29834],[-2.75198,51.29826],[-2.75155,51.29819]]}},{"type":"Feature","properties":{"ROW_TYPE":"Restricted Byway · AX 13/105"},"geometry":{"type":"LineString","coordinates":[[-2.76611,51.29995],[-2.76504,51.30111],[-2.76457,51.30166],[-2.76428,51.30201],[-2.76395,51.30242],[-2.7637,51.30274]]}},{"type":"Feature","properties":{"ROW_TYPE":"Footpath · AX 1/14"},"geometry":{"type":"LineString","coordinates":[[-2.8157,51.29162],[-2.81574,51.2917],[-2.81578,51.29207],[-2.81582,51.29256],[-2.81586,51.29272],[-2.81586,51.29306],[-2.81581,51.29343],[-2.81576,51.29375],[-2.81568,51.29438],[-2.8156,51.29501],[-2.81554,51.29532],[-2.81544,51.29591],[-2.81531,51.29641],[-2.81516,51.29699],[-2.81501,51.29731],[-2.81479,51.29776],[-2.81457,51.29818],[-2.81418,51.29892],[-2.81384,51.29959],[-2.81372,51.29982],[-2.81366,51.29991],[-2.81362,51.29994],[-2.81271,51.30064],[-2.81175,51.30131]]}},{"type":"Feature","properties":{"ROW_TYPE":"Footpath · AX 1/15"},"geometry":{"type":"LineString","coordinates":[[-2.81435,51.29185],[-2.81405,51.29179],[-2.81395,51.29179],[-2.81376,51.29179],[-2.81358,51.29179],[-2.81336,51.29177],[-2.81306,51.29175],[-2.81278,51.29175],[-2.81261,51.29177],[-2.81235,51.29184],[-2.81216,51.29189],[-2.81199,51.2919],[-2.81177,51.29192],[-2.81155,51.29197],[-2.81124,51.29202],[-2.81059,51.29217],[-2.81009,51.29228],[-2.80989,51.29234],[-2.80977,51.29239],[-2.8096,51.2925],[-2.80931,51.2927],[-2.80891,51.29297],[-2.80869,51.29312],[-2.80862,51.29319],[-2.80846,51.29341],[-2.80836,51.29354],[-2.80833,51.29365],[-2.80823,51.2937],[-2.80801,51.29386],[-2.8077,51.29406],[-2.80737,51.29431],[-2.80717,51.29452],[-2.80691,51.29482],[-2.80676,51.29498],[-2.80663,51.29511],[-2.80653,51.29521],[-2.80647,51.29525],[-2.80638,51.29528]]}},{"type":"Feature","properties":{"ROW_TYPE":"Bridleway · AX 29/37"},"geometry":{"type":"LineString","coordinates":[[-2.80999,51.30564],[-2.80983,51.30566]]}},{"type":"Feature","properties":{"ROW_TYPE":"Bridleway · AX 29/37"},"geometry":{"type":"LineString","coordinates":[[-2.80983,51.30566],[-2.80939,51.30571],[-2.80832,51.30589],[-2.80823,51.3059]]}},{"type":"Feature","properties":{"ROW_TYPE":"Bridleway · AX 29/37"},"geometry":{"type":"LineString","coordinates":[[-2.80823,51.3059],[-2.80764,51.30599],[-2.80722,51.30606],[-2.80681,51.30611],[-2.80636,51.30617],[-2.80612,51.30618],[-2.80576,51.3062],[-2.80536,51.30625],[-2.80511,51.30627],[-2.80469,51.30629],[-2.80423,51.30633],[-2.80401,51.30635],[-2.80332,51.30641],[-2.80254,51.30647],[-2.80223,51.30646],[-2.80198,51.30645],[-2.80161,51.30642],[-2.80111,51.30635],[-2.80068,51.3063],[-2.79998,51.30622],[-2.79951,51.30617],[-2.79888,51.30609],[-2.79861,51.30604],[-2.79825,51.30596],[-2.79758,51.30586],[-2.79736,51.30583],[-2.79708,51.30582],[-2.79691,51.30581]]}},{"type":"Feature","properties":{"ROW_TYPE":"Footpath · AX 25/19"},"geometry":{"type":"LineString","coordinates":[[-2.79268,51.31279],[-2.79273,51.31275],[-2.79283,51.3127],[-2.79286,51.31268],[-2.79288,51.31265],[-2.79292,51.31254],[-2.79293,51.3125],[-2.7929,51.3124],[-2.79288,51.31234],[-2.79287,51.31229],[-2.79291,51.31225],[-2.79297,51.3122],[-2.79309,51.31208],[-2.7931,51.31204],[-2.79311,51.31193],[-2.7931,51.31185],[-2.79306,51.31173],[-2.79305,51.3117],[-2.79306,51.31168]]}},{"type":"Feature","properties":{"ROW_TYPE":"Footpath · AX 1/20"},"geometry":{"type":"LineString","coordinates":[[-2.81175,51.30131],[-2.81113,51.30136],[-2.81034,51.3014],[-2.80939,51.30153],[-2.8079,51.30179],[-2.80702,51.30193],[-2.80695,51.30194]]}},{"type":"Feature","properties":{"ROW_TYPE":"Footpath · AX 1/15"},"geometry":{"type":"LineString","coordinates":[[-2.80638,51.29528],[-2.80636,51.29528]]}},{"type":"Feature","properties":{"ROW_TYPE":"Footpath · AX 1/15"},"geometry":{"type":"LineString","coordinates":[[-2.80636,51.29528],[-2.80632,51.29529]]}},{"type":"Feature","properties":{"ROW_TYPE":"Bridleway · AX 25/8"},"geometry":{"type":"LineString","coordinates":[[-2.77621,51.30682],[-2.77621,51.30681]]}},{"type":"Feature","properties":{"ROW_TYPE":"Restricted Byway · AX 13/104"},"geometry":{"type":"LineString","coordinates":[[-2.76697,51.30742],[-2.76685,51.3074],[-2.76654,51.30729],[-2.76628,51.30721],[-2.766,51.30712],[-2.76566,51.30701],[-2.76508,51.30683],[-2.7646,51.30665],[-2.76416,51.30652],[-2.76371,51.30639],[-2.76342,51.30632],[-2.76314,51.30622],[-2.7628,51.30609],[-2.7626,51.30602],[-2.76222,51.30588],[-2.76197,51.30578],[-2.7618,51.30571],[-2.76149,51.30549],[-2.76133,51.30533],[-2.76127,51.30526]]}},{"type":"Feature","properties":{"ROW_TYPE":"Footpath · AX 25/63"},"geometry":{"type":"LineString","coordinates":[[-2.79667,51.3254],[-2.79663,51.32544],[-2.79653,51.32549],[-2.79649,51.32552],[-2.79646,51.32555],[-2.79645,51.32561],[-2.79644,51.3257],[-2.79642,51.32572],[-2.79637,51.32575]]}},{"type":"Feature","properties":{"ROW_TYPE":"Bridleway · AX 14/11"},"geometry":{"type":"LineString","coordinates":[[-2.78975,51.3249],[-2.78946,51.3249],[-2.78877,51.32488],[-2.78803,51.32486],[-2.78726,51.32489],[-2.78674,51.32488],[-2.78646,51.32485],[-2.78622,51.32479],[-2.78604,51.32468],[-2.78579,51.32451],[-2.7855,51.32423]]}},{"type":"Feature","properties":{"ROW_TYPE":"Bridleway · AX 14/11"},"geometry":{"type":"LineString","coordinates":[[-2.7855,51.32423],[-2.78527,51.3242],[-2.78503,51.32416],[-2.78459,51.32414],[-2.78402,51.32413],[-2.7834,51.32411],[-2.78296,51.32408],[-2.78262,51.32404],[-2.78209,51.32398],[-2.78174,51.32392],[-2.78132,51.32386],[-2.78066,51.3238],[-2.78029,51.32377],[-2.78009,51.32373]]}},{"type":"Feature","properties":{"ROW_TYPE":"Bridleway · AX 14/11"},"geometry":{"type":"LineString","coordinates":[[-2.78009,51.32373],[-2.77993,51.32373],[-2.77945,51.32369],[-2.7792,51.32367],[-2.77878,51.32361],[-2.77854,51.32358],[-2.77818,51.32357],[-2.77781,51.32358],[-2.77751,51.32358],[-2.77692,51.32358],[-2.77677,51.32357],[-2.77654,51.32357],[-2.77622,51.32355],[-2.77592,51.32353],[-2.77514,51.32348],[-2.77488,51.32346],[-2.77461,51.32346],[-2.7743,51.32346],[-2.77407,51.32347],[-2.77371,51.32344],[-2.77332,51.32343],[-2.77298,51.32344],[-2.77256,51.32346],[-2.77235,51.32349],[-2.77207,51.32353],[-2.77163,51.32359],[-2.77136,51.32364],[-2.77102,51.32369],[-2.7707,51.32371],[-2.77042,51.32373],[-2.76993,51.32373],[-2.76962,51.32374],[-2.76903,51.32373],[-2.76882,51.32373],[-2.76845,51.32369],[-2.76813,51.32367]]}},{"type":"Feature","properties":{"ROW_TYPE":"Bridleway · AX 14/2"},"geometry":{"type":"LineString","coordinates":[[-2.76813,51.32367],[-2.76795,51.32365],[-2.76774,51.3236],[-2.76745,51.3235],[-2.76706,51.32335],[-2.76648,51.32318],[-2.76602,51.32305],[-2.76576,51.32298],[-2.76554,51.32291],[-2.76513,51.32283],[-2.76463,51.32275],[-2.76432,51.3227],[-2.76389,51.32261],[-2.76373,51.32259],[-2.76346,51.32251],[-2.76313,51.32238],[-2.76273,51.32225],[-2.76233,51.32214],[-2.76222,51.32212]]}},{"type":"Feature","properties":{"ROW_TYPE":"Bridleway · AX 25/57"},"geometry":{"type":"LineString","coordinates":[[-2.76813,51.32367],[-2.76832,51.32394],[-2.76856,51.32434]]}},{"type":"Feature","properties":{"ROW_TYPE":"Bridleway · AX 1/21/1"},"geometry":{"type":"LineString","coordinates":[[-2.83003,51.30048],[-2.82993,51.30036],[-2.82971,51.30021],[-2.82955,51.30006],[-2.82945,51.29992],[-2.82936,51.29973],[-2.82933,51.29962],[-2.82922,51.29953],[-2.82912,51.2994],[-2.8291,51.29931],[-2.8291,51.29911],[-2.82907,51.299],[-2.82904,51.29894],[-2.82892,51.29888],[-2.82888,51.29885],[-2.8289,51.29863],[-2.82898,51.2982],[-2.82899,51.29811],[-2.82897,51.29786],[-2.82894,51.29766],[-2.82891,51.29753],[-2.8289,51.29738],[-2.8289,51.29722],[-2.82895,51.2969],[-2.82896,51.2968],[-2.82899,51.29673],[-2.82898,51.29669],[-2.82895,51.29667]]}}]}