{"type":"FeatureCollection","features":[{"type":"Feature","properties":{"SAC_NAME":"Mendip Limestone Grasslands","SAC_CODE":"UK0030203","SAC_AREA":417.46374317272415,"GRID_REF":"ST402557","EASTING":340206.285,"NORTHING":155766.6589,"LATITUDE":"51:18:07N","LONGITUDE":"2:52:27W","STATUS":"Designated","ID":0,"AREA":263.00917935376333,"EASTING0":340069.689338,"NORTHING0":155676.309872,"GIS_DATE":"20151215","VERSION":1},"geometry":{"type":"Polygon","coordinates":[[[-2.85497,51.2998],[-2.85317,51.29946],[-2.84522,51.29998],[-2.83894,51.30033],[-2.83612,51.30052],[-2.83132,51.30076],[-2.83122,51.30054],[-2.83135,51.30054],[-2.83113,51.29992],[-2.83174,51.29993],[-2.83185,51.29988],[-2.83193,51.29958],[-2.83231,51.29911],[-2.83237,51.29833],[-2.83246,51.29834],[-2.83248,51.29826],[-2.83253,51.29822],[-2.8333,51.29828],[-2.8334,51.29839],[-2.83536,51.29874],[-2.83548,51.29865],[-2.83556,51.29854],[-2.83575,51.29844],[-2.83625,51.29744],[-2.83607,51.29738],[-2.83637,51.29662],[-2.83668,51.29667],[-2.83691,51.29573],[-2.83713,51.29529],[-2.83727,51.29466],[-2.83724,51.2944],[-2.83712,51.29413],[-2.83713,51.29371],[-2.83708,51.29316],[-2.83711,51.29306],[-2.83727,51.29289],[-2.83732,51.29273],[-2.83733,51.29253],[-2.8373,51.2925],[-2.83625,51.29236],[-2.83583,51.29227],[-2.83605,51.29184],[-2.8361,51.29167],[-2.83621,51.29104],[-2.83625,51.2906],[-2.8363,51.29044],[-2.83649,51.29006],[-2.83657,51.29005],[-2.83673,51.29007],[-2.83785,51.29004],[-2.83808,51.2901],[-2.83834,51.29027],[-2.83857,51.2903],[-2.83932,51.29002],[-2.83959,51.28999],[-2.84018,51.29033],[-2.84068,51.29043],[-2.84091,51.29039],[-2.84135,51.29011],[-2.84137,51.29006],[-2.84153,51.29012],[-2.84179,51.29013],[-2.8421,51.2902],[-2.8422,51.29015],[-2.84248,51.29024],[-2.84284,51.29026],[-2.84288,51.29052],[-2.84287,51.29062],[-2.84275,51.29074],[-2.84255,51.29087],[-2.84229,51.29093],[-2.84226,51.29119],[-2.84217,51.29133],[-2.84212,51.29161],[-2.84189,51.29191],[-2.84183,51.29209],[-2.84183,51.29226],[-2.84188,51.29232],[-2.84189,51.29242],[-2.84186,51.29255],[-2.8419,51.29268],[-2.84189,51.29286],[-2.84183,51.29298],[-2.84188,51.29309],[-2.84191,51.29328],[-2.84201,51.29342],[-2.84232,51.29368],[-2.84253,51.29378],[-2.84257,51.29371],[-2.84261,51.2937],[-2.84284,51.29379],[-2.84392,51.29448],[-2.84404,51.29481],[-2.84407,51.29514],[-2.844,51.29531],[-2.84406,51.29549],[-2.84443,51.29567],[-2.8447,51.29606],[-2.84525,51.29625],[-2.84553,51.29626],[-2.84592,51.29635],[-2.84644,51.29638],[-2.84664,51.29588],[-2.8466,51.29574],[-2.84679,51.29486],[-2.84687,51.29411],[-2.8471,51.29412],[-2.84736,51.29404],[-2.84786,51.29384],[-2.84823,51.29363],[-2.84839,51.29345],[-2.84848,51.29343],[-2.84845,51.29323],[-2.84852,51.29315],[-2.84874,51.2931],[-2.84918,51.29293],[-2.84936,51.29291],[-2.84949,51.29293],[-2.84981,51.29285],[-2.85021,51.29285],[-2.85047,51.29301],[-2.85107,51.29295],[-2.85205,51.29293],[-2.85215,51.2929],[-2.85207,51.29313],[-2.85237,51.29344],[-2.85242,51.29354],[-2.85313,51.29408],[-2.85343,51.29424],[-2.85365,51.29449],[-2.85376,51.29454],[-2.85405,51.29455],[-2.85425,51.29462],[-2.85444,51.29462],[-2.85455,51.29458],[-2.85491,51.29468],[-2.85482,51.29482],[-2.85475,51.2948],[-2.85472,51.29486],[-2.85475,51.29491],[-2.85497,51.295],[-2.85497,51.2998]],[[-2.83975,51.29071],[-2.83941,51.29069],[-2.8394,51.29076],[-2.83974,51.29078],[-2.83975,51.29071]]]}},{"type":"Feature","properties":{"SAC_NAME":"Mendip Limestone Grasslands","SAC_CODE":"UK0030203","SAC_AREA":417.46374317272415,"GRID_REF":"ST402557","EASTING":340206.285,"NORTHING":155766.6589,"LATITUDE":"51:18:07N","LONGITUDE":"2:52:27W","STATUS":"Designated","ID":0,"AREA":69.6943293762786,"EASTING0":342587.508026,"NORTHING0":155447.095291,"GIS_DATE":"20151215","VERSION":1},"geometry":{"type":"Polygon","coordinates":[[[-2.82106,51.30095],[-2.82059,51.30085],[-2.81987,51.30101],[-2.8197,51.30102],[-2.81914,51.30093],[-2.81883,51.30094],[-2.81826,51.30104],[-2.81826,51.30095],[-2.81893,51.29937],[-2.8198,51.29703],[-2.82004,51.29657],[-2.82018,51.29621],[-2.82045,51.29572],[-2.82059,51.29506],[-2.82083,51.29437],[-2.82087,51.29285],[-2.82155,51.29133],[-2.82168,51.29094],[-2.82225,51.28994],[-2.82242,51.28995],[-2.82261,51.28986],[-2.82321,51.28974],[-2.82344,51.28963],[-2.82345,51.28955],[-2.82413,51.28946],[-2.82519,51.28891],[-2.82534,51.28897],[-2.82588,51.28918],[-2.82685,51.28965],[-2.82745,51.29004],[-2.82785,51.29037],[-2.82839,51.29095],[-2.82874,51.29143],[-2.8291,51.29212],[-2.82928,51.29263],[-2.8295,51.29262],[-2.82955,51.29273],[-2.8297,51.29311],[-2.82976,51.29438],[-2.82981,51.29439],[-2.82981,51.29444],[-2.82983,51.29445],[-2.82983,51.29456],[-2.8298,51.29456],[-2.82979,51.29514],[-2.83002,51.29532],[-2.83034,51.29525],[-2.83042,51.29528],[-2.82997,51.29585],[-2.82966,51.29632],[-2.82962,51.29655],[-2.82946,51.29701],[-2.82947,51.29713],[-2.8294,51.2974],[-2.82921,51.29769],[-2.82917,51.29785],[-2.82926,51.29835],[-2.82936,51.2987],[-2.82938,51.29918],[-2.82956,51.29989],[-2.82975,51.30013],[-2.82991,51.30025],[-2.83002,51.30028],[-2.83046,51.30021],[-2.83036,51.30053],[-2.82912,51.30033],[-2.82938,51.30089],[-2.82829,51.30091],[-2.8281,51.30086],[-2.82774,51.30067],[-2.82784,51.30062],[-2.82825,51.30024],[-2.82773,51.30007],[-2.82733,51.30046],[-2.82729,51.30057],[-2.82703,51.3008],[-2.82699,51.30088],[-2.82242,51.30095],[-2.82226,51.30097],[-2.82179,51.30111],[-2.82154,51.30108],[-2.82106,51.30095]],[[-2.82308,51.30062],[-2.82336,51.30053],[-2.82386,51.30057],[-2.82448,51.30045],[-2.82488,51.3006],[-2.82496,51.3006],[-2.82583,51.30048],[-2.82608,51.30049],[-2.82639,51.30039],[-2.82663,51.30038],[-2.82681,51.3003],[-2.82714,51.29997],[-2.82734,51.29964],[-2.8273,51.2994],[-2.82717,51.29907],[-2.8272,51.29894],[-2.82707,51.29872],[-2.82711,51.29855],[-2.82705,51.29845],[-2.82499,51.29843],[-2.8232,51.2982],[-2.82298,51.29814],[-2.82259,51.29829],[-2.82247,51.29842],[-2.8223,51.29874],[-2.82186,51.29902],[-2.82162,51.29941],[-2.82158,51.29956],[-2.82162,51.29971],[-2.82151,51.29991],[-2.82141,51.30035],[-2.8215,51.30052],[-2.82231,51.30086],[-2.82308,51.30062]]]}},{"type":"Feature","properties":{"SAC_NAME":"North Somerset & Mendip Bats","SAC_CODE":"UK0030052","SAC_AREA":557.6677008665537,"GRID_REF":"ST476545","EASTING":347662.38,"NORTHING":154538.0304,"LATITUDE":"51:17:15N","LONGITUDE":"2:45:06W","STATUS":"Designated","ID":0,"AREA":297.4971911846054,"EASTING0":347843.91119,"NORTHING0":154299.36379,"GIS_DATE":"20160120","VERSION":1},"geometry":{"type":"Polygon","coordinates":[[[-2.73705,51.3001],[-2.73701,51.30001],[-2.73702,51.29992],[-2.73735,51.29962],[-2.73744,51.29943],[-2.73738,51.29923],[-2.73716,51.29888],[-2.7371,51.29858],[-2.73742,51.29825],[-2.73753,51.29799],[-2.73774,51.29775],[-2.73781,51.29758],[-2.73812,51.29724],[-2.73813,51.29719],[-2.73804,51.29707],[-2.73745,51.29674],[-2.73665,51.29613],[-2.73622,51.29565],[-2.73585,51.29534],[-2.7355,51.29479],[-2.7352,51.29441],[-2.73511,51.29418],[-2.73501,51.29401],[-2.73493,51.29366],[-2.735,51.2933],[-2.73499,51.29321],[-2.73487,51.29291],[-2.7347,51.29268],[-2.73645,51.2924],[-2.73605,51.29144],[-2.73599,51.29112],[-2.73605,51.29093],[-2.73611,51.2908],[-2.73698,51.29059],[-2.73716,51.29051],[-2.73719,51.29047],[-2.7371,51.2902],[-2.73705,51.29014],[-2.73665,51.28996],[-2.73607,51.28977],[-2.73552,51.2895],[-2.73528,51.28933],[-2.73508,51.28903],[-2.73428,51.28854],[-2.73434,51.28841],[-2.73533,51.28803],[-2.73625,51.28759],[-2.73678,51.28727],[-2.7376,51.28668],[-2.73811,51.28609],[-2.73874,51.28572],[-2.74131,51.2859],[-2.74182,51.28514],[-2.74101,51.28434],[-2.73962,51.28356],[-2.73829,51.28289],[-2.7371,51.28218],[-2.73616,51.28178],[-2.735,51.28145],[-2.73445,51.28131],[-2.73421,51.28133],[-2.73404,51.28142],[-2.73336,51.28103],[-2.73326,51.28086],[-2.73288,51.27975],[-2.73269,51.27966],[-2.73255,51.27955],[-2.73224,51.27942],[-2.73214,51.27932],[-2.73198,51.27881],[-2.74347,51.27881],[-2.74549,51.28023],[-2.74904,51.28281],[-2.74939,51.2831],[-2.75038,51.28408],[-2.75194,51.283],[-2.75376,51.2818],[-2.75602,51.27991],[-2.75724,51.28029],[-2.7583,51.28055],[-2.75925,51.28051],[-2.76005,51.28056],[-2.76039,51.2805],[-2.76082,51.28051],[-2.76129,51.28043],[-2.76239,51.28033],[-2.76349,51.28037],[-2.76431,51.28036],[-2.7648,51.28023],[-2.76484,51.28017],[-2.7654,51.28006],[-2.76595,51.27987],[-2.76681,51.27964],[-2.76686,51.27995],[-2.76866,51.28011],[-2.76989,51.28012],[-2.76993,51.28042],[-2.7701,51.28044],[-2.77011,51.2804],[-2.77054,51.28032],[-2.77106,51.28013],[-2.77125,51.28027],[-2.77166,51.28018],[-2.77181,51.28019],[-2.77198,51.28026],[-2.77196,51.28034],[-2.77177,51.28051],[-2.77183,51.28056],[-2.77159,51.28074],[-2.77177,51.2808],[-2.77141,51.28102],[-2.77026,51.28118],[-2.77023,51.2812],[-2.77021,51.28118],[-2.77015,51.2812],[-2.7701,51.28118],[-2.77004,51.2812],[-2.77006,51.28127],[-2.76947,51.28151],[-2.76943,51.28148],[-2.76937,51.28151],[-2.76902,51.2817],[-2.76877,51.28177],[-2.76786,51.2818],[-2.7676,51.28177],[-2.76735,51.28178],[-2.76712,51.28176],[-2.76696,51.28171],[-2.76629,51.28165],[-2.76615,51.28169],[-2.76612,51.28166],[-2.76575,51.28169],[-2.76537,51.28195],[-2.76545,51.28199],[-2.7654,51.28203],[-2.76548,51.28201],[-2.76549,51.28209],[-2.7654,51.2822],[-2.76542,51.28223],[-2.76533,51.28249],[-2.76528,51.28252],[-2.76526,51.28257],[-2.76546,51.2827],[-2.76546,51.28265],[-2.76556,51.28265],[-2.76552,51.28251],[-2.76564,51.28244],[-2.76562,51.28234],[-2.76566,51.28224],[-2.76578,51.28221],[-2.76639,51.28225],[-2.76658,51.28224],[-2.76658,51.28222],[-2.76698,51.28222],[-2.76705,51.28211],[-2.76713,51.28214],[-2.76715,51.28212],[-2.76781,51.28231],[-2.76791,51.28236],[-2.76788,51.28239],[-2.76799,51.28243],[-2.76802,51.2824],[-2.76829,51.28245],[-2.76951,51.28251],[-2.77021,51.28273],[-2.77019,51.28275],[-2.77023,51.28276],[-2.7698,51.2831],[-2.76726,51.28476],[-2.76722,51.28535],[-2.76686,51.28538],[-2.76674,51.28526],[-2.76567,51.28599],[-2.76644,51.28699],[-2.76793,51.28868],[-2.76793,51.28873],[-2.76699,51.2888],[-2.76661,51.28896],[-2.76656,51.28892],[-2.76561,51.28918],[-2.76463,51.2894],[-2.76379,51.28966],[-2.76386,51.28978],[-2.76357,51.28973],[-2.76327,51.28993],[-2.76309,51.29009],[-2.76238,51.29031],[-2.76203,51.29059],[-2.7619,51.2909],[-2.76176,51.29109],[-2.75854,51.28972],[-2.75708,51.29106],[-2.75367,51.29038],[-2.75107,51.29291],[-2.75007,51.29282],[-2.74717,51.29239],[-2.74687,51.29172],[-2.74434,51.29162],[-2.74451,51.29128],[-2.74254,51.29101],[-2.7423,51.29023],[-2.73952,51.29007],[-2.73909,51.2909],[-2.739,51.29101],[-2.73782,51.29175],[-2.738,51.29213],[-2.73818,51.29215],[-2.73814,51.29228],[-2.73868,51.29294],[-2.73916,51.2944],[-2.73908,51.29444],[-2.73905,51.29455],[-2.73912,51.29477],[-2.7394,51.29533],[-2.73945,51.29557],[-2.73954,51.29573],[-2.73955,51.29588],[-2.73966,51.29595],[-2.74048,51.29619],[-2.74093,51.29662],[-2.74103,51.29678],[-2.74102,51.29689],[-2.74088,51.297],[-2.74008,51.29691],[-2.73985,51.29681],[-2.73978,51.29682],[-2.73984,51.29694],[-2.74,51.297],[-2.7407,51.2971],[-2.74162,51.29742],[-2.74128,51.29782],[-2.73962,51.29893],[-2.73934,51.29935],[-2.73918,51.29938],[-2.73847,51.2993],[-2.7383,51.29933],[-2.73824,51.29936],[-2.73816,51.29958],[-2.73831,51.29961],[-2.73818,51.29984],[-2.73809,51.29983],[-2.73802,51.29992],[-2.73796,51.2999],[-2.73787,51.30004],[-2.73786,51.30011],[-2.73767,51.30009],[-2.7373,51.30021],[-2.73705,51.3001]]]}},{"type":"Feature","properties":{"SAC_NAME":"North Somerset & Mendip Bats","SAC_CODE":"UK0030052","SAC_AREA":557.6677008665537,"GRID_REF":"ST476545","EASTING":347662.38,"NORTHING":154538.0304,"LATITUDE":"51:17:15N","LONGITUDE":"2:45:06W","STATUS":"Designated","ID":0,"AREA":73.68311998525174,"EASTING0":350435.602153,"NORTHING0":155379.929411,"GIS_DATE":"20160120","VERSION":1},"geometry":{"type":"Polygon","coordinates":[[[-2.72742,51.29161],[-2.7283,51.29187],[-2.72857,51.29184],[-2.72889,51.29172],[-2.72909,51.29174],[-2.72946,51.29188],[-2.73023,51.29181],[-2.7305,51.29172],[-2.73117,51.2913],[-2.73178,51.29098],[-2.73233,51.29035],[-2.73288,51.2901],[-2.73341,51.28996],[-2.73361,51.28994],[-2.73471,51.28997],[-2.73509,51.29001],[-2.73517,51.29024],[-2.73517,51.29035],[-2.73505,51.29053],[-2.73475,51.29074],[-2.73395,51.2907],[-2.73367,51.29071],[-2.73308,51.29085],[-2.73305,51.29087],[-2.73302,51.29123],[-2.73232,51.29173],[-2.73149,51.29218],[-2.7309,51.29245],[-2.73044,51.29262],[-2.72984,51.29276],[-2.72923,51.29281],[-2.72864,51.29274],[-2.72796,51.29255],[-2.72742,51.2923],[-2.72742,51.29161]]]}},{"type":"Feature","properties":{"SAC_NAME":"North Somerset & Mendip Bats","SAC_CODE":"UK0030052","SAC_AREA":557.6677008665537,"GRID_REF":"ST476545","EASTING":347662.38,"NORTHING":154538.0304,"LATITUDE":"51:17:15N","LONGITUDE":"2:45:06W","STATUS":"Designated","ID":0,"AREA":11.504573029520266,"EASTING0":340749.083647,"NORTHING0":159169.617287,"GIS_DATE":"20160120","VERSION":1},"geometry":{"type":"Polygon","coordinates":[[[-2.84823,51.32942],[-2.84797,51.32942],[-2.84821,51.32791],[-2.84845,51.328],[-2.84905,51.32806],[-2.85078,51.32809],[-2.85175,51.32806],[-2.852,51.32792],[-2.852,51.32772],[-2.85191,51.32748],[-2.85175,51.32721],[-2.85126,51.32664],[-2.85093,51.32638],[-2.85192,51.32614],[-2.8535,51.3271],[-2.85376,51.32712],[-2.8544,51.32763],[-2.8545,51.32777],[-2.85448,51.32793],[-2.85477,51.32838],[-2.85464,51.32872],[-2.85497,51.32901],[-2.85497,51.32926],[-2.85432,51.3296],[-2.85385,51.32973],[-2.85214,51.32999],[-2.85203,51.32993],[-2.85052,51.32984],[-2.84999,51.32977],[-2.84909,51.32954],[-2.84823,51.32942]]]}},{"type":"Feature","properties":{"SAC_NAME":"North Somerset & Mendip Bats","SAC_CODE":"UK0030052","SAC_AREA":557.6677008665537,"GRID_REF":"ST476545","EASTING":347662.38,"NORTHING":154538.0304,"LATITUDE":"51:17:15N","LONGITUDE":"2:45:06W","STATUS":"Designated","ID":0,"AREA":6.930402107354493,"EASTING0":347671.480275,"NORTHING0":156242.891141,"GIS_DATE":"20160120","VERSION":1},"geometry":{"type":"Polygon","coordinates":[[[-2.75072,51.30242],[-2.75089,51.30211],[-2.75101,51.30198],[-2.75129,51.30123],[-2.75182,51.30128],[-2.75233,51.30141],[-2.7529,51.30146],[-2.7544,51.30174],[-2.75437,51.30213],[-2.75433,51.30219],[-2.75407,51.30236],[-2.75361,51.30235],[-2.75342,51.30263],[-2.75298,51.30444],[-2.75173,51.30437],[-2.75009,51.30422],[-2.74974,51.30422],[-2.75021,51.3033],[-2.75033,51.30318],[-2.75055,51.3028],[-2.75072,51.30242]]]}},{"type":"Feature","properties":{"SAC_NAME":"Mendip Woodlands","SAC_CODE":"UK0030048","SAC_AREA":253.66898626747005,"GRID_REF":"ST703447","EASTING":370350.7197,"NORTHING":144784.0764,"LATITUDE":"51:12:05N","LONGITUDE":"2:26:27W","STATUS":"Designated","ID":0,"AREA":45.50413383345384,"EASTING0":344472.23039,"NORTHING0":155230.675497,"GIS_DATE":"20171009","VERSION":1},"geometry":{"type":"Polygon","coordinates":[[[-2.78911,51.29576],[-2.78905,51.29576],[-2.78891,51.29552],[-2.7884,51.29509],[-2.78831,51.29495],[-2.78828,51.29479],[-2.78843,51.29449],[-2.7889,51.29376],[-2.78907,51.29339],[-2.78943,51.29284],[-2.78965,51.29255],[-2.79027,51.29196],[-2.79043,51.29202],[-2.78952,51.29326],[-2.78976,51.29332],[-2.7901,51.29298],[-2.79016,51.29302],[-2.79049,51.29267],[-2.79058,51.29266],[-2.79066,51.2926],[-2.79147,51.29277],[-2.79117,51.29342],[-2.79083,51.294],[-2.79067,51.29413],[-2.79132,51.29442],[-2.79084,51.29476],[-2.79067,51.29496],[-2.79093,51.29513],[-2.79149,51.29488],[-2.79128,51.29469],[-2.7914,51.29468],[-2.79158,51.29457],[-2.79165,51.29464],[-2.79205,51.29455],[-2.7925,51.29436],[-2.79269,51.29447],[-2.79315,51.29425],[-2.79361,51.29407],[-2.79413,51.29373],[-2.79462,51.29348],[-2.79466,51.29343],[-2.79432,51.2933],[-2.7946,51.29317],[-2.79487,51.293],[-2.79468,51.29288],[-2.7947,51.29284],[-2.79448,51.29276],[-2.79422,51.29253],[-2.79444,51.29215],[-2.79455,51.29203],[-2.79502,51.29175],[-2.79511,51.29177],[-2.79527,51.29192],[-2.79567,51.29207],[-2.79629,51.29175],[-2.79691,51.29134],[-2.79738,51.29087],[-2.79742,51.29076],[-2.79741,51.29063],[-2.79749,51.29056],[-2.7975,51.29049],[-2.79758,51.29051],[-2.79769,51.29038],[-2.79771,51.29028],[-2.79768,51.29019],[-2.79747,51.29012],[-2.79757,51.28988],[-2.79766,51.28979],[-2.79778,51.28957],[-2.79786,51.28935],[-2.79803,51.28943],[-2.79804,51.28947],[-2.79841,51.28952],[-2.79879,51.28947],[-2.79926,51.28956],[-2.79957,51.28955],[-2.79957,51.28965],[-2.79972,51.28996],[-2.80054,51.29012],[-2.8009,51.29012],[-2.80082,51.28963],[-2.80109,51.28961],[-2.80129,51.2902],[-2.8019,51.29114],[-2.80193,51.29165],[-2.80178,51.29205],[-2.8022,51.2921],[-2.80231,51.29199],[-2.80251,51.29204],[-2.80301,51.2921],[-2.8035,51.29211],[-2.80354,51.29209],[-2.80359,51.29193],[-2.80424,51.29203],[-2.8049,51.29234],[-2.80499,51.29234],[-2.8052,51.29251],[-2.80519,51.29253],[-2.80528,51.29261],[-2.80541,51.29269],[-2.80532,51.29288],[-2.80587,51.29307],[-2.80589,51.29311],[-2.80633,51.2933],[-2.80644,51.29366],[-2.80642,51.2938],[-2.80618,51.29416],[-2.80601,51.29454],[-2.80629,51.29521],[-2.80532,51.29522],[-2.80495,51.2953],[-2.80433,51.29537],[-2.80378,51.29557],[-2.80373,51.29551],[-2.8033,51.29534],[-2.8032,51.29527],[-2.80284,51.29515],[-2.80239,51.29512],[-2.8017,51.29513],[-2.80113,51.29506],[-2.79849,51.29444],[-2.79817,51.29432],[-2.79781,51.29429],[-2.7975,51.29436],[-2.79705,51.29433],[-2.79639,51.29441],[-2.79608,51.29462],[-2.79575,51.29477],[-2.79506,51.29502],[-2.79478,51.29507],[-2.79442,51.29521],[-2.79363,51.29538],[-2.79334,51.29551],[-2.79323,51.2956],[-2.79235,51.29594],[-2.7918,51.29632],[-2.79157,51.2968],[-2.7911,51.29763],[-2.79101,51.29772],[-2.79004,51.29791],[-2.78977,51.29724],[-2.78957,51.29663],[-2.78911,51.29576]]]}}]}