{"type":"FeatureCollection","features":[{"type":"Feature","properties":{"ListEntry":1003028,"Name":"Longbottom Farm earthwork","SchedDate":-589939200000,"CaptureScale":"1:10000","hyperlink":"https://historicengland.org.uk/listing/the-list/list-entry/1003028","area_ha":0.7542535844910081,"NGR":"ST 45748 56837","Easting":345748,"Northing":156837},"geometry":{"type":"Polygon","coordinates":[[[-2.7794,51.30763],[-2.78046,51.30779],[-2.78051,51.30783],[-2.78051,51.30791],[-2.78022,51.30841],[-2.78008,51.30849],[-2.78,51.3085],[-2.77903,51.30828],[-2.7789,51.30823],[-2.77887,51.30813],[-2.77929,51.30767],[-2.7794,51.30763]]]}},{"type":"Feature","properties":{"ListEntry":1006127,"Name":"Charterhouse lead works","SchedDate":426902400000,"CaptureScale":"1:10000","hyperlink":"https://historicengland.org.uk/listing/the-list/list-entry/1006127","area_ha":25.841533636766506,"NGR":"ST 50618 55616, ST 50120 55401, ST 49586 55184","Easting":350618,"Northing":155616},"geometry":{"type":"MultiPolygon","coordinates":[[[[-2.71716,51.29486],[-2.71734,51.29463],[-2.71764,51.29442],[-2.71793,51.29432],[-2.71836,51.29424],[-2.71869,51.29425],[-2.72018,51.29454],[-2.72018,51.2947],[-2.7201,51.29485],[-2.72002,51.2949],[-2.71988,51.29491],[-2.71906,51.29473],[-2.71853,51.29467],[-2.71818,51.29473],[-2.71806,51.29483],[-2.7176,51.29547],[-2.71731,51.29566],[-2.71679,51.29587],[-2.7162,51.29598],[-2.7156,51.29615],[-2.71538,51.29631],[-2.71519,51.29639],[-2.71474,51.29648],[-2.71427,51.29649],[-2.71392,51.29646],[-2.71366,51.29637],[-2.71351,51.29629],[-2.7134,51.29617],[-2.71335,51.29603],[-2.71336,51.29594],[-2.71342,51.29587],[-2.71357,51.29581],[-2.71607,51.2953],[-2.71688,51.29518],[-2.71701,51.29507],[-2.71716,51.29486]]],[[[-2.70561,51.30315],[-2.70616,51.30221],[-2.70634,51.30147],[-2.70596,51.30112],[-2.70602,51.30042],[-2.70677,51.30054],[-2.70872,51.30065],[-2.70993,51.30082],[-2.71012,51.30015],[-2.7096,51.30011],[-2.70932,51.30012],[-2.70937,51.29997],[-2.70955,51.29987],[-2.70943,51.29983],[-2.70934,51.29976],[-2.70935,51.29958],[-2.70936,51.29961],[-2.70973,51.29954],[-2.70987,51.2994],[-2.70993,51.29928],[-2.70992,51.29921],[-2.70974,51.29905],[-2.70965,51.29892],[-2.70963,51.29881],[-2.70984,51.29844],[-2.70989,51.29823],[-2.70981,51.29804],[-2.7097,51.29795],[-2.70953,51.29782],[-2.70917,51.29766],[-2.70913,51.29758],[-2.70917,51.29743],[-2.71003,51.29688],[-2.71071,51.29653],[-2.71105,51.29642],[-2.71318,51.29587],[-2.71321,51.29602],[-2.71337,51.29628],[-2.71379,51.29652],[-2.71341,51.2966],[-2.71256,51.29664],[-2.71213,51.29671],[-2.7119,51.29679],[-2.7118,51.29686],[-2.71169,51.29704],[-2.71167,51.29715],[-2.71179,51.29769],[-2.71176,51.29798],[-2.71134,51.29862],[-2.71136,51.2989],[-2.71231,51.29974],[-2.71234,51.29986],[-2.7124,51.29997],[-2.71296,51.30028],[-2.71303,51.30034],[-2.71303,51.30043],[-2.71285,51.30073],[-2.71256,51.30094],[-2.71191,51.30151],[-2.71002,51.30242],[-2.70916,51.30272],[-2.70882,51.30279],[-2.70857,51.30279],[-2.70825,51.30268],[-2.708,51.3025],[-2.70749,51.30279],[-2.70688,51.3031],[-2.70613,51.3031],[-2.70561,51.30315]]],[[[-2.72043,51.29467],[-2.72092,51.29465],[-2.7211,51.29454],[-2.7218,51.29428],[-2.72308,51.29349],[-2.72347,51.29338],[-2.72439,51.293],[-2.72472,51.29292],[-2.7256,51.29175],[-2.72569,51.29175],[-2.7258,51.29181],[-2.72588,51.29181],[-2.72608,51.29162],[-2.72626,51.29153],[-2.72659,51.29147],[-2.72734,51.29159],[-2.72853,51.29197],[-2.72842,51.29271],[-2.72786,51.29254],[-2.72708,51.29214],[-2.72693,51.29209],[-2.72669,51.2921],[-2.72633,51.29218],[-2.72621,51.29228],[-2.72613,51.2924],[-2.72612,51.29258],[-2.72604,51.29284],[-2.72557,51.29336],[-2.72477,51.2937],[-2.72461,51.29392],[-2.72447,51.29404],[-2.72408,51.2943],[-2.72377,51.29446],[-2.72366,51.29445],[-2.72363,51.2944],[-2.72364,51.29429],[-2.7235,51.29421],[-2.7234,51.29424],[-2.7228,51.29447],[-2.72232,51.29476],[-2.72211,51.29495],[-2.72064,51.29522],[-2.72067,51.29514],[-2.7203,51.29493],[-2.72028,51.29481],[-2.72032,51.29471],[-2.72043,51.29467]]]]}},{"type":"Feature","properties":{"ListEntry":1006137,"Name":"Wimblestone standing stone","SchedDate":-2208988800000,"CaptureScale":"1:10000","hyperlink":"https://historicengland.org.uk/listing/the-list/list-entry/1006137","area_ha":0.007182694156372137,"NGR":"ST 43345 58475","Easting":343345,"Northing":158475},"geometry":{"type":"Polygon","coordinates":[[[-2.81442,51.3225],[-2.81449,51.32252],[-2.81448,51.32257],[-2.81437,51.32257],[-2.81437,51.32252],[-2.81442,51.3225]]]}},{"type":"Feature","properties":{"ListEntry":1006221,"Name":"Gorsey Bigbury earth circle and round barrow near Longwood","CaptureScale":"1:10000","hyperlink":"https://historicengland.org.uk/listing/the-list/list-entry/1006221","area_ha":0.3386715862797882,"NGR":"ST 48427 55846, ST 48432 55505","Easting":348427,"Northing":155846},"geometry":{"type":"MultiPolygon","coordinates":[[[[-2.74102,51.29913],[-2.74122,51.29913],[-2.74146,51.29923],[-2.74155,51.29938],[-2.74147,51.29955],[-2.74125,51.29964],[-2.74109,51.29966],[-2.74087,51.29961],[-2.74076,51.29954],[-2.7407,51.29945],[-2.74072,51.29929],[-2.74084,51.29919],[-2.74102,51.29913]]],[[[-2.74097,51.2962],[-2.74107,51.29621],[-2.74117,51.29626],[-2.74119,51.29632],[-2.74117,51.29638],[-2.74102,51.29645],[-2.74089,51.29643],[-2.74082,51.29639],[-2.74079,51.29633],[-2.74082,51.29626],[-2.74097,51.2962]]]]}},{"type":"Feature","properties":{"ListEntry":1006222,"Name":"Twin round barrows 750yds (696m) N of Bowpit Farm","SchedDate":-1150329600000,"CaptureScale":"1:10000","hyperlink":"https://historicengland.org.uk/listing/the-list/list-entry/1006222","area_ha":0.08035937894695616,"NGR":"ST 45822 55799","Easting":345822,"Northing":155799},"geometry":{"type":"Polygon","coordinates":[[[-2.77842,51.29859],[-2.77864,51.29864],[-2.77872,51.2987],[-2.77872,51.29876],[-2.77868,51.2988],[-2.77852,51.29884],[-2.77826,51.29881],[-2.77821,51.29873],[-2.77823,51.29865],[-2.77842,51.29859]]]}},{"type":"Feature","properties":{"ListEntry":1006223,"Name":"Round barrows 600yds (550m) NW of Longbottom Farm","SchedDate":-1150416000000,"CaptureScale":"1:10000","hyperlink":"https://historicengland.org.uk/listing/the-list/list-entry/1006223","area_ha":0.06445220127301426,"NGR":"ST 45319 57012, ST 45368 57135","Easting":345368,"Northing":157135},"geometry":{"type":"MultiPolygon","coordinates":[[[[-2.78516,51.31059],[-2.78533,51.31064],[-2.78535,51.31069],[-2.78533,51.31074],[-2.78522,51.31078],[-2.78508,51.31075],[-2.78505,51.31066],[-2.78516,51.31059]]],[[[-2.78586,51.30949],[-2.78599,51.30953],[-2.78599,51.30962],[-2.78586,51.30966],[-2.78576,51.30963],[-2.78574,51.30955],[-2.78586,51.30949]]]]}},{"type":"Feature","properties":{"ListEntry":1008031,"Name":"Banwell Camp: a large multivallate hillfort on Banwell Plain","SchedDate":-1200096000000,"AmendDate":761356800000,"CaptureScale":"1:10000","hyperlink":"https://historicengland.org.uk/listing/the-list/list-entry/1008031","area_ha":9.324463257238012,"NGR":"ST 40939 59002","Easting":340939,"Northing":159002,"img":"https://upload.wikimedia.org/wikipedia/commons/thumb/2/28/Banwell_Plain_from_the_air_%28geograph_5483577%29.jpg/500px-Banwell_Plain_from_the_air_%28geograph_5483577%29.jpg","imgBy":"Derek Harper","imgLic":"CC BY-SA 2.0"},"geometry":{"type":"Polygon","coordinates":[[[-2.85006,51.32577],[-2.85024,51.32575],[-2.85094,51.32614],[-2.85143,51.32651],[-2.85183,51.32693],[-2.85221,51.32762],[-2.85226,51.32778],[-2.85223,51.32792],[-2.85216,51.32801],[-2.85186,51.32817],[-2.85139,51.32823],[-2.85033,51.32825],[-2.84888,51.32821],[-2.84837,51.32814],[-2.84642,51.32747],[-2.84604,51.32719],[-2.84591,51.32701],[-2.84583,51.32682],[-2.84581,51.32664],[-2.84585,51.32651],[-2.84592,51.32644],[-2.84628,51.32623],[-2.84661,51.32612],[-2.84751,51.32599],[-2.85006,51.32577]]]}},{"type":"Feature","properties":{"ListEntry":1008184,"Name":"Dolebury Camp: a large univallate hillfort and associated and later earthworks on Dolebury Warren","SchedDate":-1263427200000,"AmendDate":761356800000,"CaptureScale":"1:10000","hyperlink":"https://historicengland.org.uk/listing/the-list/list-entry/1008184","area_ha":20.72115220942431,"NGR":"ST 45120 58958","Easting":345120,"Northing":158958,"img":"https://upload.wikimedia.org/wikipedia/commons/thumb/9/9f/Doleburyhillfort.jpg/500px-Doleburyhillfort.jpg","imgBy":"John Thorn","imgLic":"CC BY-SA 2.0"},"geometry":{"type":"Polygon","coordinates":[[[-2.78275,51.32824],[-2.78266,51.32809],[-2.78256,51.32782],[-2.7823,51.32676],[-2.7832,51.32687],[-2.78395,51.32708],[-2.78451,51.32718],[-2.78637,51.32738],[-2.78644,51.32733],[-2.78717,51.32577],[-2.78722,51.32572],[-2.78732,51.3257],[-2.7882,51.32578],[-2.7893,51.32579],[-2.79074,51.326],[-2.79286,51.326],[-2.79424,51.32613],[-2.79549,51.32638],[-2.79567,51.32685],[-2.79576,51.32695],[-2.79574,51.32739],[-2.79546,51.32739],[-2.79532,51.32721],[-2.79508,51.32709],[-2.79485,51.32705],[-2.79462,51.32706],[-2.7946,51.32719],[-2.7945,51.32732],[-2.79376,51.32793],[-2.79349,51.32808],[-2.79316,51.32817],[-2.79279,51.32821],[-2.79172,51.32817],[-2.79073,51.3282],[-2.78782,51.32843],[-2.78808,51.32876],[-2.78833,51.3292],[-2.78312,51.32871],[-2.78275,51.32824]]]}},{"type":"Feature","properties":{"ListEntry":1008806,"Name":"Rowberrow Camp: an Iron Age defended settlement north west of Tynings Farm","SchedDate":-654998400000,"AmendDate":777254400000,"CaptureScale":"1:10000","hyperlink":"https://historicengland.org.uk/listing/the-list/list-entry/1008806","area_ha":0.6260803762163846,"NGR":"ST 46442 56836","Easting":346442,"Northing":156836},"geometry":{"type":"Polygon","coordinates":[[[-2.76959,51.30771],[-2.76988,51.30773],[-2.77019,51.30781],[-2.7704,51.3079],[-2.77044,51.308],[-2.77025,51.30826],[-2.76998,51.30847],[-2.76977,51.30849],[-2.76958,51.30845],[-2.76908,51.30823],[-2.76902,51.30806],[-2.76906,51.30795],[-2.76919,51.30785],[-2.7694,51.30774],[-2.76959,51.30771]]]}},{"type":"Feature","properties":{"ListEntry":1010297,"Name":"Aveline's Hole, Burrington Combe","SchedDate":715478400000,"CaptureScale":"1:10000","hyperlink":"https://historicengland.org.uk/listing/the-list/list-entry/1010297","area_ha":0.04967040622783405,"NGR":"ST 47626 58676","Easting":347626,"Northing":158676},"geometry":{"type":"Polygon","coordinates":[[[-2.75319,51.32486],[-2.75317,51.32481],[-2.75281,51.32481],[-2.75277,51.3248],[-2.75275,51.32476],[-2.75282,51.3247],[-2.75325,51.32468],[-2.75329,51.32481],[-2.75319,51.32486]]]}},{"type":"Feature","properties":{"ListEntry":1010642,"Name":"Bowl barrow 870m southwest of Charterhouse Warren Farm","SchedDate":-1016755200000,"AmendDate":694915200000,"CaptureScale":"1:10000","hyperlink":"https://historicengland.org.uk/listing/the-list/list-entry/1010642","area_ha":0.053029879684894254,"NGR":"ST 49221 54528","Easting":349221,"Northing":154528},"geometry":{"type":"Polygon","coordinates":[[[-2.72953,51.28749],[-2.72964,51.28751],[-2.72971,51.28755],[-2.72973,51.28761],[-2.72971,51.28767],[-2.72955,51.28773],[-2.7294,51.28768],[-2.72936,51.28762],[-2.72938,51.28756],[-2.72953,51.28749]]]}},{"type":"Feature","properties":{"ListEntry":1010644,"Name":"Bowl barrow 340m north-east of Wellington Farm","SchedDate":-1263427200000,"AmendDate":696038400000,"CaptureScale":"1:10000","hyperlink":"https://historicengland.org.uk/listing/the-list/list-entry/1010644","area_ha":0.049023890522351406,"NGR":"ST 49267 54030","Easting":349267,"Northing":154030},"geometry":{"type":"Polygon","coordinates":[[[-2.7288,51.28302],[-2.72897,51.28307],[-2.729,51.28313],[-2.72897,51.28319],[-2.72884,51.28324],[-2.72867,51.2832],[-2.72864,51.28314],[-2.72865,51.28309],[-2.7288,51.28302]]]}},{"type":"Feature","properties":{"ListEntry":1010753,"Name":"Bowl barrow 330m east of Batts Coombe Quarry","SchedDate":694742400000,"CaptureScale":"1:10000","hyperlink":"https://historicengland.org.uk/listing/the-list/list-entry/1010753","area_ha":0.04453131689146303,"NGR":"ST 46539 55021","Easting":346539,"Northing":155021},"geometry":{"type":"Polygon","coordinates":[[[-2.76802,51.29169],[-2.76813,51.29169],[-2.76821,51.29173],[-2.76824,51.29183],[-2.76813,51.2919],[-2.76798,51.29188],[-2.76791,51.29183],[-2.76791,51.29176],[-2.76802,51.29169]]]}},{"type":"Feature","properties":{"ListEntry":1010800,"Name":"Bowl barrow 300m east of Batts Coombe Quarry","SchedDate":694742400000,"CaptureScale":"1:10000","hyperlink":"https://historicengland.org.uk/listing/the-list/list-entry/1010800","area_ha":0.030923800322180353,"NGR":"ST 46612 55154","Easting":346612,"Northing":155154},"geometry":{"type":"Polygon","coordinates":[[[-2.767,51.29291],[-2.76713,51.29293],[-2.76719,51.29297],[-2.76719,51.29303],[-2.7671,51.29308],[-2.76697,51.29307],[-2.76691,51.293],[-2.76693,51.29295],[-2.767,51.29291]]]}},{"type":"Feature","properties":{"ListEntry":1010906,"Name":"Great Oone's Hole","SchedDate":683942400000,"CaptureScale":"1:10000","hyperlink":"https://historicengland.org.uk/listing/the-list/list-entry/1010906","area_ha":0.018996949674007023,"NGR":"ST 46796 53936","Easting":346796,"Northing":153936},"geometry":{"type":"Polygon","coordinates":[[[-2.76421,51.28199],[-2.76432,51.28203],[-2.76431,51.2821],[-2.76422,51.28213],[-2.76413,51.2821],[-2.76412,51.28204],[-2.76421,51.28199]]]}},{"type":"Feature","properties":{"ListEntry":1010921,"Name":"Bowl barrow 350m east of Batts Coombe Quarry","SchedDate":694742400000,"CaptureScale":"1:10000","hyperlink":"https://historicengland.org.uk/listing/the-list/list-entry/1010921","area_ha":0.06061133731209118,"NGR":"ST 46585 55059","Easting":346585,"Northing":155059},"geometry":{"type":"Polygon","coordinates":[[[-2.76736,51.29202],[-2.76754,51.29204],[-2.76761,51.2921],[-2.76761,51.29218],[-2.76754,51.29224],[-2.76742,51.29226],[-2.76726,51.29221],[-2.76723,51.2921],[-2.76736,51.29202]]]}},{"type":"Feature","properties":{"ListEntry":1010922,"Name":"Bowl barrow 91m south of Piney Sleight Farm","SchedDate":-1131235200000,"AmendDate":694742400000,"CaptureScale":"1:10000","hyperlink":"https://historicengland.org.uk/listing/the-list/list-entry/1010922","area_ha":0.030924449433036513,"NGR":"ST 47589 55263","Easting":347589,"Northing":155263},"geometry":{"type":"Polygon","coordinates":[[[-2.753,51.29398],[-2.75317,51.29401],[-2.75319,51.29409],[-2.7531,51.29415],[-2.75294,51.29412],[-2.75291,51.29404],[-2.753,51.29398]]]}},{"type":"Feature","properties":{"ListEntry":1011132,"Name":"Moated site at Nye Farm","SchedDate":759456000000,"CaptureScale":"1:10000","hyperlink":"https://historicengland.org.uk/listing/the-list/list-entry/1011132","area_ha":0.26207212908259203,"NGR":"ST 41376 61536","Easting":341376,"Northing":161536},"geometry":{"type":"Polygon","coordinates":[[[-2.84313,51.34962],[-2.84346,51.34962],[-2.84354,51.34965],[-2.84356,51.3497],[-2.84352,51.35006],[-2.84344,51.3501],[-2.84293,51.35009],[-2.84281,51.35004],[-2.84279,51.3499],[-2.84282,51.34968],[-2.84313,51.34962]]]}},{"type":"Feature","properties":{"ListEntry":1011261,"Name":"Slight univallate hillfort and associated earthworks on Burrington Ham","SchedDate":213926400000,"AmendDate":758332800000,"CaptureScale":"1:10000","hyperlink":"https://historicengland.org.uk/listing/the-list/list-entry/1011261","area_ha":2.0165504218781343,"NGR":"ST 47803 58789","Easting":347803,"Northing":158789,"img":"https://upload.wikimedia.org/wikipedia/commons/thumb/9/90/Geograph_2559806_Burrington_Ham.jpg/500px-Geograph_2559806_Burrington_Ham.jpg","imgBy":"Derek Harper","imgLic":"CC BY-SA 2.0"},"geometry":{"type":"Polygon","coordinates":[[[-2.74982,51.32633],[-2.74968,51.32629],[-2.74969,51.32639],[-2.74932,51.32639],[-2.74937,51.32583],[-2.7495,51.32545],[-2.74966,51.32525],[-2.74982,51.32511],[-2.75,51.325],[-2.75076,51.32501],[-2.75126,51.32504],[-2.75158,51.32509],[-2.75166,51.32515],[-2.75169,51.32525],[-2.75164,51.32535],[-2.7512,51.32537],[-2.75122,51.32554],[-2.75101,51.32627],[-2.75105,51.32637],[-2.75122,51.32652],[-2.75114,51.32661],[-2.75094,51.32663],[-2.7506,51.3266],[-2.75045,51.32657],[-2.75028,51.32645],[-2.75015,51.3264],[-2.74982,51.32633]]]}},{"type":"Feature","properties":{"ListEntry":1011584,"Name":"Bowl barrow 300m north east of Tyning's Farm","SchedDate":749865600000,"CaptureScale":"1:10000","hyperlink":"https://historicengland.org.uk/listing/the-list/list-entry/1011584","area_ha":0.06957865000187483,"NGR":"ST 47248 56680","Easting":347248,"Northing":156680},"geometry":{"type":"Polygon","coordinates":[[[-2.75808,51.30665],[-2.75822,51.30665],[-2.75832,51.3067],[-2.75837,51.30678],[-2.75836,51.30682],[-2.75822,51.30691],[-2.75809,51.30691],[-2.75798,51.30686],[-2.75794,51.30678],[-2.75795,51.30674],[-2.75808,51.30665]]]}},{"type":"Feature","properties":{"ListEntry":1011914,"Name":"Soldier's Hole, Cheddar Gorge","SchedDate":669340800000,"CaptureScale":"1:10000","hyperlink":"https://historicengland.org.uk/listing/the-list/list-entry/1011914","area_ha":0.0195503098041327,"NGR":"ST 46862 54008","Easting":346862,"Northing":154008,"img":"https://thumb.wikimedia.org/wikipedia/commons/thumb/2/22/Cheddar_Gorge%2C_Somerset%2C_UK_-_Diliff.jpg/330px-Cheddar_Gorge%2C_Somerset%2C_UK_-_Diliff.jpg?utm_source=en.wikipedia.org&utm_campaign=api&utm_content=thumbnail","imgBy":"Wikipedia: Cheddar Gorge","imgLic":"see Wikipedia"},"geometry":{"type":"Polygon","coordinates":[[[-2.76328,51.28265],[-2.76339,51.28268],[-2.76339,51.28276],[-2.76329,51.28279],[-2.7632,51.28275],[-2.76319,51.28269],[-2.76328,51.28265]]]}},{"type":"Feature","properties":{"ListEntry":1011915,"Name":"Sun Hole, Cheddar Gorge","SchedDate":669254400000,"CaptureScale":"1:10000","hyperlink":"https://historicengland.org.uk/listing/the-list/list-entry/1011915","area_ha":0.023050182111096128,"NGR":"ST 46737 54080","Easting":346737,"Northing":154080,"img":"https://thumb.wikimedia.org/wikipedia/commons/thumb/2/22/Cheddar_Gorge%2C_Somerset%2C_UK_-_Diliff.jpg/330px-Cheddar_Gorge%2C_Somerset%2C_UK_-_Diliff.jpg?utm_source=en.wikipedia.org&utm_campaign=api&utm_content=thumbnail","imgBy":"Wikipedia: Cheddar Gorge","imgLic":"see Wikipedia"},"geometry":{"type":"Polygon","coordinates":[[[-2.76509,51.28328],[-2.76521,51.28331],[-2.76521,51.28339],[-2.7651,51.28343],[-2.76499,51.28339],[-2.76499,51.28332],[-2.76509,51.28328]]]}},{"type":"Feature","properties":{"ListEntry":1011916,"Name":"Saye's Hole, Cheddar Gorge","SchedDate":669254400000,"CaptureScale":"1:10000","hyperlink":"https://historicengland.org.uk/listing/the-list/list-entry/1011916","area_ha":0.021438787557251787,"NGR":"ST 46637 53897","Easting":346637,"Northing":153897},"geometry":{"type":"Polygon","coordinates":[[[-2.76648,51.28163],[-2.76659,51.28166],[-2.7666,51.28174],[-2.7665,51.28177],[-2.76639,51.28174],[-2.76639,51.28166],[-2.76648,51.28163]]]}},{"type":"Feature","properties":{"ListEntry":1011925,"Name":"Gough's Cave, Cheddar Gorge","SchedDate":669254400000,"CaptureScale":"1:10000","hyperlink":"https://historicengland.org.uk/listing/the-list/list-entry/1011925","area_ha":0.016858533623509885,"NGR":"ST 46714 53917","Easting":346714,"Northing":153917,"img":"https://upload.wikimedia.org/wikipedia/commons/thumb/f/f4/Gough%27s_Cave%2C_Alladdin%27s_Cave.jpg/500px-Gough%27s_Cave%2C_Alladdin%27s_Cave.jpg","imgBy":"Rwendland","imgLic":"CC BY-SA 4.0"},"geometry":{"type":"Polygon","coordinates":[[[-2.76539,51.28182],[-2.7655,51.28185],[-2.76549,51.28193],[-2.7654,51.28195],[-2.76531,51.28192],[-2.76531,51.28185],[-2.76539,51.28182]]]}},{"type":"Feature","properties":{"ListEntry":1011926,"Name":"Rowberrow Cavern, Mendip Forest","SchedDate":669254400000,"CaptureScale":"1:10000","hyperlink":"https://historicengland.org.uk/listing/the-list/list-entry/1011926","area_ha":0.033370146754956184,"NGR":"ST 45954 58022","Easting":345954,"Northing":158022},"geometry":{"type":"Polygon","coordinates":[[[-2.77688,51.31862],[-2.77702,51.31867],[-2.77704,51.31879],[-2.77693,51.31883],[-2.77682,51.31878],[-2.77679,51.31869],[-2.77688,51.31862]]]}},{"type":"Feature","properties":{"ListEntry":1012064,"Name":"Gough's Old Cave","SchedDate":683942400000,"CaptureScale":"1:10000","hyperlink":"https://historicengland.org.uk/listing/the-list/list-entry/1012064","area_ha":0.0183564942949213,"NGR":"ST 46688 53886","Easting":346688,"Northing":153886},"geometry":{"type":"Polygon","coordinates":[[[-2.76576,51.28154],[-2.76587,51.28157],[-2.76587,51.28164],[-2.76578,51.28167],[-2.76569,51.28164],[-2.76567,51.28158],[-2.76576,51.28154]]]}},{"type":"Feature","properties":{"ListEntry":1012592,"Name":"Bowl barrow 250m south west of Ashridge Farm","SchedDate":-1150416000000,"AmendDate":710380800000,"CaptureScale":"1:10000","hyperlink":"https://historicengland.org.uk/listing/the-list/list-entry/1012592","area_ha":0.06957897727941824,"NGR":"ST 46472 55781","Easting":346472,"Northing":155781},"geometry":{"type":"Polygon","coordinates":[[[-2.76908,51.2985],[-2.76921,51.2985],[-2.76932,51.29854],[-2.76935,51.29858],[-2.76935,51.29866],[-2.76921,51.29875],[-2.76908,51.29875],[-2.76897,51.2987],[-2.76893,51.29863],[-2.76894,51.29858],[-2.76908,51.2985]]]}},{"type":"Feature","properties":{"ListEntry":1012593,"Name":"Bowl barrow 190m south west of Tyning's Farm: part of the Tyning's Farm round barrow cemetery","SchedDate":-1150416000000,"AmendDate":702691200000,"CaptureScale":"1:10000","hyperlink":"https://historicengland.org.uk/listing/the-list/list-entry/1012593","area_ha":0.044530980163734156,"NGR":"ST 46849 56376","Easting":346849,"Northing":156376},"geometry":{"type":"Polygon","coordinates":[[[-2.76378,51.3039],[-2.76388,51.3039],[-2.76397,51.30394],[-2.76399,51.30403],[-2.76389,51.3041],[-2.76373,51.30409],[-2.76367,51.30404],[-2.76367,51.30397],[-2.76378,51.3039]]]}},{"type":"Feature","properties":{"ListEntry":1012594,"Name":"Group of three bowl barrows 180m south of Tyning's Farm: part of the Tyning's Farm round barrow cemetery","SchedDate":-1150416000000,"AmendDate":702691200000,"CaptureScale":"1:10000","hyperlink":"https://historicengland.org.uk/listing/the-list/list-entry/1012594","area_ha":0.2016829955114558,"NGR":"ST 46995 56339","Easting":346995,"Northing":156339,"img":"https://upload.wikimedia.org/wikipedia/commons/thumb/0/0e/Three_bowl_barrows_near_Tyning%27s_Farm_%28NHLE_1012594%29.jpg/500px-Three_bowl_barrows_near_Tyning%27s_Farm_%28NHLE_1012594%29.jpg","imgBy":"Dave.Dunford","imgLic":"CC BY-SA 4.0"},"geometry":{"type":"Polygon","coordinates":[[[-2.76182,51.30327],[-2.76193,51.30329],[-2.76198,51.30335],[-2.76195,51.30345],[-2.76184,51.30355],[-2.7618,51.30366],[-2.76181,51.30376],[-2.7619,51.3039],[-2.76191,51.30398],[-2.76184,51.30406],[-2.76172,51.30408],[-2.76162,51.30404],[-2.76156,51.30394],[-2.7615,51.30377],[-2.76148,51.30362],[-2.76158,51.30341],[-2.76174,51.30329],[-2.76182,51.30327]]]}},{"type":"Feature","properties":{"ListEntry":1014712,"Name":"Bowl barrow 75m south west of Long House Barn","SchedDate":-1131235200000,"AmendDate":836784000000,"CaptureScale":"1:10000","hyperlink":"https://historicengland.org.uk/listing/the-list/list-entry/1014712","area_ha":0.03796132603296493,"NGR":"ST 47777 56015","Easting":347777,"Northing":156015},"geometry":{"type":"Polygon","coordinates":[[[-2.75045,51.30075],[-2.7506,51.30079],[-2.75063,51.30084],[-2.75061,51.3009],[-2.75047,51.30095],[-2.75035,51.30091],[-2.75032,51.30086],[-2.75033,51.30081],[-2.75045,51.30075]]]}},{"type":"Feature","properties":{"ListEntry":1015495,"Name":"Medieval estate boundary earthwork on Shute Shelve Hill","SchedDate":215740800000,"AmendDate":854668800000,"CaptureScale":"1:10000","hyperlink":"https://historicengland.org.uk/listing/the-list/list-entry/1015495","area_ha":0.7195845787222475,"NGR":"ST 42768 56077","Easting":342768,"Northing":156077,"img":"https://upload.wikimedia.org/wikipedia/commons/thumb/0/0d/Shute_Shelve_Hill_medieval_estate_boundary_earthwork_02.jpg/500px-Shute_Shelve_Hill_medieval_estate_boundary_earthwork_02.jpg","imgBy":"Dave.Dunford","imgLic":"CC BY-SA 4.0"},"geometry":{"type":"Polygon","coordinates":[[[-2.82134,51.30101],[-2.82067,51.30084],[-2.81997,51.30099],[-2.81973,51.30101],[-2.81907,51.30092],[-2.81827,51.30103],[-2.81827,51.30092],[-2.81887,51.30081],[-2.81911,51.30081],[-2.81985,51.3009],[-2.82055,51.30074],[-2.82071,51.30074],[-2.82175,51.30098],[-2.8221,51.3009],[-2.82349,51.30082],[-2.82541,51.30077],[-2.82624,51.30072],[-2.82636,51.30075],[-2.82628,51.3009],[-2.82229,51.30095],[-2.82174,51.30111],[-2.82134,51.30101]]]}},{"type":"Feature","properties":{"ListEntry":1015499,"Name":"Star Roman villa, 275m north east of Wimblestone","SchedDate":-286675200000,"AmendDate":854668800000,"CaptureScale":"1:10000","hyperlink":"https://historicengland.org.uk/listing/the-list/list-entry/1015499","area_ha":0.9384406695368239,"NGR":"ST 43534 58685","Easting":343534,"Northing":158685},"geometry":{"type":"Polygon","coordinates":[[[-2.81091,51.32412],[-2.81252,51.32399],[-2.81258,51.32412],[-2.81241,51.32476],[-2.81102,51.32492],[-2.81091,51.32412]]]}},{"type":"Feature","properties":{"ListEntry":1015815,"Name":"Bowl barrow 250m south east of Tyning's Farm: part of the Tyning's Farm round barrow cemetery","SchedDate":-1150416000000,"AmendDate":702691200000,"CaptureScale":"1:10000","hyperlink":"https://historicengland.org.uk/listing/the-list/list-entry/1015815","area_ha":0.04903475656575917,"NGR":"ST 47085 56283","Easting":347085,"Northing":156283},"geometry":{"type":"Polygon","coordinates":[[[-2.76041,51.30308],[-2.76059,51.30314],[-2.76061,51.30319],[-2.76059,51.30325],[-2.76045,51.3033],[-2.76029,51.30326],[-2.76025,51.30321],[-2.76027,51.30315],[-2.76041,51.30308]]]}},{"type":"Feature","properties":{"ListEntry":1020994,"Name":"World War II anti-aircraft rocket battery and bombing decoy control building 265m north east of Ashridge Farm","SchedDate":1049155200000,"CaptureScale":"1:10000","hyperlink":"https://historicengland.org.uk/listing/the-list/list-entry/1020994","area_ha":0.8638216357014653,"NGR":"ST 46852 56110","Easting":346852,"Northing":156110},"geometry":{"type":"Polygon","coordinates":[[[-2.76339,51.30117],[-2.76374,51.30111],[-2.76462,51.30146],[-2.76402,51.30215],[-2.76288,51.30202],[-2.76339,51.30117]]]}},{"type":"Feature","properties":{"ListEntry":1020995,"Name":"World War II bombing decoy complex, anti-aircraft obstructions and Beacon Batch round barrow cemetery on Black Down","SchedDate":-1150329600000,"AmendDate":1062979200000,"CaptureScale":"1:10000","hyperlink":"https://historicengland.org.uk/listing/the-list/list-entry/1020995","area_ha":168.77935733869606,"NGR":"ST 48689 56621, ST 47960 57110","Easting":347960,"Northing":157110},"geometry":{"type":"MultiPolygon","coordinates":[[[[-2.73176,51.31007],[-2.73184,51.31005],[-2.73196,51.31006],[-2.73383,51.30822],[-2.73593,51.30626],[-2.73603,51.30628],[-2.73611,51.3064],[-2.73619,51.30646],[-2.73665,51.3065],[-2.75206,51.30754],[-2.76558,51.30904],[-2.76513,51.31047],[-2.76476,51.31088],[-2.76429,51.31172],[-2.7636,51.31323],[-2.76354,51.31339],[-2.76355,51.31351],[-2.76369,51.31406],[-2.73084,51.31427],[-2.73066,51.31423],[-2.73069,51.31415],[-2.73063,51.31398],[-2.73045,51.3137],[-2.73045,51.31359],[-2.73108,51.31143],[-2.7318,51.31026],[-2.73169,51.31018],[-2.7317,51.31012],[-2.73176,51.31007]]],[[[-2.7373,51.30643],[-2.73733,51.30629],[-2.73764,51.30631],[-2.73762,51.30646],[-2.7373,51.30643]]]]}},{"type":"Feature","properties":{"ListEntry":1461274,"Name":"Calamine mining remains, south of Glovers Field","SchedDate":1543226399000,"CaptureScale":"1:2500","hyperlink":"https://historicengland.org.uk/listing/the-list/list-entry/1461274","area_ha":2.676966226913893,"NGR":"ST4479157348","Easting":344791,"Northing":157348},"geometry":{"type":"Polygon","coordinates":[[[-2.79516,51.31298],[-2.79507,51.31297],[-2.7928,51.31346],[-2.79263,51.31345],[-2.79253,51.31344],[-2.79228,51.31293],[-2.79243,51.31289],[-2.79236,51.31281],[-2.79225,51.31276],[-2.79179,51.31271],[-2.79195,51.31261],[-2.7929,51.31228],[-2.79304,51.31215],[-2.79311,51.31201],[-2.79308,51.31184],[-2.79302,51.31169],[-2.79443,51.31197],[-2.7948,51.31193],[-2.79494,51.31235],[-2.79514,51.31249],[-2.79514,51.31262],[-2.79522,51.31283],[-2.79516,51.31298]]]}}]}