{"type":"FeatureCollection","features":[{"type":"Feature","properties":{"REF_CODE":"1001020","NAME":"Axbridge Hill and Fry's Hill SSSI","MEASURE":67.06383329503916,"LABEL":"Axbridge Hill and Fry's Hill (SSSI)","HYPERLINK":"1005812","CONTACT_NO":"0845 600 3078"},"geometry":{"type":"Polygon","coordinates":[[[-2.80735,51.29765],[-2.80729,51.29728],[-2.8073,51.29667],[-2.80725,51.29647],[-2.8072,51.29645],[-2.80642,51.29647],[-2.80631,51.29526],[-2.80601,51.29454],[-2.80611,51.29428],[-2.8064,51.29383],[-2.80645,51.29371],[-2.80632,51.29324],[-2.80618,51.29308],[-2.80615,51.29298],[-2.80613,51.29259],[-2.80616,51.29225],[-2.80629,51.29224],[-2.80665,51.29187],[-2.8076,51.291],[-2.80776,51.29077],[-2.80782,51.29063],[-2.80784,51.29041],[-2.80779,51.2903],[-2.80802,51.29019],[-2.80883,51.28993],[-2.80891,51.28987],[-2.80891,51.28983],[-2.80902,51.28987],[-2.81017,51.28979],[-2.81167,51.28986],[-2.81172,51.28983],[-2.81231,51.28979],[-2.81249,51.28983],[-2.81267,51.28989],[-2.81293,51.29009],[-2.81316,51.29045],[-2.81335,51.29062],[-2.81349,51.29069],[-2.81369,51.29071],[-2.81378,51.29088],[-2.81417,51.29128],[-2.81425,51.29144],[-2.81464,51.29185],[-2.8151,51.29167],[-2.8155,51.29162],[-2.81561,51.29158],[-2.81576,51.29162],[-2.81596,51.29156],[-2.8166,51.29106],[-2.81703,51.29078],[-2.81728,51.29066],[-2.81756,51.29061],[-2.81745,51.29053],[-2.81717,51.29044],[-2.81706,51.29036],[-2.81669,51.28971],[-2.81686,51.28961],[-2.81701,51.28962],[-2.8174,51.28953],[-2.81741,51.28955],[-2.81764,51.28953],[-2.81813,51.28956],[-2.81829,51.28948],[-2.81843,51.28938],[-2.81973,51.28919],[-2.8205,51.28933],[-2.82084,51.28941],[-2.82221,51.29],[-2.82168,51.29094],[-2.82155,51.29133],[-2.82087,51.29285],[-2.82085,51.293],[-2.82075,51.29295],[-2.82063,51.29279],[-2.82049,51.29252],[-2.82034,51.29247],[-2.8201,51.29253],[-2.81977,51.29273],[-2.81923,51.29315],[-2.81796,51.29388],[-2.81664,51.29487],[-2.81614,51.29509],[-2.81548,51.29526],[-2.81528,51.29634],[-2.81513,51.29685],[-2.81492,51.29739],[-2.80975,51.29768],[-2.80973,51.29752],[-2.80945,51.29753],[-2.80906,51.29767],[-2.80736,51.29776],[-2.80735,51.29765]]]}},{"type":"Feature","properties":{"REF_CODE":"1001189","NAME":"Banwell Ochre Caves SSSI","MEASURE":11.504573029520266,"LABEL":"Banwell Ochre Caves (SSSI)","HYPERLINK":"1004187","CONTACT_NO":"0845 600 3078"},"geometry":{"type":"Polygon","coordinates":[[[-2.84823,51.32942],[-2.84797,51.32942],[-2.84821,51.32791],[-2.84845,51.328],[-2.84905,51.32806],[-2.85078,51.32809],[-2.85175,51.32806],[-2.852,51.32792],[-2.852,51.32772],[-2.85191,51.32748],[-2.85175,51.32721],[-2.85126,51.32664],[-2.85093,51.32638],[-2.85192,51.32614],[-2.8535,51.3271],[-2.85376,51.32712],[-2.8544,51.32763],[-2.8545,51.32777],[-2.85448,51.32793],[-2.85477,51.32838],[-2.85464,51.32872],[-2.85497,51.32901],[-2.85497,51.32926],[-2.85432,51.3296],[-2.85385,51.32973],[-2.85214,51.32999],[-2.85203,51.32993],[-2.85052,51.32984],[-2.84999,51.32977],[-2.84909,51.32954],[-2.84823,51.32942]]]}},{"type":"Feature","properties":{"REF_CODE":"1001478","NAME":"Bourne SSSI","MEASURE":8.71902130674892,"LABEL":"Bourne (SSSI)","HYPERLINK":"1000563","CONTACT_NO":"0845 600 3078"},"geometry":{"type":"Polygon","coordinates":[[[-2.7428,51.34031],[-2.74275,51.34028],[-2.74262,51.34001],[-2.74251,51.33987],[-2.74247,51.33971],[-2.7419,51.33932],[-2.74152,51.33911],[-2.74129,51.33913],[-2.74103,51.33899],[-2.74043,51.33899],[-2.74101,51.33836],[-2.74171,51.3377],[-2.74207,51.33696],[-2.74219,51.33678],[-2.7437,51.33561],[-2.74394,51.33593],[-2.74418,51.33634],[-2.74434,51.33698],[-2.74455,51.33755],[-2.74539,51.33896],[-2.74288,51.34031],[-2.7428,51.34031]]]}},{"type":"Feature","properties":{"REF_CODE":"1001345","NAME":"Burrington Combe SSSI","MEASURE":138.0559148423773,"LABEL":"Burrington Combe (SSSI)","HYPERLINK":"1002537","CONTACT_NO":"0845 600 3078"},"geometry":{"type":"Polygon","coordinates":[[[-2.76447,51.32273],[-2.76367,51.32259],[-2.76286,51.32231],[-2.7626,51.32225],[-2.76175,51.32209],[-2.76129,51.32208],[-2.75998,51.32248],[-2.75884,51.32287],[-2.75734,51.32322],[-2.75703,51.32337],[-2.7563,51.32386],[-2.75572,51.32443],[-2.75554,51.32451],[-2.75547,51.32458],[-2.7552,51.32497],[-2.75501,51.32585],[-2.755,51.32624],[-2.75489,51.3264],[-2.75487,51.3264],[-2.75477,51.32659],[-2.75482,51.32672],[-2.75501,51.32692],[-2.75503,51.32706],[-2.75498,51.32717],[-2.75471,51.32732],[-2.75427,51.32735],[-2.75427,51.32738],[-2.75435,51.32737],[-2.75435,51.3274],[-2.7546,51.3274],[-2.75446,51.32749],[-2.75411,51.32759],[-2.75398,51.32755],[-2.75394,51.32743],[-2.75396,51.32738],[-2.75382,51.32739],[-2.75378,51.32735],[-2.7537,51.32735],[-2.75369,51.32725],[-2.75327,51.32727],[-2.7531,51.32724],[-2.75317,51.32696],[-2.75314,51.32641],[-2.75313,51.32638],[-2.75301,51.32639],[-2.75281,51.32683],[-2.75276,51.32683],[-2.75251,51.32738],[-2.75247,51.32738],[-2.75216,51.32779],[-2.75209,51.32782],[-2.75182,51.32777],[-2.75163,51.32797],[-2.75138,51.32798],[-2.75116,51.32804],[-2.75075,51.32803],[-2.75071,51.32799],[-2.75023,51.3279],[-2.75022,51.32779],[-2.75005,51.32771],[-2.74975,51.32764],[-2.74955,51.32753],[-2.74931,51.32733],[-2.74911,51.32724],[-2.74836,51.32707],[-2.74812,51.32705],[-2.74798,51.32707],[-2.74795,51.32723],[-2.74834,51.32727],[-2.74845,51.32731],[-2.74836,51.32747],[-2.74748,51.32747],[-2.74748,51.32784],[-2.74744,51.32796],[-2.7474,51.32795],[-2.74736,51.32799],[-2.74633,51.32773],[-2.74601,51.3277],[-2.74539,51.32783],[-2.74491,51.32812],[-2.74446,51.32832],[-2.74407,51.32842],[-2.74355,51.32845],[-2.74357,51.32838],[-2.74279,51.32828],[-2.74277,51.32798],[-2.74281,51.32787],[-2.74301,51.32787],[-2.74326,51.3275],[-2.74331,51.3275],[-2.74333,51.32737],[-2.74327,51.32731],[-2.74344,51.32687],[-2.74412,51.32688],[-2.74417,51.32698],[-2.74461,51.32701],[-2.74449,51.32648],[-2.7444,51.32635],[-2.74427,51.32603],[-2.74425,51.32595],[-2.74429,51.32593],[-2.74424,51.32559],[-2.74406,51.32521],[-2.74391,51.32506],[-2.74374,51.32495],[-2.743,51.32467],[-2.74229,51.32503],[-2.74173,51.32526],[-2.74113,51.32544],[-2.74136,51.32566],[-2.74151,51.32572],[-2.74136,51.32587],[-2.74196,51.32625],[-2.74188,51.32652],[-2.7414,51.32731],[-2.74116,51.32767],[-2.74101,51.32814],[-2.74073,51.32859],[-2.73988,51.32926],[-2.73979,51.32948],[-2.73961,51.32953],[-2.7396,51.32962],[-2.73893,51.32991],[-2.73881,51.32976],[-2.73884,51.32971],[-2.73858,51.32956],[-2.73861,51.32951],[-2.73815,51.32931],[-2.73776,51.32901],[-2.73792,51.32882],[-2.73803,51.3284],[-2.73809,51.3284],[-2.73812,51.32823],[-2.73806,51.32822],[-2.73811,51.32811],[-2.73816,51.32771],[-2.73731,51.3273],[-2.73686,51.32573],[-2.73667,51.32516],[-2.73648,51.32477],[-2.73633,51.32428],[-2.73635,51.32382],[-2.73384,51.32121],[-2.73361,51.32087],[-2.73375,51.32082],[-2.73369,51.3202],[-2.73372,51.32012],[-2.73382,51.3201],[-2.73391,51.31974],[-2.73403,51.31982],[-2.73414,51.32],[-2.73438,51.32004],[-2.73486,51.31994],[-2.73522,51.31993],[-2.73733,51.32007],[-2.73732,51.31996],[-2.73936,51.3199],[-2.73995,51.31985],[-2.74177,51.31992],[-2.7436,51.32015],[-2.74457,51.31988],[-2.74548,51.31966],[-2.74576,51.31969],[-2.74588,51.31965],[-2.7462,51.3197],[-2.74651,51.31968],[-2.74697,51.31974],[-2.7478,51.31975],[-2.74901,51.3191],[-2.74916,51.31923],[-2.74947,51.31941],[-2.75064,51.31975],[-2.75149,51.31991],[-2.75233,51.32],[-2.75285,51.32009],[-2.75323,51.32001],[-2.75382,51.31973],[-2.7579,51.3197],[-2.759,51.31962],[-2.75924,51.31963],[-2.75952,51.31971],[-2.75979,51.31964],[-2.76005,51.31967],[-2.76035,51.31964],[-2.76099,51.31968],[-2.76139,51.31968],[-2.76181,51.31962],[-2.76354,51.3196],[-2.76351,51.31972],[-2.7634,51.31978],[-2.76337,51.31988],[-2.76353,51.32013],[-2.76367,51.32027],[-2.76364,51.32035],[-2.76368,51.32052],[-2.76361,51.32068],[-2.76371,51.32078],[-2.76373,51.32085],[-2.76366,51.32096],[-2.76368,51.32105],[-2.76359,51.3211],[-2.76355,51.32119],[-2.7636,51.32125],[-2.76364,51.32141],[-2.7636,51.32156],[-2.7638,51.32175],[-2.7641,51.32191],[-2.76422,51.32208],[-2.7644,51.32218],[-2.76454,51.32235],[-2.76453,51.32247],[-2.76461,51.32257],[-2.76447,51.32273]]]}},{"type":"Feature","properties":{"REF_CODE":"1001380","NAME":"Cheddar Reservoir SSSI","MEASURE":105.88387352395586,"LABEL":"Cheddar Reservoir (SSSI)","HYPERLINK":"1003948","CONTACT_NO":"0845 600 3078"},"geometry":{"type":"Polygon","coordinates":[[[-2.7985,51.28428],[-2.79821,51.28414],[-2.79798,51.28409],[-2.7972,51.28369],[-2.79592,51.28294],[-2.79543,51.28257],[-2.79498,51.28205],[-2.79448,51.28129],[-2.79421,51.2806],[-2.79412,51.27989],[-2.79412,51.27942],[-2.79416,51.2792],[-2.7943,51.27881],[-2.8101,51.27881],[-2.81012,51.27951],[-2.81009,51.2806],[-2.81016,51.28072],[-2.81002,51.28233],[-2.80983,51.28299],[-2.80966,51.28329],[-2.80924,51.28377],[-2.80852,51.28429],[-2.80789,51.28464],[-2.80727,51.28485],[-2.80624,51.28506],[-2.80556,51.28514],[-2.80437,51.28523],[-2.8032,51.28522],[-2.80134,51.28513],[-2.80037,51.28499],[-2.79961,51.28479],[-2.79913,51.28462],[-2.79883,51.28443],[-2.7985,51.28428]]]}},{"type":"Feature","properties":{"REF_CODE":"1001381","NAME":"Cheddar Wood SSSI","MEASURE":86.1542640077176,"LABEL":"Cheddar Wood (SSSI)","HYPERLINK":"1005812","CONTACT_NO":"0845 600 3078"},"geometry":{"type":"Polygon","coordinates":[[[-2.78911,51.29576],[-2.78905,51.29576],[-2.78891,51.29552],[-2.7884,51.29509],[-2.78831,51.29495],[-2.78828,51.29479],[-2.78843,51.29449],[-2.7889,51.29376],[-2.78907,51.29339],[-2.78943,51.29284],[-2.78965,51.29255],[-2.78995,51.29229],[-2.79025,51.29197],[-2.79043,51.29202],[-2.78952,51.29326],[-2.78976,51.29332],[-2.79008,51.29301],[-2.79039,51.29246],[-2.79063,51.29227],[-2.79075,51.29212],[-2.79114,51.29224],[-2.79163,51.29235],[-2.79136,51.29299],[-2.79153,51.293],[-2.79252,51.29307],[-2.79264,51.29237],[-2.79363,51.29234],[-2.7943,51.29237],[-2.79455,51.29203],[-2.79489,51.29184],[-2.79554,51.29138],[-2.79635,51.29046],[-2.79742,51.29076],[-2.79741,51.29062],[-2.79749,51.29056],[-2.7975,51.29049],[-2.79758,51.29051],[-2.79768,51.2904],[-2.79771,51.2903],[-2.79768,51.29019],[-2.79747,51.29012],[-2.79748,51.29006],[-2.79778,51.28957],[-2.79786,51.28935],[-2.79803,51.28943],[-2.79808,51.28925],[-2.79817,51.28906],[-2.79799,51.28895],[-2.79756,51.28887],[-2.79795,51.2881],[-2.79803,51.28804],[-2.79827,51.28796],[-2.79892,51.28794],[-2.79991,51.28806],[-2.80087,51.28811],[-2.80114,51.28829],[-2.80133,51.2885],[-2.8016,51.28886],[-2.80165,51.28911],[-2.80162,51.28925],[-2.80165,51.28928],[-2.80166,51.28954],[-2.80109,51.28961],[-2.80129,51.2902],[-2.8019,51.29115],[-2.80265,51.29109],[-2.80303,51.29116],[-2.80399,51.29112],[-2.80466,51.29129],[-2.80483,51.29137],[-2.80511,51.29157],[-2.80548,51.29197],[-2.80589,51.29226],[-2.80615,51.29229],[-2.80613,51.29267],[-2.80616,51.29304],[-2.80632,51.29324],[-2.80644,51.29366],[-2.80642,51.2938],[-2.80618,51.29416],[-2.80601,51.29454],[-2.80631,51.29526],[-2.80646,51.29694],[-2.79346,51.29717],[-2.79346,51.29815],[-2.79327,51.29826],[-2.79203,51.29844],[-2.79197,51.29878],[-2.79187,51.29906],[-2.79103,51.29952],[-2.79075,51.29939],[-2.79036,51.29908],[-2.79018,51.29829],[-2.78977,51.29724],[-2.78958,51.29667],[-2.78911,51.29576]]]}},{"type":"Feature","properties":{"REF_CODE":"1001573","NAME":"Crook Peak to Shute Shelve Hill SSSI","MEASURE":332.7035087300419,"LABEL":"Crook Peak to Shute Shelve Hill (SSSI)","HYPERLINK":"1005812","CONTACT_NO":"0845 600 3078"},"geometry":{"type":"MultiPolygon","coordinates":[[[[-2.82106,51.30095],[-2.82059,51.30085],[-2.81987,51.30101],[-2.8197,51.30102],[-2.81914,51.30093],[-2.81883,51.30094],[-2.81826,51.30104],[-2.81826,51.30095],[-2.81893,51.29937],[-2.8198,51.29703],[-2.82004,51.29657],[-2.82018,51.29621],[-2.82045,51.29572],[-2.82059,51.29506],[-2.82083,51.29437],[-2.82087,51.29285],[-2.82155,51.29133],[-2.82168,51.29094],[-2.82225,51.28994],[-2.82242,51.28995],[-2.82261,51.28986],[-2.82321,51.28974],[-2.82344,51.28963],[-2.82345,51.28955],[-2.82413,51.28946],[-2.82519,51.28891],[-2.82534,51.28897],[-2.82588,51.28918],[-2.82685,51.28965],[-2.82745,51.29004],[-2.82785,51.29037],[-2.82839,51.29095],[-2.82874,51.29143],[-2.8291,51.29212],[-2.82928,51.29263],[-2.8295,51.29262],[-2.82955,51.29273],[-2.8297,51.29311],[-2.82976,51.29438],[-2.82981,51.29439],[-2.82981,51.29444],[-2.82983,51.29445],[-2.82983,51.29456],[-2.8298,51.29456],[-2.82979,51.29514],[-2.83002,51.29532],[-2.83034,51.29525],[-2.83042,51.29528],[-2.82997,51.29585],[-2.82966,51.29632],[-2.82962,51.29655],[-2.82946,51.29701],[-2.82947,51.29713],[-2.8294,51.2974],[-2.82921,51.29769],[-2.82917,51.29785],[-2.82926,51.29835],[-2.82936,51.2987],[-2.82938,51.29918],[-2.82956,51.29989],[-2.82975,51.30013],[-2.82991,51.30025],[-2.83002,51.30028],[-2.83046,51.30021],[-2.83036,51.30053],[-2.82912,51.30033],[-2.82938,51.30089],[-2.82829,51.30091],[-2.8281,51.30086],[-2.82774,51.30067],[-2.82784,51.30062],[-2.82825,51.30024],[-2.82773,51.30007],[-2.82733,51.30046],[-2.82729,51.30057],[-2.82703,51.3008],[-2.82699,51.30088],[-2.82242,51.30095],[-2.82226,51.30097],[-2.82179,51.30111],[-2.82154,51.30108],[-2.82106,51.30095]]],[[[-2.82308,51.30062],[-2.82336,51.30053],[-2.82386,51.30057],[-2.82448,51.30045],[-2.82488,51.3006],[-2.82496,51.3006],[-2.82583,51.30048],[-2.82608,51.30049],[-2.82639,51.30039],[-2.82663,51.30038],[-2.82681,51.3003],[-2.82714,51.29997],[-2.82734,51.29964],[-2.8273,51.2994],[-2.82717,51.29907],[-2.8272,51.29894],[-2.82707,51.29872],[-2.82711,51.29855],[-2.82705,51.29845],[-2.82499,51.29843],[-2.8232,51.2982],[-2.82298,51.29814],[-2.82259,51.29829],[-2.82247,51.29842],[-2.8223,51.29874],[-2.82186,51.29902],[-2.82162,51.29941],[-2.82158,51.29956],[-2.82162,51.29971],[-2.82151,51.29991],[-2.82141,51.30035],[-2.8215,51.30052],[-2.82231,51.30086],[-2.82308,51.30062]]],[[[-2.85497,51.2998],[-2.85317,51.29946],[-2.84522,51.29998],[-2.83894,51.30033],[-2.83612,51.30052],[-2.83132,51.30076],[-2.83122,51.30054],[-2.83135,51.30054],[-2.83113,51.29992],[-2.83174,51.29993],[-2.83185,51.29988],[-2.83193,51.29958],[-2.83231,51.29911],[-2.83237,51.29833],[-2.83246,51.29834],[-2.83248,51.29826],[-2.83253,51.29822],[-2.8333,51.29828],[-2.8334,51.29839],[-2.83536,51.29874],[-2.83548,51.29865],[-2.83556,51.29854],[-2.83575,51.29844],[-2.83625,51.29744],[-2.83607,51.29738],[-2.83637,51.29662],[-2.83668,51.29667],[-2.83691,51.29573],[-2.83713,51.29529],[-2.83727,51.29466],[-2.83724,51.2944],[-2.83712,51.29413],[-2.83713,51.29371],[-2.83708,51.29316],[-2.83711,51.29306],[-2.83727,51.29289],[-2.83732,51.29273],[-2.83733,51.29253],[-2.8373,51.2925],[-2.83625,51.29236],[-2.83583,51.29227],[-2.83605,51.29184],[-2.8361,51.29167],[-2.83621,51.29104],[-2.83625,51.2906],[-2.8363,51.29044],[-2.83649,51.29006],[-2.83657,51.29005],[-2.83673,51.29007],[-2.83785,51.29004],[-2.83808,51.2901],[-2.83834,51.29027],[-2.83857,51.2903],[-2.83932,51.29002],[-2.83959,51.28999],[-2.84018,51.29033],[-2.84068,51.29043],[-2.84091,51.29039],[-2.84135,51.29011],[-2.84137,51.29006],[-2.84153,51.29012],[-2.84179,51.29013],[-2.8421,51.2902],[-2.8422,51.29015],[-2.84248,51.29024],[-2.84284,51.29026],[-2.84288,51.29052],[-2.84287,51.29062],[-2.84275,51.29074],[-2.84255,51.29087],[-2.84229,51.29093],[-2.84226,51.29119],[-2.84217,51.29133],[-2.84212,51.29161],[-2.84189,51.29191],[-2.84183,51.29209],[-2.84183,51.29226],[-2.84188,51.29232],[-2.84189,51.29242],[-2.84186,51.29255],[-2.8419,51.29268],[-2.84189,51.29286],[-2.84183,51.29298],[-2.84188,51.29309],[-2.84191,51.29328],[-2.84201,51.29342],[-2.84232,51.29368],[-2.84253,51.29378],[-2.84257,51.29371],[-2.84261,51.2937],[-2.84284,51.29379],[-2.84392,51.29448],[-2.84404,51.29481],[-2.84407,51.29514],[-2.844,51.29531],[-2.84406,51.29549],[-2.84443,51.29567],[-2.8447,51.29606],[-2.84525,51.29625],[-2.84553,51.29626],[-2.84592,51.29635],[-2.84644,51.29638],[-2.84664,51.29588],[-2.8466,51.29574],[-2.84679,51.29486],[-2.84687,51.29411],[-2.8471,51.29412],[-2.84736,51.29404],[-2.84786,51.29384],[-2.84823,51.29363],[-2.84839,51.29345],[-2.84848,51.29343],[-2.84845,51.29323],[-2.84852,51.29315],[-2.84874,51.2931],[-2.84918,51.29293],[-2.84936,51.29291],[-2.84949,51.29293],[-2.84981,51.29285],[-2.85021,51.29285],[-2.85047,51.29301],[-2.85107,51.29295],[-2.85205,51.29293],[-2.85215,51.2929],[-2.85207,51.29313],[-2.85237,51.29344],[-2.85242,51.29354],[-2.85313,51.29408],[-2.85343,51.29424],[-2.85365,51.29449],[-2.85376,51.29454],[-2.85405,51.29455],[-2.85425,51.29462],[-2.85444,51.29462],[-2.85455,51.29458],[-2.85491,51.29468],[-2.85482,51.29482],[-2.85475,51.2948],[-2.85472,51.29486],[-2.85475,51.29491],[-2.85497,51.295],[-2.85497,51.2998]]],[[[-2.83975,51.29071],[-2.83941,51.29069],[-2.8394,51.29076],[-2.83974,51.29078],[-2.83975,51.29071]]]]}},{"type":"Feature","properties":{"REF_CODE":"1001350","NAME":"Dolebury Warren SSSI","MEASURE":92.2371522696114,"LABEL":"Dolebury Warren (SSSI)","HYPERLINK":"1002660","CONTACT_NO":"0845 600 3078"},"geometry":{"type":"Polygon","coordinates":[[[-2.79099,51.32908],[-2.79052,51.32954],[-2.7895,51.3302],[-2.78927,51.33023],[-2.78902,51.32966],[-2.78616,51.32996],[-2.78622,51.33024],[-2.78555,51.33028],[-2.78495,51.33019],[-2.78477,51.33013],[-2.78379,51.3301],[-2.78348,51.33003],[-2.78333,51.33003],[-2.78311,51.32997],[-2.78299,51.32988],[-2.78272,51.32977],[-2.78313,51.32878],[-2.7822,51.32884],[-2.77985,51.32875],[-2.7792,51.32877],[-2.77836,51.32874],[-2.77724,51.32861],[-2.77606,51.32843],[-2.77436,51.32809],[-2.77282,51.32769],[-2.77209,51.32744],[-2.77183,51.32732],[-2.77067,51.32698],[-2.77032,51.3268],[-2.76922,51.32609],[-2.76888,51.32497],[-2.76865,51.32436],[-2.76837,51.32393],[-2.76835,51.32385],[-2.7684,51.32379],[-2.76854,51.32377],[-2.77,51.32379],[-2.77104,51.32374],[-2.77286,51.32346],[-2.77659,51.32359],[-2.77839,51.32361],[-2.78139,51.32388],[-2.78184,51.32396],[-2.78282,51.32408],[-2.78414,51.32417],[-2.78416,51.32415],[-2.78499,51.32418],[-2.78533,51.32426],[-2.78622,51.3248],[-2.78668,51.32489],[-2.78854,51.32487],[-2.78974,51.3249],[-2.79109,51.32519],[-2.79328,51.32537],[-2.79455,51.32556],[-2.79537,51.32579],[-2.79577,51.32597],[-2.79601,51.32619],[-2.79619,51.32647],[-2.79628,51.327],[-2.79626,51.32709],[-2.79617,51.32723],[-2.79592,51.32753],[-2.79575,51.32766],[-2.79544,51.32767],[-2.79448,51.32818],[-2.79337,51.32851],[-2.7916,51.32865],[-2.79099,51.32908]]]}},{"type":"Feature","properties":{"REF_CODE":"1001608","NAME":"Max Bog SSSI","MEASURE":10.311692855566845,"LABEL":"Max Bog (SSSI)","HYPERLINK":"1003773","CONTACT_NO":"0845 600 3078"},"geometry":{"type":"MultiPolygon","coordinates":[[[[-2.85359,51.31287],[-2.85358,51.31285],[-2.85326,51.31287],[-2.85317,51.31275],[-2.85317,51.31269],[-2.85296,51.31264],[-2.85243,51.31271],[-2.85212,51.31269],[-2.85125,51.31277],[-2.85108,51.31284],[-2.85064,51.31247],[-2.85071,51.31239],[-2.85097,51.31225],[-2.85124,51.31205],[-2.85142,51.31198],[-2.85222,51.31201],[-2.85303,51.31176],[-2.85337,51.31172],[-2.85374,51.31178],[-2.85427,51.31167],[-2.85461,51.31177],[-2.85497,51.31173],[-2.85497,51.31251],[-2.85381,51.31282],[-2.85363,51.31289],[-2.85359,51.31287]]],[[[-2.84834,51.31465],[-2.84829,51.3146],[-2.84798,51.31455],[-2.84788,51.31447],[-2.84769,51.31441],[-2.84761,51.31432],[-2.8474,51.31427],[-2.8472,51.31417],[-2.84717,51.31406],[-2.84697,51.3141],[-2.84666,51.31428],[-2.84632,51.31424],[-2.84565,51.31391],[-2.84533,51.31365],[-2.84512,51.31359],[-2.84489,51.31359],[-2.84471,51.31288],[-2.84474,51.31274],[-2.84493,51.31279],[-2.84559,51.31281],[-2.84595,51.3128],[-2.84636,51.31273],[-2.84636,51.31257],[-2.84621,51.31248],[-2.84618,51.31243],[-2.84628,51.31232],[-2.8463,51.31223],[-2.84628,51.3122],[-2.8476,51.31237],[-2.84761,51.3124],[-2.84775,51.31252],[-2.84791,51.31257],[-2.84932,51.31273],[-2.84941,51.31271],[-2.84952,51.31308],[-2.84955,51.31335],[-2.84953,51.31344],[-2.84964,51.31347],[-2.84956,51.31377],[-2.84929,51.31448],[-2.84929,51.31464],[-2.84917,51.31465],[-2.84926,51.3147],[-2.84901,51.31475],[-2.84874,51.31487],[-2.84863,51.31481],[-2.84858,51.31475],[-2.84843,51.31472],[-2.84834,51.31465]]],[[[-2.85326,51.31494],[-2.85286,51.31492],[-2.85269,51.31481],[-2.85271,51.31468],[-2.85278,51.31456],[-2.85283,51.31438],[-2.85275,51.31407],[-2.85328,51.31398],[-2.85332,51.31394],[-2.8537,51.31391],[-2.85399,51.31456],[-2.8541,51.31488],[-2.85395,51.31491],[-2.85326,51.31494]]]]}},{"type":"Feature","properties":{"REF_CODE":"1001379","NAME":"The Cheddar Complex SSSI","MEASURE":446.41311885441064,"LABEL":"The Cheddar Complex (SSSI)","HYPERLINK":"1003940","CONTACT_NO":"0845 600 3078"},"geometry":{"type":"MultiPolygon","coordinates":[[[[-2.72742,51.29013],[-2.73508,51.28904],[-2.73428,51.28854],[-2.73434,51.28841],[-2.73525,51.28807],[-2.7365,51.28744],[-2.7376,51.28668],[-2.73811,51.28609],[-2.73874,51.28572],[-2.74131,51.2859],[-2.74182,51.28514],[-2.74101,51.28434],[-2.73962,51.28356],[-2.73829,51.28289],[-2.7371,51.28218],[-2.73616,51.28178],[-2.735,51.28145],[-2.73445,51.28131],[-2.73421,51.28133],[-2.73404,51.28142],[-2.73336,51.28103],[-2.73326,51.28086],[-2.73288,51.27975],[-2.73269,51.27966],[-2.73255,51.27955],[-2.73224,51.27942],[-2.73214,51.27932],[-2.73198,51.27881],[-2.74347,51.27881],[-2.74549,51.28023],[-2.74904,51.28281],[-2.74939,51.2831],[-2.75038,51.28408],[-2.75194,51.283],[-2.75376,51.2818],[-2.75602,51.27991],[-2.75724,51.28029],[-2.7583,51.28055],[-2.75925,51.28051],[-2.76005,51.28056],[-2.76039,51.2805],[-2.76082,51.28051],[-2.76129,51.28043],[-2.76239,51.28033],[-2.76349,51.28037],[-2.76431,51.28036],[-2.7648,51.28023],[-2.76484,51.28017],[-2.7654,51.28006],[-2.76595,51.27987],[-2.76681,51.27964],[-2.76686,51.27995],[-2.76866,51.28011],[-2.76989,51.28012],[-2.76993,51.28042],[-2.76996,51.28042],[-2.7701,51.28044],[-2.77011,51.2804],[-2.77054,51.28032],[-2.77106,51.28013],[-2.77125,51.28027],[-2.77166,51.28018],[-2.77181,51.28019],[-2.77198,51.28026],[-2.77198,51.28029],[-2.77196,51.28034],[-2.77177,51.28051],[-2.77183,51.28056],[-2.77159,51.28074],[-2.77177,51.2808],[-2.77141,51.28102],[-2.77026,51.28118],[-2.77023,51.2812],[-2.77021,51.28118],[-2.77015,51.2812],[-2.7701,51.28118],[-2.77004,51.2812],[-2.77006,51.28127],[-2.76947,51.28151],[-2.76943,51.28148],[-2.76937,51.28151],[-2.76902,51.2817],[-2.76877,51.28177],[-2.76786,51.2818],[-2.7676,51.28177],[-2.76735,51.28178],[-2.76712,51.28176],[-2.76696,51.28171],[-2.76629,51.28165],[-2.76615,51.28169],[-2.76612,51.28166],[-2.76575,51.28169],[-2.76537,51.28195],[-2.76545,51.28199],[-2.7654,51.28203],[-2.76548,51.28201],[-2.76549,51.28209],[-2.7654,51.2822],[-2.76542,51.28223],[-2.76533,51.28249],[-2.76528,51.28252],[-2.76526,51.28257],[-2.76546,51.2827],[-2.76546,51.28265],[-2.76556,51.28265],[-2.76552,51.28251],[-2.76564,51.28244],[-2.76562,51.28234],[-2.76566,51.28224],[-2.76578,51.28221],[-2.76639,51.28225],[-2.76658,51.28224],[-2.76658,51.28222],[-2.76698,51.28222],[-2.76705,51.28211],[-2.76713,51.28214],[-2.76715,51.28212],[-2.76781,51.28231],[-2.76791,51.28236],[-2.76788,51.28239],[-2.76799,51.28243],[-2.76802,51.2824],[-2.76829,51.28245],[-2.76951,51.28251],[-2.77021,51.28273],[-2.77019,51.28275],[-2.77023,51.28276],[-2.7698,51.2831],[-2.76726,51.28476],[-2.76722,51.28535],[-2.76686,51.28538],[-2.76674,51.28526],[-2.76567,51.28599],[-2.76644,51.28699],[-2.76793,51.28868],[-2.76793,51.28873],[-2.76699,51.2888],[-2.76661,51.28896],[-2.76656,51.28892],[-2.76561,51.28918],[-2.76463,51.2894],[-2.76379,51.28966],[-2.76386,51.28978],[-2.76357,51.28973],[-2.76327,51.28993],[-2.76309,51.29009],[-2.76238,51.29031],[-2.76203,51.29059],[-2.7619,51.2909],[-2.76176,51.29109],[-2.75854,51.28972],[-2.75708,51.29106],[-2.75367,51.29038],[-2.75107,51.29291],[-2.75007,51.29282],[-2.74717,51.29239],[-2.74687,51.29172],[-2.74434,51.29162],[-2.74451,51.29128],[-2.74254,51.29101],[-2.7423,51.29023],[-2.73952,51.29007],[-2.73909,51.2909],[-2.739,51.29101],[-2.73782,51.29175],[-2.738,51.29213],[-2.73818,51.29215],[-2.73814,51.29228],[-2.73868,51.29294],[-2.73916,51.2944],[-2.73908,51.29444],[-2.73905,51.29455],[-2.73912,51.29477],[-2.7394,51.29533],[-2.73945,51.29557],[-2.73954,51.29573],[-2.73955,51.29588],[-2.73966,51.29595],[-2.74048,51.29619],[-2.74093,51.29662],[-2.74103,51.29678],[-2.74102,51.29689],[-2.74088,51.297],[-2.74008,51.29691],[-2.73985,51.29681],[-2.73978,51.29682],[-2.73984,51.29694],[-2.74,51.297],[-2.7407,51.2971],[-2.74162,51.29742],[-2.74128,51.29782],[-2.73962,51.29893],[-2.73934,51.29935],[-2.73918,51.29938],[-2.73847,51.2993],[-2.73825,51.29936],[-2.73816,51.29958],[-2.73831,51.29961],[-2.73818,51.29984],[-2.73809,51.29983],[-2.73802,51.29992],[-2.73796,51.2999],[-2.73787,51.30004],[-2.73786,51.30011],[-2.73767,51.30009],[-2.7373,51.30021],[-2.73704,51.3001],[-2.73701,51.29999],[-2.73702,51.29992],[-2.73735,51.29962],[-2.73744,51.29943],[-2.73738,51.29923],[-2.73717,51.2989],[-2.73631,51.29874],[-2.73563,51.29871],[-2.73531,51.29863],[-2.73534,51.29859],[-2.73524,51.29836],[-2.73459,51.29703],[-2.73435,51.29594],[-2.73407,51.29491],[-2.7356,51.29496],[-2.7352,51.29441],[-2.73511,51.29418],[-2.73501,51.29401],[-2.73493,51.29366],[-2.735,51.2933],[-2.73499,51.29321],[-2.73487,51.29291],[-2.7347,51.29268],[-2.7328,51.29316],[-2.73167,51.29334],[-2.73013,51.29367],[-2.72961,51.29376],[-2.72742,51.29394],[-2.72742,51.29013]]],[[[-2.75072,51.30242],[-2.75089,51.30211],[-2.75101,51.30198],[-2.75123,51.30144],[-2.75133,51.30108],[-2.75238,51.29966],[-2.753,51.29977],[-2.75486,51.29996],[-2.7544,51.30174],[-2.75437,51.30213],[-2.75433,51.30219],[-2.75407,51.30236],[-2.75361,51.30235],[-2.75347,51.30254],[-2.75339,51.30271],[-2.75298,51.30444],[-2.75173,51.30437],[-2.75009,51.30422],[-2.74974,51.30422],[-2.75021,51.3033],[-2.75033,51.30318],[-2.75055,51.3028],[-2.75072,51.30242]]],[[[-2.75997,51.30194],[-2.76023,51.3007],[-2.76021,51.30044],[-2.7643,51.30156],[-2.7638,51.30211],[-2.76403,51.30215],[-2.76366,51.30266],[-2.76253,51.30389],[-2.7624,51.30402],[-2.76234,51.30404],[-2.76222,51.30413],[-2.76223,51.30418],[-2.76154,51.30491],[-2.76,51.30444],[-2.75931,51.30441],[-2.75931,51.30431],[-2.75966,51.30303],[-2.75997,51.30194]]]]}},{"type":"Feature","properties":{"REF_CODE":"1001092","NAME":"The Perch SSSI","MEASURE":73.32696708924995,"LABEL":"The Perch (SSSI)","HYPERLINK":"1005794","CONTACT_NO":"0845 600 3078"},"geometry":{"type":"MultiPolygon","coordinates":[[[[-2.78107,51.29321],[-2.78107,51.29321],[-2.78105,51.29321],[-2.78107,51.29321]]],[[[-2.78107,51.29321],[-2.7809,51.29318],[-2.78101,51.29279],[-2.78104,51.29244],[-2.78097,51.29184],[-2.7809,51.29167],[-2.78095,51.29157],[-2.78096,51.2914],[-2.78087,51.29071],[-2.78074,51.29],[-2.78038,51.2889],[-2.78042,51.28851],[-2.78069,51.2881],[-2.78096,51.28776],[-2.78103,51.28761],[-2.78101,51.28739],[-2.78085,51.28695],[-2.78158,51.28678],[-2.78189,51.28718],[-2.78274,51.28712],[-2.78291,51.28708],[-2.78293,51.28697],[-2.7829,51.28677],[-2.78311,51.28661],[-2.78361,51.28658],[-2.78385,51.28651],[-2.78415,51.28648],[-2.78407,51.28595],[-2.78448,51.28594],[-2.78554,51.2861],[-2.7856,51.28617],[-2.78598,51.28628],[-2.78603,51.28627],[-2.78633,51.28641],[-2.78641,51.2865],[-2.78661,51.28657],[-2.7866,51.28661],[-2.78662,51.28663],[-2.78694,51.28681],[-2.78747,51.28692],[-2.78848,51.28705],[-2.78867,51.28741],[-2.78832,51.28744],[-2.7882,51.28749],[-2.78804,51.28761],[-2.788,51.28759],[-2.78779,51.28761],[-2.78757,51.28786],[-2.78743,51.28813],[-2.787,51.28804],[-2.78665,51.28863],[-2.78666,51.28875],[-2.78686,51.28908],[-2.78709,51.28958],[-2.78742,51.28956],[-2.78795,51.28967],[-2.78836,51.29005],[-2.7883,51.29019],[-2.78851,51.29084],[-2.78837,51.29236],[-2.78834,51.29306],[-2.78837,51.29318],[-2.78867,51.29322],[-2.78886,51.29296],[-2.78907,51.2928],[-2.7893,51.29251],[-2.78951,51.29237],[-2.78962,51.29226],[-2.7896,51.29224],[-2.78977,51.29211],[-2.78977,51.29207],[-2.79019,51.29188],[-2.79015,51.29197],[-2.78985,51.29226],[-2.78945,51.29259],[-2.78942,51.29267],[-2.78894,51.29334],[-2.78877,51.29374],[-2.78846,51.29417],[-2.78819,51.29464],[-2.78814,51.29482],[-2.78818,51.29496],[-2.78848,51.29534],[-2.78829,51.29556],[-2.7883,51.29584],[-2.78809,51.29585],[-2.78778,51.29576],[-2.78748,51.29581],[-2.7871,51.2958],[-2.78677,51.29588],[-2.78646,51.2959],[-2.78639,51.29593],[-2.78635,51.29601],[-2.78648,51.29629],[-2.78671,51.29654],[-2.78738,51.29675],[-2.7876,51.29692],[-2.78771,51.29696],[-2.78774,51.29702],[-2.78802,51.29705],[-2.78822,51.297],[-2.78826,51.29695],[-2.78827,51.2968],[-2.78837,51.29677],[-2.78876,51.29675],[-2.78893,51.29668],[-2.78901,51.29631],[-2.78902,51.29619],[-2.78898,51.29608],[-2.78915,51.29608],[-2.78949,51.29672],[-2.78989,51.29778],[-2.79016,51.29856],[-2.79019,51.29875],[-2.79014,51.29881],[-2.7896,51.29898],[-2.78856,51.29924],[-2.78779,51.2995],[-2.78764,51.29958],[-2.7875,51.29972],[-2.78722,51.29986],[-2.78698,51.29993],[-2.78671,51.29994],[-2.78623,51.30006],[-2.78457,51.29782],[-2.78154,51.29834],[-2.7789,51.29617],[-2.77961,51.29563],[-2.78009,51.29515],[-2.78079,51.29389],[-2.78107,51.29321]]]]}},{"type":"Feature","properties":{"REF_CODE":"1001028","NAME":"Yanal Bog SSSI","MEASURE":1.5465605735187358,"LABEL":"Yanal Bog (SSSI)","HYPERLINK":"1000599","CONTACT_NO":"0845 600 3078"},"geometry":{"type":"Polygon","coordinates":[[[-2.82573,51.34376],[-2.82559,51.34376],[-2.82564,51.34374],[-2.82553,51.3435],[-2.82557,51.34346],[-2.82573,51.34346],[-2.82623,51.34305],[-2.82705,51.34298],[-2.82825,51.3428],[-2.82854,51.34367],[-2.82695,51.34368],[-2.82684,51.34371],[-2.82682,51.3438],[-2.82573,51.34376]]]}}]}