{"type":"FeatureCollection","features":[{"type":"Feature","properties":{"MainHabs":"Wood pasture and parkland","HabCodes":"WPPRK","PrimSource":"Parks and Gardens UK database ","AreaHa":1.84,"Version":"Sep_25","UID":"PHID34595985_016074410"},"geometry":{"type":"Polygon","coordinates":[[[-2.77709,51.34358],[-2.77672,51.34359],[-2.77651,51.34356],[-2.77628,51.34346],[-2.77615,51.34334],[-2.77611,51.34324],[-2.7761,51.34299],[-2.77614,51.34281],[-2.7763,51.34249],[-2.77626,51.3423],[-2.77633,51.34222],[-2.77708,51.34212],[-2.77777,51.3419],[-2.77823,51.3418],[-2.77838,51.34203],[-2.77803,51.34216],[-2.77798,51.34221],[-2.77797,51.34231],[-2.77799,51.34237],[-2.77812,51.34244],[-2.77825,51.34261],[-2.77839,51.3426],[-2.77837,51.34267],[-2.77829,51.34276],[-2.77824,51.34278],[-2.77819,51.34275],[-2.77822,51.34278],[-2.77814,51.34281],[-2.77755,51.3429],[-2.77752,51.34287],[-2.77753,51.3429],[-2.77742,51.34294],[-2.7774,51.343],[-2.77746,51.34318],[-2.77765,51.34347],[-2.77763,51.34351],[-2.77709,51.34358]],[[-2.77741,51.34282],[-2.77737,51.34251],[-2.77692,51.34254],[-2.77697,51.34284],[-2.77741,51.34282]]]}},{"type":"Feature","properties":{"MainHabs":"Wood pasture and parkland","HabCodes":"WPPRK","PrimSource":"Parks and Gardens UK database ","AreaHa":5.26,"Version":"Sep_25","UID":"PHID34611521_016078549"},"geometry":{"type":"Polygon","coordinates":[[[-2.77679,51.34362],[-2.77729,51.3436],[-2.77736,51.34363],[-2.77738,51.34368],[-2.77707,51.34373],[-2.77724,51.34413],[-2.77718,51.34414],[-2.77717,51.34411],[-2.77681,51.34416],[-2.77686,51.34428],[-2.77678,51.34428],[-2.77677,51.34432],[-2.77692,51.34462],[-2.77524,51.3449],[-2.7744,51.34436],[-2.77357,51.34393],[-2.77299,51.34358],[-2.77282,51.34339],[-2.77266,51.34289],[-2.77348,51.34281],[-2.77349,51.34284],[-2.77466,51.34266],[-2.7746,51.34243],[-2.77587,51.34228],[-2.77591,51.34243],[-2.77621,51.34253],[-2.77605,51.34294],[-2.77605,51.34326],[-2.77617,51.34344],[-2.77611,51.34344],[-2.77612,51.34347],[-2.77622,51.34347],[-2.77658,51.34361],[-2.77679,51.34362]]]}},{"type":"Feature","properties":{"MainHabs":"Wood pasture and parkland","HabCodes":"WPPRK","PrimSource":"Parks and Gardens UK database ","AreaHa":0.01,"Version":"Sep_25","UID":"PHID34694102_016012226"},"geometry":{"type":"Polygon","coordinates":[[[-2.76327,51.33775],[-2.76295,51.33769],[-2.763,51.33765],[-2.76329,51.3377],[-2.76327,51.33775]]]}},{"type":"Feature","properties":{"MainHabs":"Wood pasture and parkland","HabCodes":"WPPRK","PrimSource":"Parks and Gardens UK database ","AreaHa":0.18,"Version":"Sep_25","UID":"PHID34695843_016008319"},"geometry":{"type":"Polygon","coordinates":[[[-2.76248,51.33743],[-2.76252,51.33732],[-2.76257,51.33728],[-2.76263,51.33708],[-2.76291,51.33718],[-2.7631,51.33729],[-2.76315,51.33744],[-2.7631,51.33756],[-2.76297,51.33762],[-2.76282,51.33756],[-2.76252,51.33753],[-2.76248,51.33743]]]}},{"type":"Feature","properties":{"MainHabs":"Wood pasture and parkland","HabCodes":"WPPRK","PrimSource":"Parks and Gardens UK database ","AreaHa":39.25,"Version":"Sep_25","UID":"PHID34697400_015994673"},"geometry":{"type":"Polygon","coordinates":[[[-2.76117,51.33723],[-2.76087,51.33764],[-2.76069,51.33801],[-2.75998,51.33788],[-2.75991,51.33803],[-2.75916,51.33789],[-2.75871,51.33777],[-2.75833,51.33756],[-2.75787,51.3371],[-2.7576,51.33697],[-2.75718,51.33695],[-2.75715,51.33686],[-2.75697,51.33668],[-2.75684,51.33632],[-2.75683,51.33604],[-2.75687,51.33584],[-2.75709,51.33536],[-2.75701,51.33489],[-2.75688,51.33457],[-2.75684,51.33454],[-2.75717,51.33429],[-2.75757,51.33409],[-2.75779,51.33405],[-2.7584,51.33415],[-2.75891,51.33417],[-2.76074,51.33379],[-2.76118,51.33381],[-2.76141,51.33358],[-2.7623,51.33365],[-2.76238,51.33368],[-2.76229,51.33292],[-2.7662,51.33329],[-2.76788,51.33427],[-2.76799,51.33442],[-2.76802,51.33462],[-2.76815,51.33484],[-2.76815,51.3351],[-2.76822,51.33543],[-2.76821,51.33568],[-2.76828,51.33587],[-2.76835,51.33629],[-2.76846,51.33663],[-2.76843,51.33724],[-2.76852,51.3378],[-2.76851,51.33791],[-2.76844,51.33796],[-2.76804,51.33862],[-2.76791,51.33877],[-2.76761,51.33881],[-2.76685,51.33898],[-2.76672,51.33891],[-2.76536,51.33931],[-2.76267,51.33895],[-2.76236,51.33903],[-2.76233,51.339],[-2.76241,51.33891],[-2.76253,51.33889],[-2.76435,51.33911],[-2.76465,51.33911],[-2.76466,51.33907],[-2.76521,51.33916],[-2.76543,51.33865],[-2.76402,51.33842],[-2.7638,51.33893],[-2.76397,51.33896],[-2.76394,51.33903],[-2.76245,51.33885],[-2.76266,51.33822],[-2.76318,51.33827],[-2.76344,51.33792],[-2.76348,51.33791],[-2.76347,51.33781],[-2.7634,51.33772],[-2.76333,51.33768],[-2.76314,51.33768],[-2.76307,51.33763],[-2.76318,51.33745],[-2.76312,51.33724],[-2.76287,51.33712],[-2.76228,51.33695],[-2.76176,51.33728],[-2.76117,51.33723]]]}},{"type":"Feature","properties":{"MainHabs":"Wood pasture and parkland","HabCodes":"WPPRK","PrimSource":"Parks and Gardens UK database ","AreaHa":0.17,"Version":"Sep_25","UID":"PHID34699941_016007187"},"geometry":{"type":"Polygon","coordinates":[[[-2.76185,51.33734],[-2.76188,51.33727],[-2.76198,51.33718],[-2.76227,51.337],[-2.76259,51.33707],[-2.76253,51.33722],[-2.76246,51.33726],[-2.76248,51.33731],[-2.76243,51.33741],[-2.76231,51.33749],[-2.76185,51.33734]]]}},{"type":"Feature","properties":{"MainHabs":"Wood pasture and parkland","HabCodes":"WPPRK","PrimSource":"Parks and Gardens UK database ","AreaHa":1.89,"Version":"Sep_25","UID":"PHID34703938_016019200"},"geometry":{"type":"Polygon","coordinates":[[[-2.76216,51.33801],[-2.76221,51.33802],[-2.76222,51.33799],[-2.76237,51.33801],[-2.76229,51.33818],[-2.7626,51.33822],[-2.76244,51.33872],[-2.7623,51.33897],[-2.76212,51.33906],[-2.76193,51.33908],[-2.76097,51.33904],[-2.76091,51.33869],[-2.76082,51.33864],[-2.76076,51.33854],[-2.76074,51.33837],[-2.76079,51.3382],[-2.76073,51.33814],[-2.76094,51.33759],[-2.7611,51.33739],[-2.76121,51.33732],[-2.76138,51.3373],[-2.76177,51.33735],[-2.76177,51.33746],[-2.76148,51.33772],[-2.7615,51.33772],[-2.76177,51.3375],[-2.76182,51.33738],[-2.76211,51.33746],[-2.76216,51.3375],[-2.76207,51.33757],[-2.7621,51.33767],[-2.76201,51.33789],[-2.76204,51.33797],[-2.76216,51.33801]]]}},{"type":"Feature","properties":{"MainHabs":"Wood pasture and parkland","HabCodes":"WPPRK","PrimSource":"Parks and Gardens UK database ","AreaHa":0.1,"Version":"Sep_25","UID":"PHID34703967_016027879"},"geometry":{"type":"Polygon","coordinates":[[[-2.76225,51.33915],[-2.76201,51.3392],[-2.76177,51.3392],[-2.76096,51.33913],[-2.76097,51.33906],[-2.76198,51.3391],[-2.76228,51.33902],[-2.76242,51.3391],[-2.76225,51.33915]]]}}]}